{
"type": "FeatureCollection",
"name": "argo_coldspots",
"crs": { "type": "name", "properties": { "name": "urn:ogc:def:crs:OGC:1.3:CRS84" } },
"xy_coordinate_resolution": 1e-05,
"features": [
{ "type": "Feature", "properties": { "patch_id": 1, "area_km2": 9615713 }, "geometry": { "type": "MultiPolygon", "coordinates": [ [ [ [ -8.63461, 56.13529 ], [ -8.94166, 58.16786 ], [ -7.45139, 58.16786 ], [ -7.19551, 56.13529 ], [ -8.63461, 56.13529 ] ] ], [ [ [ -7.59325, 59.20001 ], [ -6.0746, 59.20001 ], [ -5.96111, 58.16786 ], [ -7.45139, 58.16786 ], [ -7.59325, 59.20001 ] ] ], [ [ [ -7.91042, 61.29937 ], [ -6.32834, 61.29937 ], [ -6.19666, 60.2436 ], [ -7.74582, 60.2436 ], [ -7.91042, 61.29937 ] ] ], [ [ [ -15.28812, 64.5484 ], [ -13.58944, 64.5484 ], [ -14.36806, 66.79314 ], [ -12.57205, 66.79314 ], [ -12.21489, 65.66208 ], [ -10.4699, 65.66208 ], [ -9.93862, 63.45081 ], [ -8.28219, 63.45081 ], [ -7.91042, 61.29937 ], [ -9.49251, 61.29937 ], [ -9.70632, 62.36814 ], [ -12.94176, 62.36814 ], [ -13.2515, 63.45081 ], [ -14.90794, 63.45081 ], [ -15.28812, 64.5484 ] ] ], [ [ [ -33.15469, 65.66208 ], [ -34.12415, 66.79314 ], [ -32.32814, 66.79314 ], [ -33.34628, 67.94309 ], [ -24.08342, 67.94309 ], [ -24.90418, 69.11367 ], [ -21.07277, 69.11367 ], [ -21.85411, 70.30692 ], [ -19.86737, 70.30692 ], [ -21.59991, 72.77152 ], [ -19.43991, 72.77152 ], [ -20.40926, 74.0493 ], [ -15.87387, 74.0493 ], [ -13.90716, 70.30692 ], [ -15.8939, 70.30692 ], [ -15.32565, 69.11367 ], [ -19.15706, 69.11367 ], [ -18.52571, 67.94309 ], [ -14.82057, 67.94309 ], [ -14.36806, 66.79314 ], [ -25.14411, 66.79314 ], [ -23.19012, 63.45081 ], [ -26.503, 63.45081 ], [ -27.91974, 65.66208 ], [ -33.15469, 65.66208 ] ] ], [ [ [ -109.58617, 76.7182 ], [ -107.03765, 76.7182 ], [ -95.24323, 74.0493 ], [ -99.77862, 74.0493 ], [ -105.38005, 75.36299 ], [ -102.98505, 75.36299 ], [ -109.58617, 76.7182 ] ] ], [ [ [ -124.72327, 74.0493 ], [ -129.25867, 74.0493 ], [ -123.11946, 72.77152 ], [ -129.59943, 72.77152 ], [ -114.94237, 69.11367 ], [ -118.77379, 69.11367 ], [ -123.17772, 70.30692 ], [ -141.05835, 70.30692 ], [ -136.01514, 69.11367 ], [ -137.93085, 69.11367 ], [ -143.04509, 70.30692 ], [ -149.0053, 70.30692 ], [ -155.05461, 71.52524 ], [ -167.45898, 71.52524 ], [ -160.92573, 70.30692 ], [ -168.87268, 70.30692 ], [ -162.83503, 69.11367 ], [ -170.49786, 69.11367 ], [ -164.87883, 67.94309 ], [ -168.58397, 67.94309 ], [ -163.43671, 66.79314 ], [ -170.62075, 66.79314 ], [ -175.99425, 67.94309 ], [ -174.14168, 67.94309 ], [ -179.99235, 69.09786 ], [ -179.99244, 69.10842 ], [ -179.99239, 69.11367 ], [ -176.24497, 69.11367 ], [ -179.99198, 69.81272 ], [ -179.99211, 69.82877 ], [ -179.99207, 69.91881 ], [ -179.99202, 70.00885 ], [ -179.99198, 70.0989 ], [ -179.99193, 70.18894 ], [ -179.99189, 70.27898 ], [ -179.99167, 70.30692 ], [ -176.81963, 70.30692 ], [ -179.99133, 70.86185 ], [ -179.99156, 70.90928 ], [ -179.99151, 70.99933 ], [ -179.99146, 71.08937 ], [ -179.99141, 71.17941 ], [ -179.99118, 71.20552 ], [ -174.83289, 70.30692 ], [ -170.85942, 70.30692 ], [ -177.79596, 71.52524 ], [ -175.72856, 71.52524 ], [ -179.9905, 72.21866 ], [ -179.99077, 72.25992 ], [ -179.99071, 72.34997 ], [ -179.99065, 72.44001 ], [ -179.99059, 72.53005 ], [ -179.99053, 72.62009 ], [ -179.99047, 72.71014 ], [ -179.99016, 72.77152 ], [ -174.95923, 72.77152 ], [ -179.98977, 73.52883 ], [ -179.98982, 73.61056 ], [ -179.98975, 73.7006 ], [ -179.98968, 73.79065 ], [ -179.98961, 73.88069 ], [ -179.98953, 73.97073 ], [ -179.98931, 74.0493 ], [ -174.61258, 74.0493 ], [ -179.98864, 74.79357 ], [ -179.98875, 74.87115 ], [ -179.98867, 74.96119 ], [ -179.98858, 75.05124 ], [ -179.9885, 75.14128 ], [ -179.98841, 75.23132 ], [ -179.98832, 75.32136 ], [ -179.98786, 75.36299 ], [ -174.83509, 75.36299 ], [ -179.9872, 76.01395 ], [ -179.98756, 76.0417 ], [ -179.98745, 76.13174 ], [ -179.98735, 76.22178 ], [ -179.98725, 76.31182 ], [ -179.98714, 76.40187 ], [ -179.98703, 76.49191 ], [ -179.98692, 76.58195 ], [ -179.98681, 76.67199 ], [ -179.98625, 76.7182 ], [ -173.29906, 76.7182 ], [ -179.98563, 77.4783 ], [ -179.98572, 77.48236 ], [ -179.98559, 77.57241 ], [ -179.98546, 77.66245 ], [ -179.98532, 77.75249 ], [ -179.98518, 77.84253 ], [ -179.98504, 77.93257 ], [ -179.9849, 78.02261 ], [ -179.98475, 78.11265 ], [ -179.9845, 78.12236 ], [ -172.52252, 78.12236 ], [ -179.9827, 78.87557 ], [ -179.98332, 78.92302 ], [ -179.98314, 79.01306 ], [ -179.98296, 79.1031 ], [ -179.98278, 79.19314 ], [ -179.98259, 79.28318 ], [ -179.98241, 79.37322 ], [ -179.98221, 79.46326 ], [ -179.98202, 79.5533 ], [ -179.98121, 79.58564 ], [ -169.9527, 79.58564 ], [ -179.97937, 80.46474 ], [ -179.97956, 80.54375 ], [ -179.97931, 80.63379 ], [ -179.97905, 80.72383 ], [ -179.97878, 80.81387 ], [ -179.97851, 80.9039 ], [ -179.97823, 80.99394 ], [ -179.97795, 81.08398 ], [ -179.97676, 81.12276 ], [ -168.71736, 81.12276 ], [ -179.97371, 81.95813 ], [ -179.97469, 81.98437 ], [ -179.97432, 82.07441 ], [ -179.97393, 82.16445 ], [ -179.97354, 82.25449 ], [ -179.97313, 82.34453 ], [ -179.97272, 82.43457 ], [ -179.97229, 82.5246 ], [ -179.97185, 82.61464 ], [ -179.9714, 82.70468 ], [ -179.96956, 82.75671 ], [ -166.28585, 82.75671 ], [ -179.96451, 83.57789 ], [ -179.96603, 83.60505 ], [ -179.9654, 83.69509 ], [ -179.96474, 83.78512 ], [ -179.96406, 83.87516 ], [ -179.96336, 83.96519 ], [ -179.96263, 84.05523 ], [ -179.96188, 84.14527 ], [ -179.9611, 84.2353 ], [ -179.96028, 84.32534 ], [ -179.95944, 84.41537 ], [ -179.95857, 84.50541 ], [ -179.95625, 84.52791 ], [ -159.0734, 84.52791 ], [ -179.94291, 85.45968 ], [ -179.9462, 85.49577 ], [ -179.94475, 85.5858 ], [ -179.94323, 85.67583 ], [ -179.94164, 85.76586 ], [ -179.93996, 85.85589 ], [ -179.93819, 85.94592 ], [ -179.93634, 86.03595 ], [ -179.93438, 86.12598 ], [ -179.93231, 86.21601 ], [ -179.93012, 86.30604 ], [ -179.9278, 86.39606 ], [ -179.92535, 86.48609 ], [ -179.91759, 86.52427 ], [ -134.99523, 86.52427 ], [ -179.86422, 87.74419 ], [ -179.86555, 87.74637 ], [ -179.85807, 87.83638 ], [ -179.84984, 87.92639 ], [ -179.84072, 88.0164 ], [ -179.83058, 88.1064 ], [ -179.81926, 88.1964 ], [ -179.80653, 88.2864 ], [ -179.79214, 88.37639 ], [ -179.77577, 88.46638 ], [ -179.75698, 88.55637 ], [ -179.73525, 88.64635 ], [ -179.70987, 88.73633 ], [ -179.67989, 88.8263 ], [ -179.64401, 88.91626 ], [ -179.60045, 89.00621 ], [ -179.53075, 89.09138 ], [ -14.97375, 89.09138 ], [ -6.13615, 86.52427 ], [ 6.13615, 86.52427 ], [ 14.97375, 89.09138 ], [ 179.53075, 89.09138 ], [ 179.60045, 89.00621 ], [ 179.64401, 88.91626 ], [ 179.67989, 88.8263 ], [ 179.70987, 88.73633 ], [ 179.73525, 88.64635 ], [ 179.75698, 88.55637 ], [ 179.77577, 88.46638 ], [ 179.79214, 88.37639 ], [ 179.80653, 88.2864 ], [ 179.81926, 88.1964 ], [ 179.83058, 88.1064 ], [ 179.84072, 88.0164 ], [ 179.84984, 87.92639 ], [ 179.85807, 87.83638 ], [ 179.86555, 87.74637 ], [ 179.86422, 87.74419 ], [ 134.99523, 86.52427 ], [ 179.91759, 86.52427 ], [ 179.92535, 86.48609 ], [ 179.9278, 86.39606 ], [ 179.93012, 86.30604 ], [ 179.93231, 86.21601 ], [ 179.93438, 86.12598 ], [ 179.93634, 86.03595 ], [ 179.93819, 85.94592 ], [ 179.93996, 85.85589 ], [ 179.94164, 85.76586 ], [ 179.94323, 85.67583 ], [ 179.94475, 85.5858 ], [ 179.9462, 85.49577 ], [ 179.94291, 85.45968 ], [ 159.0734, 84.52791 ], [ 179.95625, 84.52791 ], [ 179.95857, 84.50541 ], [ 179.95944, 84.41537 ], [ 179.96028, 84.32534 ], [ 179.9611, 84.2353 ], [ 179.96188, 84.14527 ], [ 179.96263, 84.05523 ], [ 179.96336, 83.96519 ], [ 179.96406, 83.87516 ], [ 179.96474, 83.78512 ], [ 179.9654, 83.69509 ], [ 179.96603, 83.60505 ], [ 179.96451, 83.57789 ], [ 166.28585, 82.75671 ], [ 179.96956, 82.75671 ], [ 179.9714, 82.70468 ], [ 179.97185, 82.61464 ], [ 179.97229, 82.5246 ], [ 179.97272, 82.43457 ], [ 179.97313, 82.34453 ], [ 179.97354, 82.25449 ], [ 179.97393, 82.16445 ], [ 179.97432, 82.07441 ], [ 179.97469, 81.98437 ], [ 179.97371, 81.95813 ], [ 168.71736, 81.12276 ], [ 179.97676, 81.12276 ], [ 179.97795, 81.08398 ], [ 179.97823, 80.99394 ], [ 179.97851, 80.9039 ], [ 179.97878, 80.81387 ], [ 179.97905, 80.72383 ], [ 179.97931, 80.63379 ], [ 179.97956, 80.54375 ], [ 179.97937, 80.46474 ], [ 169.9527, 79.58564 ], [ 179.98121, 79.58564 ], [ 179.98202, 79.5533 ], [ 179.98221, 79.46326 ], [ 179.98241, 79.37322 ], [ 179.98259, 79.28318 ], [ 179.98278, 79.19314 ], [ 179.98296, 79.1031 ], [ 179.98314, 79.01306 ], [ 179.98332, 78.92302 ], [ 179.9827, 78.87557 ], [ 172.52252, 78.12236 ], [ 179.9845, 78.12236 ], [ 179.98475, 78.11265 ], [ 179.9849, 78.02261 ], [ 179.98504, 77.93257 ], [ 179.98518, 77.84253 ], [ 179.98532, 77.75249 ], [ 179.98546, 77.66245 ], [ 179.98559, 77.57241 ], [ 179.98572, 77.48236 ], [ 179.98563, 77.4783 ], [ 173.29906, 76.7182 ], [ 179.98625, 76.7182 ], [ 179.98681, 76.67199 ], [ 179.98692, 76.58195 ], [ 179.98703, 76.49191 ], [ 179.98714, 76.40187 ], [ 179.98725, 76.31182 ], [ 179.98735, 76.22178 ], [ 179.98745, 76.13174 ], [ 179.98756, 76.0417 ], [ 179.9872, 76.01395 ], [ 174.83509, 75.36299 ], [ 179.98786, 75.36299 ], [ 179.98832, 75.32136 ], [ 179.98841, 75.23132 ], [ 179.9885, 75.14128 ], [ 179.98858, 75.05124 ], [ 179.98867, 74.96119 ], [ 179.98875, 74.87115 ], [ 179.98864, 74.79357 ], [ 174.61258, 74.0493 ], [ 179.98931, 74.0493 ], [ 179.98953, 73.97073 ], [ 179.98961, 73.88069 ], [ 179.98968, 73.79065 ], [ 179.98975, 73.7006 ], [ 179.98982, 73.61056 ], [ 179.98977, 73.52883 ], [ 174.95923, 72.77152 ], [ 179.99016, 72.77152 ], [ 179.99047, 72.71014 ], [ 179.99053, 72.62009 ], [ 179.99059, 72.53005 ], [ 179.99065, 72.44001 ], [ 179.99071, 72.34997 ], [ 179.99077, 72.25992 ], [ 179.9905, 72.21866 ], [ 175.72856, 71.52524 ], [ 179.86335, 71.52524 ], [ 172.84615, 70.30692 ], [ 158.93899, 70.30692 ], [ 165.39159, 71.52524 ], [ 148.85243, 71.52524 ], [ 155.51932, 72.77152 ], [ 140.39939, 72.77152 ], [ 147.40023, 74.0493 ], [ 145.13254, 74.0493 ], [ 153.28008, 75.36299 ], [ 143.70007, 75.36299 ], [ 152.91093, 76.7182 ], [ 142.71687, 76.7182 ], [ 134.12007, 75.36299 ], [ 138.91007, 75.36299 ], [ 131.52636, 74.0493 ], [ 113.3848, 74.0493 ], [ 119.75006, 75.36299 ], [ 112.56506, 75.36299 ], [ 119.78023, 76.7182 ], [ 107.03765, 76.7182 ], [ 115.01501, 78.12236 ], [ 106.79965, 78.12236 ], [ 99.39211, 76.7182 ], [ 94.29508, 76.7182 ], [ 88.61504, 75.36299 ], [ 86.22004, 75.36299 ], [ 77.75966, 72.77152 ], [ 71.27969, 72.77152 ], [ 74.83396, 74.0493 ], [ 72.56627, 74.0493 ], [ 66.15663, 71.52524 ], [ 68.22403, 71.52524 ], [ 65.56233, 70.30692 ], [ 59.60212, 70.30692 ], [ 57.47119, 69.11367 ], [ 51.72407, 69.11367 ], [ 50.01942, 67.94309 ], [ 48.16685, 67.94309 ], [ 51.65517, 70.30692 ], [ 55.62865, 70.30692 ], [ 57.88706, 71.52524 ], [ 55.81966, 71.52524 ], [ 58.31974, 72.77152 ], [ 56.15975, 72.77152 ], [ 62.27003, 75.36299 ], [ 67.06003, 75.36299 ], [ 71.35844, 76.7182 ], [ 68.80992, 76.7182 ], [ 73.93822, 78.12236 ], [ 71.19977, 78.12236 ], [ 66.2614, 76.7182 ], [ 61.16437, 76.7182 ], [ 49.61748, 71.52524 ], [ 51.68487, 71.52524 ], [ 47.89266, 69.11367 ], [ 44.06124, 69.11367 ], [ 42.60914, 67.94309 ], [ 38.90399, 67.94309 ], [ 40.22983, 69.11367 ], [ 34.48271, 69.11367 ], [ 35.76127, 70.30692 ], [ 31.7878, 70.30692 ], [ 33.07832, 71.52524 ], [ 22.74134, 71.52524 ], [ 21.85411, 70.30692 ], [ 15.8939, 70.30692 ], [ 16.53916, 71.52524 ], [ 14.47176, 71.52524 ], [ 16.76501, 75.36299 ], [ 14.37001, 75.36299 ], [ 15.29109, 76.7182 ], [ 17.83961, 76.7182 ], [ 19.16917, 78.12236 ], [ 21.90762, 78.12236 ], [ 20.38812, 76.7182 ], [ 22.93664, 76.7182 ], [ 29.77365, 81.12276 ], [ 13.23273, 81.12276 ], [ 11.92651, 79.58564 ], [ -2.98163, 79.58564 ], [ -2.73845, 78.12236 ], [ -5.47691, 78.12236 ], [ -5.09703, 76.7182 ], [ -10.19406, 76.7182 ], [ -9.58, 75.36299 ], [ -14.37001, 75.36299 ], [ -13.60618, 74.0493 ], [ -15.87387, 74.0493 ], [ -16.76501, 75.36299 ], [ -19.16001, 75.36299 ], [ -20.38812, 76.7182 ], [ -17.83961, 76.7182 ], [ -19.16917, 78.12236 ], [ -16.43072, 78.12236 ], [ -17.88976, 79.58564 ], [ -11.92651, 79.58564 ], [ -13.23273, 81.12276 ], [ -9.92455, 81.12276 ], [ -11.33767, 82.75671 ], [ -22.67534, 82.75671 ], [ -27.26973, 84.52791 ], [ -54.53945, 84.52791 ], [ -45.35069, 82.75671 ], [ -64.2468, 82.75671 ], [ -77.26422, 84.52791 ], [ -90.89908, 84.52791 ], [ -75.58448, 82.75671 ], [ -102.03904, 82.75671 ], [ -89.32095, 81.12276 ], [ -109.17005, 81.12276 ], [ -90.36894, 78.12236 ], [ -93.10739, 78.12236 ], [ -101.37529, 79.58564 ], [ -113.3018, 79.58564 ], [ -96.84359, 76.7182 ], [ -101.94062, 76.7182 ], [ -109.53811, 78.12236 ], [ -117.75346, 78.12236 ], [ -109.58617, 76.7182 ], [ -112.13468, 76.7182 ], [ -120.49192, 78.12236 ], [ -128.70727, 78.12236 ], [ -119.78023, 76.7182 ], [ -127.42578, 76.7182 ], [ -107.99953, 72.77152 ], [ -110.15952, 72.77152 ], [ -122.14506, 75.36299 ], [ -131.72507, 75.36299 ], [ -124.72327, 74.0493 ] ], [ [ -106.79965, 78.12236 ], [ -116.28343, 79.58564 ], [ -119.26505, 79.58564 ], [ -109.53811, 78.12236 ], [ -106.79965, 78.12236 ] ], [ [ 46.31457, 81.12276 ], [ 41.74277, 79.58564 ], [ 47.70602, 79.58564 ], [ 52.93094, 81.12276 ], [ 46.31457, 81.12276 ] ], [ [ 56.23912, 81.12276 ], [ 50.68765, 79.58564 ], [ 59.63253, 79.58564 ], [ 66.16367, 81.12276 ], [ 56.23912, 81.12276 ] ], [ [ 104.0612, 78.12236 ], [ 113.3018, 79.58564 ], [ 98.39367, 79.58564 ], [ 109.17005, 81.12276 ], [ 92.62914, 81.12276 ], [ 83.48554, 79.58564 ], [ 95.41204, 79.58564 ], [ 87.63048, 78.12236 ], [ 104.0612, 78.12236 ] ] ], [ [ [ 1.35447, 52.18177 ], [ 2.70895, 52.18177 ], [ 2.67258, 51.21395 ], [ 1.33629, 51.21395 ], [ 1.35447, 52.18177 ] ] ], [ [ [ 0.0, 61.29937 ], [ 0.0, 62.36814 ], [ 4.85316, 62.36814 ], [ 4.47083, 58.16786 ], [ 8.94166, 58.16786 ], [ 8.78295, 57.14649 ], [ 7.31913, 57.14649 ], [ 7.0797, 55.13371 ], [ 8.49564, 55.13371 ], [ 8.36518, 54.14123 ], [ 5.57679, 54.14123 ], [ 5.49498, 53.1574 ], [ 4.12124, 53.1574 ], [ 4.06342, 52.18177 ], [ 2.70895, 52.18177 ], [ 2.74749, 53.1574 ], [ 0.0, 53.1574 ], [ 0.0, 55.13371 ], [ -1.41594, 55.13371 ], [ -1.49028, 58.16786 ], [ -2.98055, 58.16786 ], [ -3.0373, 59.20001 ], [ -6.0746, 59.20001 ], [ -6.19666, 60.2436 ], [ -3.09833, 60.2436 ], [ -3.16417, 61.29937 ], [ 0.0, 61.29937 ] ] ], [ [ [ -6.47088, 62.36814 ], [ -3.23544, 62.36814 ], [ -3.16417, 61.29937 ], [ -6.32834, 61.29937 ], [ -6.47088, 62.36814 ] ] ], [ [ [ 6.47088, 62.36814 ], [ 4.85316, 62.36814 ], [ 5.23495, 65.66208 ], [ 6.97993, 65.66208 ], [ 7.18403, 66.79314 ], [ 8.98004, 66.79314 ], [ 9.26286, 67.94309 ], [ 14.82057, 67.94309 ], [ 14.36806, 66.79314 ], [ 12.57205, 66.79314 ], [ 12.21489, 65.66208 ], [ 10.4699, 65.66208 ], [ 10.19208, 64.5484 ], [ 8.4934, 64.5484 ], [ 8.28219, 63.45081 ], [ 6.62575, 63.45081 ], [ 6.47088, 62.36814 ] ] ], [ [ [ 7.41028, 67.94309 ], [ 7.18403, 66.79314 ], [ 3.59202, 66.79314 ], [ 3.70514, 67.94309 ], [ 7.41028, 67.94309 ] ] ], [ [ [ 44.46171, 67.94309 ], [ 43.10419, 66.79314 ], [ 41.30818, 66.79314 ], [ 42.60914, 67.94309 ], [ 44.46171, 67.94309 ] ] ], [ [ [ 128.17848, 71.52524 ], [ 133.91941, 72.77152 ], [ 127.43944, 72.77152 ], [ 133.79406, 74.0493 ], [ 142.86484, 74.0493 ], [ 136.0794, 72.77152 ], [ 140.39939, 72.77152 ], [ 134.38066, 71.52524 ], [ 128.17848, 71.52524 ] ] ] ] } },
{ "type": "Feature", "properties": { "patch_id": 2, "area_km2": 8476761 }, "geometry": { "type": "MultiPolygon", "coordinates": [ [ [ [ -179.97676, -81.12276 ], [ -179.97795, -81.08398 ], [ -179.97823, -80.99394 ], [ -179.97851, -80.9039 ], [ -179.97878, -80.81387 ], [ -179.97905, -80.72383 ], [ -179.97931, -80.63379 ], [ -179.97956, -80.54375 ], [ -179.97937, -80.46474 ], [ -169.9527, -79.58564 ], [ -161.00782, -79.58564 ], [ -178.64191, -81.12276 ], [ -179.97676, -81.12276 ] ] ], [ [ [ -173.29906, -76.7182 ], [ -170.75054, -76.7182 ], [ -179.98506, -77.76309 ], [ -179.98532, -77.75249 ], [ -179.98546, -77.66245 ], [ -179.98559, -77.57241 ], [ -179.98572, -77.48236 ], [ -179.98563, -77.4783 ], [ -173.29906, -76.7182 ] ] ], [ [ [ -87.24919, -65.66208 ], [ -83.75922, -65.66208 ], [ -88.92341, -67.94309 ], [ -90.77598, -67.94309 ], [ -88.00438, -66.79314 ], [ -89.80039, -66.79314 ], [ -87.24919, -65.66208 ] ] ], [ [ [ -1.41594, -55.13371 ], [ -4.24782, -55.13371 ], [ -4.31731, -56.13529 ], [ -1.4391, -56.13529 ], [ -1.49028, -58.16786 ], [ 0.0, -58.16786 ], [ 0.0, -59.20001 ], [ -1.51865, -59.20001 ], [ -1.58208, -61.29937 ], [ -4.74625, -61.29937 ], [ -4.85316, -62.36814 ], [ -6.47088, -62.36814 ], [ -6.62575, -63.45081 ], [ -9.93862, -63.45081 ], [ -10.19208, -64.5484 ], [ -11.89076, -64.5484 ], [ -12.21489, -65.66208 ], [ -13.95987, -65.66208 ], [ -13.58944, -64.5484 ], [ -18.68548, -64.5484 ], [ -18.22081, -63.45081 ], [ -19.87725, -63.45081 ], [ -19.41264, -62.36814 ], [ -21.03036, -62.36814 ], [ -21.53369, -63.45081 ], [ -26.503, -63.45081 ], [ -25.88352, -62.36814 ], [ -22.64808, -62.36814 ], [ -22.14919, -61.29937 ], [ -26.89544, -61.29937 ], [ -27.50124, -62.36814 ], [ -35.58984, -62.36814 ], [ -36.44162, -63.45081 ], [ -38.09806, -63.45081 ], [ -37.20756, -62.36814 ], [ -38.82528, -62.36814 ], [ -39.7545, -63.45081 ], [ -46.38025, -63.45081 ], [ -48.85954, -65.66208 ], [ -47.11456, -65.66208 ], [ -45.86436, -64.5484 ], [ -44.16568, -64.5484 ], [ -45.36958, -65.66208 ], [ -41.87961, -65.66208 ], [ -43.10419, -66.79314 ], [ -41.30818, -66.79314 ], [ -42.60914, -67.94309 ], [ -35.19885, -67.94309 ], [ -34.12415, -66.79314 ], [ -32.32814, -66.79314 ], [ -33.34628, -67.94309 ], [ -29.64114, -67.94309 ], [ -30.6513, -69.11367 ], [ -32.56701, -69.11367 ], [ -33.77454, -70.30692 ], [ -27.81432, -70.30692 ], [ -28.94353, -71.52524 ], [ -14.47176, -71.52524 ], [ -13.90716, -70.30692 ], [ -11.92042, -70.30692 ], [ -12.95994, -72.77152 ], [ -17.27992, -72.77152 ], [ -19.16001, -75.36299 ], [ -28.74001, -75.36299 ], [ -30.58219, -76.7182 ], [ -33.1307, -76.7182 ], [ -38.76114, -79.58564 ], [ -35.77952, -79.58564 ], [ -39.6982, -81.12276 ], [ -46.31457, -81.12276 ], [ -41.74277, -79.58564 ], [ -44.72439, -79.58564 ], [ -41.07679, -78.12236 ], [ -46.55369, -78.12236 ], [ -43.32476, -76.7182 ], [ -45.87328, -76.7182 ], [ -53.66927, -79.58564 ], [ -50.68765, -79.58564 ], [ -56.23912, -81.12276 ], [ -62.85549, -81.12276 ], [ -56.6509, -79.58564 ], [ -68.57741, -79.58564 ], [ -62.98441, -78.12236 ], [ -68.46132, -78.12236 ], [ -74.54066, -79.58564 ], [ -77.52228, -79.58564 ], [ -71.19977, -78.12236 ], [ -73.93822, -78.12236 ], [ -68.80992, -76.7182 ], [ -66.2614, -76.7182 ], [ -58.96009, -74.0493 ], [ -61.22779, -74.0493 ], [ -58.31974, -72.77152 ], [ -60.47974, -72.77152 ], [ -57.88706, -71.52524 ], [ -62.02185, -71.52524 ], [ -59.60212, -70.30692 ], [ -61.58886, -70.30692 ], [ -59.38689, -69.11367 ], [ -63.21831, -69.11367 ], [ -61.13485, -67.94309 ], [ -64.83999, -67.94309 ], [ -62.86027, -66.79314 ], [ -61.06427, -66.79314 ], [ -59.32945, -65.66208 ], [ -61.07443, -65.66208 ], [ -59.45379, -64.5484 ], [ -57.75511, -64.5484 ], [ -55.00248, -62.36814 ], [ -56.6202, -62.36814 ], [ -57.97531, -63.45081 ], [ -61.28819, -63.45081 ], [ -62.85115, -64.5484 ], [ -64.54983, -64.5484 ], [ -72.79684, -69.11367 ], [ -74.71254, -69.11367 ], [ -77.48276, -70.30692 ], [ -75.49602, -70.30692 ], [ -78.561, -71.52524 ], [ -74.42621, -71.52524 ], [ -77.75966, -72.77152 ], [ -95.03958, -72.77152 ], [ -90.96537, -71.52524 ], [ -101.30235, -71.52524 ], [ -105.83954, -72.77152 ], [ -103.67955, -72.77152 ], [ -108.8494, -74.0493 ], [ -120.18788, -74.0493 ], [ -114.4795, -72.77152 ], [ -116.63949, -72.77152 ], [ -122.45558, -74.0493 ], [ -124.72327, -74.0493 ], [ -118.79948, -72.77152 ], [ -125.27945, -72.77152 ], [ -131.52636, -74.0493 ], [ -133.79406, -74.0493 ], [ -141.30507, -75.36299 ], [ -143.70007, -75.36299 ], [ -164.30716, -78.12236 ], [ -156.0918, -78.12236 ], [ -169.9527, -79.58564 ], [ -179.98121, -79.58564 ], [ -179.98202, -79.5533 ], [ -179.98221, -79.46326 ], [ -179.98241, -79.37322 ], [ -179.98259, -79.28318 ], [ -179.98278, -79.19314 ], [ -179.98296, -79.1031 ], [ -179.98314, -79.01306 ], [ -179.98332, -78.92302 ], [ -179.9827, -78.87557 ], [ -172.52252, -78.12236 ], [ -167.04561, -78.12236 ], [ -155.45945, -76.7182 ], [ -163.105, -76.7182 ], [ -175.26097, -78.12236 ], [ -177.99942, -78.12236 ], [ -165.65351, -76.7182 ], [ -170.75054, -76.7182 ], [ -160.46508, -75.36299 ], [ -167.65008, -75.36299 ], [ -178.39609, -76.7182 ], [ -179.98625, -76.7182 ], [ -179.98681, -76.67199 ], [ -179.98692, -76.58195 ], [ -179.98703, -76.49191 ], [ -179.98714, -76.40187 ], [ -179.98725, -76.31182 ], [ -179.98735, -76.22178 ], [ -179.98745, -76.13174 ], [ -179.98756, -76.0417 ], [ -179.9872, -76.01395 ], [ -174.83509, -75.36299 ], [ -179.98786, -75.36299 ], [ -179.98832, -75.32136 ], [ -179.98841, -75.23132 ], [ -179.9885, -75.14128 ], [ -179.98858, -75.05124 ], [ -179.98867, -74.96119 ], [ -179.98875, -74.87115 ], [ -179.98864, -74.79357 ], [ -174.61258, -74.0493 ], [ -179.98931, -74.0493 ], [ -179.98953, -73.97073 ], [ -179.98961, -73.88069 ], [ -179.98968, -73.79065 ], [ -179.98975, -73.7006 ], [ -179.98982, -73.61056 ], [ -179.98977, -73.52883 ], [ -174.95923, -72.77152 ], [ -179.99016, -72.77152 ], [ -179.99047, -72.71014 ], [ -179.99053, -72.62009 ], [ -179.99059, -72.53005 ], [ -179.99065, -72.44001 ], [ -179.99071, -72.34997 ], [ -179.99077, -72.25992 ], [ -179.9905, -72.21866 ], [ -175.72856, -71.52524 ], [ -179.99107, -71.52524 ], [ -179.99126, -71.44954 ], [ -179.99131, -71.3595 ], [ -179.99136, -71.26945 ], [ -179.99141, -71.17941 ], [ -179.99146, -71.08937 ], [ -179.99151, -70.99933 ], [ -179.99156, -70.90928 ], [ -179.99133, -70.86185 ], [ -176.81963, -70.30692 ], [ -179.99167, -70.30692 ], [ -179.99189, -70.27898 ], [ -179.99193, -70.18894 ], [ -179.99198, -70.0989 ], [ -179.99202, -70.00885 ], [ -179.99207, -69.91881 ], [ -179.99211, -69.82877 ], [ -179.99198, -69.81272 ], [ -176.24497, -69.11367 ], [ -179.99239, -69.11367 ], [ -179.99244, -69.10842 ], [ -179.99248, -69.01838 ], [ -179.99251, -68.92834 ], [ -179.99255, -68.8383 ], [ -179.99259, -68.74825 ], [ -179.99263, -68.65821 ], [ -179.99267, -68.56817 ], [ -179.9927, -68.47812 ], [ -179.99274, -68.38808 ], [ -179.99262, -68.37034 ], [ -177.84683, -67.94309 ], [ -179.99287, -67.94309 ], [ -179.99292, -67.93786 ], [ -179.99295, -67.84782 ], [ -179.99299, -67.75778 ], [ -179.99302, -67.66774 ], [ -179.99305, -67.57769 ], [ -179.99309, -67.48765 ], [ -179.99312, -67.39761 ], [ -179.99315, -67.30756 ], [ -179.99299, -67.25476 ], [ -177.80478, -66.79314 ], [ -179.99318, -66.79314 ], [ -179.99334, -66.7673 ], [ -179.99337, -66.67726 ], [ -179.9934, -66.58722 ], [ -179.99343, -66.49717 ], [ -179.99341, -66.49444 ], [ -171.56666, -64.5484 ], [ -168.1693, -64.5484 ], [ -160.15427, -62.36814 ], [ -161.77199, -62.36814 ], [ -154.91643, -60.2436 ], [ -151.81811, -60.2436 ], [ -146.04718, -58.16786 ], [ -138.5958, -58.16786 ], [ -141.23437, -59.20001 ], [ -139.71572, -59.20001 ], [ -137.10552, -58.16786 ], [ -134.12496, -58.16786 ], [ -136.67842, -59.20001 ], [ -138.19707, -59.20001 ], [ -140.97396, -60.2436 ], [ -139.42479, -60.2436 ], [ -142.38764, -61.29937 ], [ -140.80555, -61.29937 ], [ -143.97707, -62.36814 ], [ -142.35935, -62.36814 ], [ -136.32646, -60.2436 ], [ -130.12981, -60.2436 ], [ -132.89513, -61.29937 ], [ -129.73096, -61.29937 ], [ -132.65303, -62.36814 ], [ -134.27075, -62.36814 ], [ -137.48431, -63.45081 ], [ -140.79718, -63.45081 ], [ -144.38779, -64.5484 ], [ -146.08647, -64.5484 ], [ -150.0686, -65.66208 ], [ -151.81358, -65.66208 ], [ -161.17369, -67.94309 ], [ -159.32111, -67.94309 ], [ -154.45667, -66.79314 ], [ -150.86466, -66.79314 ], [ -142.68911, -64.5484 ], [ -140.99043, -64.5484 ], [ -144.83365, -65.66208 ], [ -137.85371, -65.66208 ], [ -134.19571, -64.5484 ], [ -137.59307, -64.5484 ], [ -134.17143, -63.45081 ], [ -132.515, -63.45081 ], [ -126.56679, -61.29937 ], [ -124.9847, -61.29937 ], [ -130.85856, -63.45081 ], [ -125.88925, -63.45081 ], [ -122.94671, -62.36814 ], [ -121.32899, -62.36814 ], [ -124.23281, -63.45081 ], [ -122.57637, -63.45081 ], [ -129.1288, -65.66208 ], [ -127.38381, -65.66208 ], [ -124.00363, -64.5484 ], [ -90.03003, -64.5484 ], [ -92.48414, -65.66208 ], [ -90.73915, -65.66208 ], [ -88.33135, -64.5484 ], [ -86.63267, -64.5484 ], [ -94.48113, -67.94309 ], [ -90.77598, -67.94309 ], [ -93.86961, -69.11367 ], [ -91.9539, -69.11367 ], [ -88.92341, -67.94309 ], [ -83.3657, -67.94309 ], [ -80.82035, -66.79314 ], [ -77.22834, -66.79314 ], [ -79.66056, -67.94309 ], [ -75.95542, -67.94309 ], [ -73.63632, -66.79314 ], [ -71.84031, -66.79314 ], [ -67.94719, -64.5484 ], [ -66.24851, -64.5484 ], [ -63.09108, -62.36814 ], [ -58.23792, -62.36814 ], [ -56.95506, -61.29937 ], [ -55.37297, -61.29937 ], [ -54.22075, -60.2436 ], [ -52.67159, -60.2436 ], [ -53.79089, -61.29937 ], [ -52.2088, -61.29937 ], [ -53.38476, -62.36814 ], [ -51.76704, -62.36814 ], [ -53.006, -63.45081 ], [ -51.34956, -63.45081 ], [ -52.65907, -64.5484 ], [ -50.9604, -64.5484 ], [ -48.5316, -62.36814 ], [ -50.14932, -62.36814 ], [ -48.02409, -60.2436 ], [ -44.92577, -60.2436 ], [ -44.04082, -59.20001 ], [ -39.48488, -59.20001 ], [ -38.74721, -58.16786 ], [ -37.25693, -58.16786 ], [ -37.96623, -59.20001 ], [ -36.44758, -59.20001 ], [ -35.76666, -58.16786 ], [ -34.27638, -58.16786 ], [ -34.92893, -59.20001 ], [ -30.37298, -59.20001 ], [ -29.80555, -58.16786 ], [ -28.31527, -58.16786 ], [ -28.85433, -59.20001 ], [ -27.33568, -59.20001 ], [ -26.34886, -57.14649 ], [ -29.27651, -57.14649 ], [ -28.31881, -55.13371 ], [ -26.90287, -55.13371 ], [ -27.34294, -56.13529 ], [ -24.46473, -56.13529 ], [ -25.33472, -58.16786 ], [ -23.84444, -58.16786 ], [ -23.02563, -56.13529 ], [ -21.58653, -56.13529 ], [ -21.95738, -57.14649 ], [ -19.02973, -57.14649 ], [ -19.37361, -58.16786 ], [ -13.4125, -58.16786 ], [ -13.66784, -59.20001 ], [ -10.63054, -59.20001 ], [ -10.43194, -58.16786 ], [ -8.94166, -58.16786 ], [ -8.78295, -57.14649 ], [ -7.31913, -57.14649 ], [ -7.19551, -56.13529 ], [ -8.63461, -56.13529 ], [ -8.49564, -55.13371 ], [ -9.91158, -55.13371 ], [ -9.75938, -54.14123 ], [ -11.15358, -54.14123 ], [ -10.98996, -53.1574 ], [ -9.61622, -53.1574 ], [ -9.35401, -51.21395 ], [ -5.34515, -51.21395 ], [ -5.4179, -52.18177 ], [ -4.06342, -52.18177 ], [ -4.00886, -51.21395 ], [ -2.67258, -51.21395 ], [ -2.63819, -50.25357 ], [ -1.3191, -50.25357 ], [ -1.33629, -51.21395 ], [ 0.0, -51.21395 ], [ 0.0, -52.18177 ], [ -2.70895, -52.18177 ], [ -2.74749, -53.1574 ], [ -1.37375, -53.1574 ], [ -1.41594, -55.13371 ] ], [ [ -12.94176, -62.36814 ], [ -13.2515, -63.45081 ], [ -11.59506, -63.45081 ], [ -11.07459, -61.29937 ], [ -18.98502, -61.29937 ], [ -19.41264, -62.36814 ], [ -12.94176, -62.36814 ] ], [ [ -119.9089, -71.52524 ], [ -121.9763, -71.52524 ], [ -127.43944, -72.77152 ], [ -125.27945, -72.77152 ], [ -119.9089, -71.52524 ] ], [ [ -95.36339, -70.30692 ], [ -91.38992, -70.30692 ], [ -88.12249, -69.11367 ], [ -91.9539, -69.11367 ], [ -95.36339, -70.30692 ] ], [ [ -15.18649, -59.20001 ], [ -15.49164, -60.2436 ], [ -13.94248, -60.2436 ], [ -13.66784, -59.20001 ], [ -15.18649, -59.20001 ] ], [ [ -9.11189, -59.20001 ], [ -7.59325, -59.20001 ], [ -7.45139, -58.16786 ], [ -8.94166, -58.16786 ], [ -9.11189, -59.20001 ] ], [ [ -7.74582, -60.2436 ], [ -6.19666, -60.2436 ], [ -6.0746, -59.20001 ], [ -7.59325, -59.20001 ], [ -7.74582, -60.2436 ] ], [ [ -5.66376, -55.13371 ], [ -5.57679, -54.14123 ], [ -8.36518, -54.14123 ], [ -8.49564, -55.13371 ], [ -5.66376, -55.13371 ] ], [ [ -8.12685, -52.18177 ], [ -8.24247, -53.1574 ], [ -5.49498, -53.1574 ], [ -5.4179, -52.18177 ], [ -8.12685, -52.18177 ] ], [ [ -4.47083, -58.16786 ], [ -4.39148, -57.14649 ], [ -5.8553, -57.14649 ], [ -5.96111, -58.16786 ], [ -4.47083, -58.16786 ] ], [ [ -4.64749, -60.2436 ], [ -3.09833, -60.2436 ], [ -2.98055, -58.16786 ], [ -4.47083, -58.16786 ], [ -4.64749, -60.2436 ] ], [ [ -22.77974, -59.20001 ], [ -23.23747, -60.2436 ], [ -21.6883, -60.2436 ], [ -21.26109, -59.20001 ], [ -22.77974, -59.20001 ] ], [ [ -43.3766, -60.2436 ], [ -44.29838, -61.29937 ], [ -42.71629, -61.29937 ], [ -43.67844, -62.36814 ], [ -42.06072, -62.36814 ], [ -40.27827, -60.2436 ], [ -43.3766, -60.2436 ] ], [ [ -38.72911, -60.2436 ], [ -39.55212, -61.29937 ], [ -34.80587, -61.29937 ], [ -34.08162, -60.2436 ], [ -38.72911, -60.2436 ] ], [ [ -155.04432, -61.29937 ], [ -158.53655, -62.36814 ], [ -156.91883, -62.36814 ], [ -160.67443, -63.45081 ], [ -157.36156, -63.45081 ], [ -153.68339, -62.36814 ], [ -155.30111, -62.36814 ], [ -151.88015, -61.29937 ], [ -155.04432, -61.29937 ] ], [ [ -161.37458, -64.5484 ], [ -159.6759, -64.5484 ], [ -155.70512, -63.45081 ], [ -157.36156, -63.45081 ], [ -161.37458, -64.5484 ] ], [ [ -136.0593, -61.29937 ], [ -139.12391, -62.36814 ], [ -137.50619, -62.36814 ], [ -134.47721, -61.29937 ], [ -136.0593, -61.29937 ] ], [ [ -122.14886, -65.66208 ], [ -125.72055, -66.79314 ], [ -123.92454, -66.79314 ], [ -120.40388, -65.66208 ], [ -122.14886, -65.66208 ] ], [ [ -116.91391, -65.66208 ], [ -120.33253, -66.79314 ], [ -116.74051, -66.79314 ], [ -113.42394, -65.66208 ], [ -116.91391, -65.66208 ] ], [ [ -143.68063, -66.79314 ], [ -148.20569, -67.94309 ], [ -146.35312, -67.94309 ], [ -141.88462, -66.79314 ], [ -143.68063, -66.79314 ] ], [ [ -109.55648, -66.79314 ], [ -113.00684, -67.94309 ], [ -109.3017, -67.94309 ], [ -105.96446, -66.79314 ], [ -109.55648, -66.79314 ] ], [ [ -123.17772, -70.30692 ], [ -118.77379, -69.11367 ], [ -122.6052, -69.11367 ], [ -118.56455, -67.94309 ], [ -125.97484, -67.94309 ], [ -130.26802, -69.11367 ], [ -126.43661, -69.11367 ], [ -131.12467, -70.30692 ], [ -123.17772, -70.30692 ] ], [ [ -100.03884, -67.94309 ], [ -103.44814, -69.11367 ], [ -101.53243, -69.11367 ], [ -98.18627, -67.94309 ], [ -100.03884, -67.94309 ] ], [ [ -84.29107, -69.11367 ], [ -87.41644, -70.30692 ], [ -85.42971, -70.30692 ], [ -82.37537, -69.11367 ], [ -84.29107, -69.11367 ] ], [ [ -36.39842, -69.11367 ], [ -37.74801, -70.30692 ], [ -35.76127, -70.30692 ], [ -34.48271, -69.11367 ], [ -36.39842, -69.11367 ] ], [ [ -155.05461, -71.52524 ], [ -161.99929, -72.77152 ], [ -159.8393, -72.77152 ], [ -152.98722, -71.52524 ], [ -155.05461, -71.52524 ] ], [ [ -157.67931, -72.77152 ], [ -165.5418, -74.0493 ], [ -163.27411, -74.0493 ], [ -155.51932, -72.77152 ], [ -157.67931, -72.77152 ] ] ], [ [ [ -132.65303, -62.36814 ], [ -131.03531, -62.36814 ], [ -134.17143, -63.45081 ], [ -135.82787, -63.45081 ], [ -132.65303, -62.36814 ] ] ], [ [ [ -119.71127, -62.36814 ], [ -118.09355, -62.36814 ], [ -120.91993, -63.45081 ], [ -122.57637, -63.45081 ], [ -119.71127, -62.36814 ] ] ], [ [ [ -135.15977, -59.20001 ], [ -133.64112, -59.20001 ], [ -136.32646, -60.2436 ], [ -137.87563, -60.2436 ], [ -135.15977, -59.20001 ] ] ], [ [ [ -150.34626, -59.20001 ], [ -151.86491, -59.20001 ], [ -154.91643, -60.2436 ], [ -156.4656, -60.2436 ], [ -147.84639, -57.14649 ], [ -143.45491, -57.14649 ], [ -146.04718, -58.16786 ], [ -147.53746, -58.16786 ], [ -150.34626, -59.20001 ] ] ], [ [ [ -56.23912, -81.12276 ], [ -49.62275, -81.12276 ], [ -56.68836, -82.75671 ], [ -64.2468, -82.75671 ], [ -56.23912, -81.12276 ] ] ], [ [ [ -11.49424, -69.11367 ], [ -9.57853, -69.11367 ], [ -9.93369, -70.30692 ], [ -11.92042, -70.30692 ], [ -11.49424, -69.11367 ] ] ], [ [ [ -19.19482, -65.66208 ], [ -17.44984, -65.66208 ], [ -17.96008, -66.79314 ], [ -19.75609, -66.79314 ], [ -19.19482, -65.66208 ] ] ], [ [ [ -25.14411, -66.79314 ], [ -24.42977, -65.66208 ], [ -34.89967, -65.66208 ], [ -33.9736, -64.5484 ], [ -18.68548, -64.5484 ], [ -19.19482, -65.66208 ], [ -22.68479, -65.66208 ], [ -23.3481, -66.79314 ], [ -25.14411, -66.79314 ] ] ], [ [ [ -57.31908, -60.2436 ], [ -55.76992, -60.2436 ], [ -56.95506, -61.29937 ], [ -58.53714, -61.29937 ], [ -57.31908, -60.2436 ] ] ], [ [ [ -13.17443, -57.14649 ], [ -10.24678, -57.14649 ], [ -10.43194, -58.16786 ], [ -13.4125, -58.16786 ], [ -13.17443, -57.14649 ] ] ], [ [ [ -21.23911, -55.13371 ], [ -14.15941, -55.13371 ], [ -14.39102, -56.13529 ], [ -21.58653, -56.13529 ], [ -21.23911, -55.13371 ] ] ] ] } },
{ "type": "Feature", "properties": { "patch_id": 3, "area_km2": 6070000 }, "geometry": { "type": "MultiPolygon", "coordinates": [ [ [ [ 106.55975, -8.91022 ], [ 107.56503, -8.91022 ], [ 107.7197, -9.72311 ], [ 106.71297, -9.72311 ], [ 106.55975, -8.91022 ] ] ], [ [ [ 117.74497, 0.80878 ], [ 118.74281, 0.80878 ], [ 118.73551, 0.0 ], [ 117.73773, 0.0 ], [ 117.74497, 0.80878 ] ] ], [ [ [ 118.38842, 12.1666 ], [ 119.40028, 12.1666 ], [ 118.79368, 9.72311 ], [ 117.78696, 9.72311 ], [ 118.38842, 12.1666 ] ] ], [ [ [ 110.09188, 11.35123 ], [ 110.51021, 12.98292 ], [ 111.52407, 12.98292 ], [ 111.1019, 11.35123 ], [ 110.09188, 11.35123 ] ] ], [ [ [ 119.63491, 12.98292 ], [ 120.64877, 12.98292 ], [ 120.41215, 12.1666 ], [ 119.40028, 12.1666 ], [ 119.63491, 12.98292 ] ] ], [ [ [ 117.85423, 13.80027 ], [ 119.8862, 13.80027 ], [ 119.63491, 12.98292 ], [ 117.6072, 12.98292 ], [ 117.85423, 13.80027 ] ] ], [ [ [ 119.98822, -10.53676 ], [ 120.99653, -10.53676 ], [ 120.63368, -8.91022 ], [ 123.64952, -8.91022 ], [ 123.82731, -9.72311 ], [ 122.82059, -9.72311 ], [ 123.01314, -10.53676 ], [ 125.02974, -10.53676 ], [ 124.83404, -9.72311 ], [ 125.84077, -9.72311 ], [ 125.66008, -8.91022 ], [ 127.67064, -8.91022 ], [ 127.50372, -8.09802 ], [ 126.49975, -8.09802 ], [ 126.35047, -7.28644 ], [ 125.34769, -7.28644 ], [ 125.49579, -8.09802 ], [ 114.45216, -8.09802 ], [ 114.19666, -6.47543 ], [ 108.18631, -6.47543 ], [ 108.08593, -5.66491 ], [ 106.08434, -5.66491 ], [ 105.86855, -3.23573 ], [ 108.86483, -3.23573 ], [ 108.81794, -2.42658 ], [ 106.82128, -2.42658 ], [ 106.78844, -1.61762 ], [ 104.79239, -1.61762 ], [ 104.77307, -0.80878 ], [ 103.77523, -0.80878 ], [ 103.76885, 0.0 ], [ 104.76663, 0.0 ], [ 104.82462, 2.42658 ], [ 103.82629, 2.42658 ], [ 104.08274, 5.66491 ], [ 103.08195, 5.66491 ], [ 103.17768, 6.47543 ], [ 102.17596, 6.47543 ], [ 102.28372, 7.28644 ], [ 100.27815, 7.28644 ], [ 100.67261, 9.72311 ], [ 99.66589, 9.72311 ], [ 100.17481, 12.1666 ], [ 102.19855, 12.1666 ], [ 102.01175, 11.35123 ], [ 103.02176, 11.35123 ], [ 102.84705, 10.53676 ], [ 103.85535, 10.53676 ], [ 103.69279, 9.72311 ], [ 104.69952, 9.72311 ], [ 104.41249, 8.09802 ], [ 105.41646, 8.09802 ], [ 105.55447, 8.91022 ], [ 106.55975, 8.91022 ], [ 106.88027, 10.53676 ], [ 108.89687, 10.53676 ], [ 109.08187, 11.35123 ], [ 110.09188, 11.35123 ], [ 109.90518, 10.53676 ], [ 110.91348, 10.53676 ], [ 111.1019, 11.35123 ], [ 112.11192, 11.35123 ], [ 112.31722, 12.1666 ], [ 113.32908, 12.1666 ], [ 113.12194, 11.35123 ], [ 114.13195, 11.35123 ], [ 114.34095, 12.1666 ], [ 117.37655, 12.1666 ], [ 116.78023, 9.72311 ], [ 117.78696, 9.72311 ], [ 117.61784, 8.91022 ], [ 116.61256, 8.91022 ], [ 116.46009, 8.09802 ], [ 118.46802, 8.09802 ], [ 118.20356, 6.47543 ], [ 117.20183, 6.47543 ], [ 117.32544, 7.28644 ], [ 116.32266, 7.28644 ], [ 116.09229, 5.66491 ], [ 115.0915, 5.66491 ], [ 114.9991, 4.85483 ], [ 113.99911, 4.85483 ], [ 113.92178, 4.04513 ], [ 112.92247, 4.04513 ], [ 112.85987, 3.23573 ], [ 110.86235, 3.23573 ], [ 110.8146, 2.42658 ], [ 108.81794, 2.42658 ], [ 108.78448, -1.61762 ], [ 109.78251, -1.61762 ], [ 109.86359, -3.23573 ], [ 111.86111, -3.23573 ], [ 111.92316, -4.04513 ], [ 112.92247, -4.04513 ], [ 112.85987, -3.23573 ], [ 113.85863, -3.23573 ], [ 113.92178, -4.04513 ], [ 116.91973, -4.04513 ], [ 116.76866, -1.61762 ], [ 117.76669, -1.61762 ], [ 117.74497, -0.80878 ], [ 118.74281, -0.80878 ], [ 119.09468, -5.66491 ], [ 123.09786, -5.66491 ], [ 122.99904, -4.85483 ], [ 123.99903, -4.85483 ], [ 123.91492, -4.04513 ], [ 122.91561, -4.04513 ], [ 122.79456, -2.42658 ], [ 121.79623, -2.42658 ], [ 121.75878, -1.61762 ], [ 123.75482, -1.61762 ], [ 123.79289, -2.42658 ], [ 125.78955, -2.42658 ], [ 125.91355, -4.04513 ], [ 130.91012, -4.04513 ], [ 130.74098, -1.61762 ], [ 131.73901, -1.61762 ], [ 131.83631, -3.23573 ], [ 132.83507, -3.23573 ], [ 132.90875, -4.04513 ], [ 134.90738, -4.04513 ], [ 134.99895, -4.85483 ], [ 136.99893, -4.85483 ], [ 137.109, -5.66491 ], [ 138.1098, -5.66491 ], [ 138.38385, -7.28644 ], [ 137.38107, -7.28644 ], [ 137.72345, -8.91022 ], [ 140.73929, -8.91022 ], [ 140.94166, -9.72311 ], [ 143.96184, -9.72311 ], [ 143.56718, -8.09802 ], [ 145.57511, -8.09802 ], [ 145.76569, -8.91022 ], [ 146.77098, -8.91022 ], [ 146.98201, -9.72311 ], [ 144.96856, -9.72311 ], [ 145.19583, -10.53676 ], [ 144.18753, -10.53676 ], [ 144.69695, -12.1666 ], [ 143.68509, -12.1666 ], [ 143.17922, -10.53676 ], [ 141.16261, -10.53676 ], [ 141.93972, -12.98292 ], [ 140.92587, -12.98292 ], [ 141.87425, -15.43832 ], [ 140.85357, -15.43832 ], [ 141.20817, -16.25917 ], [ 140.18492, -16.25917 ], [ 140.55788, -17.08133 ], [ 139.53191, -17.08133 ], [ 139.16167, -16.25917 ], [ 138.13843, -16.25917 ], [ 137.79154, -15.43832 ], [ 136.77086, -15.43832 ], [ 136.44659, -14.61871 ], [ 137.46485, -14.61871 ], [ 136.35233, -11.35123 ], [ 135.34232, -11.35123 ], [ 135.59015, -12.1666 ], [ 134.57829, -12.1666 ], [ 134.3323, -11.35123 ], [ 132.31226, -11.35123 ], [ 132.55455, -12.1666 ], [ 131.54268, -12.1666 ], [ 131.30225, -11.35123 ], [ 129.28221, -11.35123 ], [ 130.04605, -13.80027 ], [ 129.03006, -13.80027 ], [ 129.31878, -14.61871 ], [ 128.30052, -14.61871 ], [ 128.01408, -13.80027 ], [ 124.96612, -13.80027 ], [ 125.24575, -14.61871 ], [ 124.22749, -14.61871 ], [ 124.52272, -15.43832 ], [ 123.50205, -15.43832 ], [ 123.81296, -16.25917 ], [ 121.76646, -16.25917 ], [ 122.09042, -17.08133 ], [ 121.06445, -17.08133 ], [ 121.76268, -18.72988 ], [ 120.73079, -18.72988 ], [ 121.10549, -19.55643 ], [ 118.00022, -19.55643 ], [ 118.3845, -20.38459 ], [ 115.26911, -20.38459 ], [ 115.66245, -21.21445 ], [ 113.57844, -21.21445 ], [ 113.19219, -20.38459 ], [ 112.15373, -20.38459 ], [ 111.11564, -17.90487 ], [ 113.17334, -17.90487 ], [ 112.85669, -17.08133 ], [ 113.88266, -17.08133 ], [ 114.89496, -19.55643 ], [ 115.93005, -19.55643 ], [ 114.90863, -17.08133 ], [ 117.98654, -17.08133 ], [ 117.67347, -16.25917 ], [ 118.69672, -16.25917 ], [ 118.11794, -14.61871 ], [ 119.1362, -14.61871 ], [ 118.17202, -11.35123 ], [ 113.12194, -11.35123 ], [ 112.75333, -9.72311 ], [ 109.73315, -9.72311 ], [ 109.57559, -8.91022 ], [ 107.56503, -8.91022 ], [ 107.42439, -8.09802 ], [ 110.43629, -8.09802 ], [ 110.58087, -8.91022 ], [ 116.61256, -8.91022 ], [ 116.78023, -9.72311 ], [ 117.78696, -9.72311 ], [ 117.61784, -8.91022 ], [ 118.62312, -8.91022 ], [ 118.79368, -9.72311 ], [ 119.80041, -9.72311 ], [ 119.98822, -10.53676 ] ], [ [ 135.10741, -5.66491 ], [ 134.10661, -5.66491 ], [ 134.23116, -6.47543 ], [ 133.22943, -6.47543 ], [ 133.36995, -7.28644 ], [ 135.37551, -7.28644 ], [ 135.10741, -5.66491 ] ], [ [ 132.36716, -7.28644 ], [ 130.3616, -7.28644 ], [ 130.51562, -8.09802 ], [ 132.52355, -8.09802 ], [ 132.36716, -7.28644 ] ], [ [ 122.21209, -11.35123 ], [ 121.20207, -11.35123 ], [ 121.42402, -12.1666 ], [ 122.43588, -12.1666 ], [ 122.21209, -11.35123 ] ] ], [ [ [ 127.72336, -0.80878 ], [ 128.7212, -0.80878 ], [ 128.7212, 0.80878 ], [ 129.71904, 0.80878 ], [ 129.71904, -0.80878 ], [ 130.71687, -0.80878 ], [ 130.74098, -1.61762 ], [ 129.74296, -1.61762 ], [ 129.78286, -2.42658 ], [ 127.78621, -2.42658 ], [ 127.84127, -3.23573 ], [ 126.84251, -3.23573 ], [ 126.74889, -1.61762 ], [ 127.74692, -1.61762 ], [ 127.72336, -0.80878 ] ] ], [ [ [ 118.73551, 0.0 ], [ 119.73329, 0.0 ], [ 119.74065, -0.80878 ], [ 118.74281, -0.80878 ], [ 118.73551, 0.0 ] ] ], [ [ [ 126.78788, 2.42658 ], [ 126.91286, 4.04513 ], [ 127.91218, 4.04513 ], [ 127.74692, 1.61762 ], [ 126.74889, 1.61762 ], [ 126.74889, -1.61762 ], [ 123.75482, -1.61762 ], [ 123.7244, 0.0 ], [ 124.72218, 0.0 ], [ 124.72984, 0.80878 ], [ 125.72768, 0.80878 ], [ 125.75087, 1.61762 ], [ 120.76076, 1.61762 ], [ 120.73849, 0.80878 ], [ 119.74065, 0.80878 ], [ 119.76273, 1.61762 ], [ 118.76471, 1.61762 ], [ 118.85243, 3.23573 ], [ 117.85367, 3.23573 ], [ 117.91904, 4.04513 ], [ 118.91835, 4.04513 ], [ 118.99907, 4.85483 ], [ 119.99906, 4.85483 ], [ 119.91767, 4.04513 ], [ 121.9163, 4.04513 ], [ 121.84871, 3.23573 ], [ 120.84995, 3.23573 ], [ 120.7979, 2.42658 ], [ 123.79289, 2.42658 ], [ 123.84623, 3.23573 ], [ 125.84375, 3.23573 ], [ 125.78955, 2.42658 ], [ 126.78788, 2.42658 ] ] ], [ [ [ 125.99902, 4.85483 ], [ 126.99901, 4.85483 ], [ 126.91286, 4.04513 ], [ 125.91355, 4.04513 ], [ 125.99902, 4.85483 ] ] ], [ [ [ 123.21218, 6.47543 ], [ 124.21391, 6.47543 ], [ 123.99903, 4.85483 ], [ 122.99904, 4.85483 ], [ 123.09786, 5.66491 ], [ 121.09627, 5.66491 ], [ 120.99906, 4.85483 ], [ 119.99906, 4.85483 ], [ 120.09547, 5.66491 ], [ 118.09388, 5.66491 ], [ 118.20356, 6.47543 ], [ 120.20701, 6.47543 ], [ 120.47596, 8.09802 ], [ 118.46802, 8.09802 ], [ 118.79368, 9.72311 ], [ 119.80041, 9.72311 ], [ 120.41215, 12.1666 ], [ 121.42402, 12.1666 ], [ 120.99653, 10.53676 ], [ 122.00483, 10.53676 ], [ 121.63896, 8.91022 ], [ 122.64424, 8.91022 ], [ 122.48389, 8.09802 ], [ 121.47992, 8.09802 ], [ 121.20873, 6.47543 ], [ 122.21046, 6.47543 ], [ 122.33935, 7.28644 ], [ 123.34213, 7.28644 ], [ 123.21218, 6.47543 ] ] ] ] } },
{ "type": "Feature", "properties": { "patch_id": 4, "area_km2": 4710000 }, "geometry": { "type": "MultiPolygon", "coordinates": [ [ [ [ 4.47083, -58.16786 ], [ 5.96111, -58.16786 ], [ 5.8553, -57.14649 ], [ 7.31913, -57.14649 ], [ 7.19551, -56.13529 ], [ 17.26922, -56.13529 ], [ 17.56591, -57.14649 ], [ 20.49356, -57.14649 ], [ 19.82317, -55.13371 ], [ 21.23911, -55.13371 ], [ 20.60618, -53.1574 ], [ 23.35367, -53.1574 ], [ 23.70135, -54.14123 ], [ 22.30715, -54.14123 ], [ 22.65505, -55.13371 ], [ 24.07099, -55.13371 ], [ 24.46473, -56.13529 ], [ 23.02563, -56.13529 ], [ 24.29839, -59.20001 ], [ 27.33568, -59.20001 ], [ 27.88496, -60.2436 ], [ 29.43412, -60.2436 ], [ 28.85433, -59.20001 ], [ 37.96623, -59.20001 ], [ 37.25693, -58.16786 ], [ 43.21804, -58.16786 ], [ 42.45094, -57.14649 ], [ 43.91477, -57.14649 ], [ 43.17306, -56.13529 ], [ 44.61216, -56.13529 ], [ 45.3786, -57.14649 ], [ 46.84242, -57.14649 ], [ 45.3101, -55.13371 ], [ 46.72604, -55.13371 ], [ 47.49037, -56.13529 ], [ 51.80767, -56.13529 ], [ 52.69772, -57.14649 ], [ 51.2339, -57.14649 ], [ 52.15971, -58.16786 ], [ 56.63054, -58.16786 ], [ 57.70867, -59.20001 ], [ 59.22732, -59.20001 ], [ 58.12082, -58.16786 ], [ 61.10137, -58.16786 ], [ 62.26461, -59.20001 ], [ 60.74597, -59.20001 ], [ 61.96657, -60.2436 ], [ 65.0649, -60.2436 ], [ 63.78326, -59.20001 ], [ 66.82056, -59.20001 ], [ 65.5722, -58.16786 ], [ 67.06248, -58.16786 ], [ 65.87215, -57.14649 ], [ 64.40833, -57.14649 ], [ 62.30139, -55.13371 ], [ 63.71733, -55.13371 ], [ 64.75959, -56.13529 ], [ 70.516, -56.13529 ], [ 71.72746, -57.14649 ], [ 74.65511, -57.14649 ], [ 73.3942, -56.13529 ], [ 79.15061, -56.13529 ], [ 80.51041, -57.14649 ], [ 81.97424, -57.14649 ], [ 83.45553, -58.16786 ], [ 84.94581, -58.16786 ], [ 86.563, -59.20001 ], [ 85.04435, -59.20001 ], [ 88.59675, -61.29937 ], [ 87.01467, -61.29937 ], [ 88.97459, -62.36814 ], [ 84.12143, -62.36814 ], [ 86.13475, -63.45081 ], [ 82.82187, -63.45081 ], [ 84.93399, -64.5484 ], [ 67.94719, -64.5484 ], [ 69.79935, -65.66208 ], [ 68.05437, -65.66208 ], [ 66.24851, -64.5484 ], [ 61.15247, -64.5484 ], [ 62.81941, -65.66208 ], [ 57.58446, -65.66208 ], [ 56.05643, -64.5484 ], [ 50.9604, -64.5484 ], [ 52.34951, -65.66208 ], [ 48.85954, -65.66208 ], [ 50.28822, -66.79314 ], [ 43.10419, -66.79314 ], [ 44.46171, -67.94309 ], [ 38.90399, -67.94309 ], [ 40.22983, -69.11367 ], [ 34.48271, -69.11367 ], [ 33.34628, -67.94309 ], [ 31.49371, -67.94309 ], [ 32.56701, -69.11367 ], [ 30.6513, -69.11367 ], [ 31.7878, -70.30692 ], [ 17.88064, -70.30692 ], [ 17.24136, -69.11367 ], [ 15.32565, -69.11367 ], [ 15.8939, -70.30692 ], [ 0.0, -70.30692 ], [ 0.0, -71.52524 ], [ -2.06739, -71.52524 ], [ -1.98674, -70.30692 ], [ -5.96021, -70.30692 ], [ -5.55771, -67.94309 ], [ -3.70514, -67.94309 ], [ -3.83141, -69.11367 ], [ 0.0, -69.11367 ], [ 0.0, -67.94309 ], [ 1.85257, -67.94309 ], [ 1.79601, -66.79314 ], [ 5.38802, -66.79314 ], [ 5.55771, -67.94309 ], [ 7.41028, -67.94309 ], [ 6.97993, -65.66208 ], [ 5.23495, -65.66208 ], [ 4.96931, -63.45081 ], [ 1.65644, -63.45081 ], [ 1.61772, -62.36814 ], [ 4.85316, -62.36814 ], [ 4.47083, -58.16786 ] ], [ [ 26.33579, -60.2436 ], [ 26.89544, -61.29937 ], [ 28.47753, -61.29937 ], [ 27.88496, -60.2436 ], [ 26.33579, -60.2436 ] ], [ [ 85.20404, -60.2436 ], [ 83.65487, -60.2436 ], [ 85.43258, -61.29937 ], [ 87.01467, -61.29937 ], [ 85.20404, -60.2436 ] ], [ [ 1.91571, -69.11367 ], [ 3.83141, -69.11367 ], [ 3.70514, -67.94309 ], [ 1.85257, -67.94309 ], [ 1.91571, -69.11367 ] ], [ [ 49.77007, -57.14649 ], [ 48.30625, -57.14649 ], [ 50.11542, -59.20001 ], [ 51.63407, -59.20001 ], [ 49.77007, -57.14649 ] ], [ [ 68.79981, -57.14649 ], [ 67.33598, -57.14649 ], [ 68.55276, -58.16786 ], [ 70.04304, -58.16786 ], [ 68.79981, -57.14649 ] ], [ [ 13.4125, -58.16786 ], [ 13.66784, -59.20001 ], [ 18.22379, -59.20001 ], [ 17.88333, -58.16786 ], [ 13.4125, -58.16786 ] ], [ [ 12.14919, -59.20001 ], [ 12.39331, -60.2436 ], [ 10.84415, -60.2436 ], [ 11.07459, -61.29937 ], [ 14.23876, -61.29937 ], [ 13.66784, -59.20001 ], [ 12.14919, -59.20001 ] ], [ [ 78.9847, -58.16786 ], [ 80.4884, -59.20001 ], [ 82.00705, -59.20001 ], [ 80.47498, -58.16786 ], [ 78.9847, -58.16786 ] ], [ [ 77.45111, -59.20001 ], [ 79.00738, -60.2436 ], [ 82.10571, -60.2436 ], [ 80.4884, -59.20001 ], [ 77.45111, -59.20001 ] ], [ [ 9.11189, -59.20001 ], [ 6.0746, -59.20001 ], [ 6.19666, -60.2436 ], [ 9.29499, -60.2436 ], [ 9.11189, -59.20001 ] ], [ [ 18.58997, -60.2436 ], [ 17.04081, -60.2436 ], [ 17.40293, -61.29937 ], [ 18.98502, -61.29937 ], [ 18.58997, -60.2436 ] ], [ [ 37.20756, -62.36814 ], [ 38.09806, -63.45081 ], [ 39.7545, -63.45081 ], [ 38.82528, -62.36814 ], [ 37.20756, -62.36814 ] ], [ [ 34.78519, -63.45081 ], [ 35.67228, -64.5484 ], [ 37.37096, -64.5484 ], [ 38.38964, -65.66208 ], [ 40.13463, -65.66208 ], [ 38.09806, -63.45081 ], [ 34.78519, -63.45081 ] ], [ [ 34.89967, -65.66208 ], [ 29.66472, -65.66208 ], [ 30.53213, -66.79314 ], [ 35.92016, -66.79314 ], [ 34.89967, -65.66208 ] ], [ [ 14.36806, -66.79314 ], [ 12.57205, -66.79314 ], [ 12.968, -67.94309 ], [ 14.82057, -67.94309 ], [ 14.36806, -66.79314 ] ], [ [ 23.3481, -66.79314 ], [ 21.55209, -66.79314 ], [ 22.23085, -67.94309 ], [ 24.08342, -67.94309 ], [ 23.3481, -66.79314 ] ] ], [ [ [ 88.30237, -60.2436 ], [ 86.563, -59.20001 ], [ 88.08165, -59.20001 ], [ 89.85153, -60.2436 ], [ 88.30237, -60.2436 ] ] ], [ [ [ 56.63054, -58.16786 ], [ 55.62537, -57.14649 ], [ 57.0892, -57.14649 ], [ 58.12082, -58.16786 ], [ 56.63054, -58.16786 ] ] ], [ [ [ 54.68588, -56.13529 ], [ 55.62537, -57.14649 ], [ 54.16155, -57.14649 ], [ 53.24678, -56.13529 ], [ 54.68588, -56.13529 ] ] ], [ [ [ 79.15061, -56.13529 ], [ 77.87673, -55.13371 ], [ 79.29267, -55.13371 ], [ 80.58971, -56.13529 ], [ 79.15061, -56.13529 ] ] ], [ [ [ 7.0797, -55.13371 ], [ 7.19551, -56.13529 ], [ 4.31731, -56.13529 ], [ 4.24782, -55.13371 ], [ 5.66376, -55.13371 ], [ 5.57679, -54.14123 ], [ 9.75938, -54.14123 ], [ 9.91158, -55.13371 ], [ 7.0797, -55.13371 ] ] ], [ [ [ 51.80767, -56.13529 ], [ 50.1911, -54.14123 ], [ 51.58529, -54.14123 ], [ 53.24678, -56.13529 ], [ 51.80767, -56.13529 ] ] ], [ [ [ 78.07504, -54.14123 ], [ 79.46924, -54.14123 ], [ 80.70861, -55.13371 ], [ 79.29267, -55.13371 ], [ 78.07504, -54.14123 ] ] ], [ [ [ 76.92974, -53.1574 ], [ 78.07504, -54.14123 ], [ 76.68084, -54.14123 ], [ 77.87673, -55.13371 ], [ 73.62891, -55.13371 ], [ 71.43476, -53.1574 ], [ 70.06102, -53.1574 ], [ 69.07822, -52.18177 ], [ 74.49612, -52.18177 ], [ 72.55034, -50.25357 ], [ 73.86944, -50.25357 ], [ 74.83211, -51.21395 ], [ 76.16839, -51.21395 ], [ 78.30349, -53.1574 ], [ 76.92974, -53.1574 ] ], [ [ 75.556, -53.1574 ], [ 74.18225, -53.1574 ], [ 75.28664, -54.14123 ], [ 76.68084, -54.14123 ], [ 75.556, -53.1574 ] ] ] ] } },
{ "type": "Feature", "properties": { "patch_id": 5, "area_km2": 3440000 }, "geometry": { "type": "MultiPolygon", "coordinates": [ [ [ [ -43.92651, -2.42658 ], [ -43.913, -1.61762 ], [ -42.91498, -1.61762 ], [ -42.92818, -2.42658 ], [ -43.92651, -2.42658 ] ] ], [ [ [ -42.91498, 1.61762 ], [ -42.92818, 2.42658 ], [ -39.93319, 2.42658 ], [ -39.92091, 1.61762 ], [ -37.92487, 1.61762 ], [ -37.91554, 0.0 ], [ -36.91776, 0.0 ], [ -36.92003, -0.80878 ], [ -38.91571, -0.80878 ], [ -38.91332, 0.0 ], [ -40.90887, 0.0 ], [ -40.93152, -2.42658 ], [ -41.92985, -2.42658 ], [ -41.91696, -1.61762 ], [ -42.91498, -1.61762 ], [ -42.90707, -0.80878 ], [ -43.9049, -0.80878 ], [ -43.913, -1.61762 ], [ -44.91102, -1.61762 ], [ -44.90274, -0.80878 ], [ -46.89842, -0.80878 ], [ -46.89554, 0.0 ], [ -49.88887, 0.0 ], [ -49.91649, 2.42658 ], [ -50.91482, 2.42658 ], [ -50.9996, 4.85483 ], [ -51.99959, 4.85483 ], [ -52.04137, 5.66491 ], [ -54.04296, 5.66491 ], [ -54.09315, 6.47543 ], [ -57.09833, 6.47543 ], [ -57.15855, 7.28644 ], [ -58.16133, 7.28644 ], [ -58.23004, 8.09802 ], [ -57.22608, 8.09802 ], [ -57.301, 8.91022 ], [ -56.29572, 8.91022 ], [ -56.22211, 8.09802 ], [ -54.21418, 8.09802 ], [ -54.28516, 8.91022 ], [ -51.26931, 8.91022 ], [ -51.20228, 8.09802 ], [ -53.21021, 8.09802 ], [ -53.14742, 7.28644 ], [ -52.14464, 7.28644 ], [ -52.0897, 6.47543 ], [ -50.08625, 6.47543 ], [ -50.13908, 7.28644 ], [ -49.1363, 7.28644 ], [ -49.03899, 5.66491 ], [ -50.03978, 5.66491 ], [ -49.99961, 4.85483 ], [ -47.99963, 4.85483 ], [ -48.03819, 5.66491 ], [ -47.03739, 5.66491 ], [ -47.08108, 6.47543 ], [ -48.0828, 6.47543 ], [ -48.13351, 7.28644 ], [ -44.12239, 7.28644 ], [ -44.03501, 5.66491 ], [ -46.0366, 5.66491 ], [ -45.99964, 4.85483 ], [ -44.99965, 4.85483 ], [ -44.92484, 2.42658 ], [ -45.92317, 2.42658 ], [ -45.90058, 0.80878 ], [ -44.90274, 0.80878 ], [ -44.91102, 1.61762 ], [ -42.91498, 1.61762 ] ], [ [ -41.91696, 1.61762 ], [ -41.90923, 0.80878 ], [ -40.91139, 0.80878 ], [ -40.91893, 1.61762 ], [ -41.91696, 1.61762 ] ], [ [ -42.90707, 0.80878 ], [ -42.90443, 0.0 ], [ -41.90665, 0.0 ], [ -41.90923, 0.80878 ], [ -42.90707, 0.80878 ] ] ], [ [ [ -48.13351, 7.28644 ], [ -49.1363, 7.28644 ], [ -49.25875, 8.91022 ], [ -48.25347, 8.91022 ], [ -48.13351, 7.28644 ] ] ], [ [ [ -59.23401, 8.09802 ], [ -59.31156, 8.91022 ], [ -58.30628, 8.91022 ], [ -58.23004, 8.09802 ], [ -59.23401, 8.09802 ] ] ], [ [ [ -50.26403, 8.91022 ], [ -50.33631, 9.72311 ], [ -49.32958, 9.72311 ], [ -49.25875, 8.91022 ], [ -50.26403, 8.91022 ] ] ], [ [ [ -59.59102, 11.35123 ], [ -59.31156, 8.91022 ], [ -60.31684, 8.91022 ], [ -60.60104, 11.35123 ], [ -59.59102, 11.35123 ] ] ], [ [ [ -80.52085, 22.04609 ], [ -80.23431, 21.21445 ], [ -79.19231, 21.21445 ], [ -78.923, 20.38459 ], [ -77.88454, 20.38459 ], [ -77.63173, 19.55643 ], [ -73.49137, 19.55643 ], [ -73.26399, 18.72988 ], [ -74.29587, 18.72988 ], [ -74.07709, 17.90487 ], [ -68.93285, 17.90487 ], [ -68.73999, 17.08133 ], [ -67.71402, 17.08133 ], [ -67.53434, 16.25917 ], [ -68.55759, 16.25917 ], [ -68.38543, 15.43832 ], [ -64.30272, 15.43832 ], [ -64.4646, 16.25917 ], [ -63.44135, 16.25917 ], [ -63.78861, 17.90487 ], [ -64.81746, 17.90487 ], [ -65.21065, 19.55643 ], [ -64.17556, 19.55643 ], [ -63.977, 18.72988 ], [ -61.91323, 18.72988 ], [ -61.5582, 17.08133 ], [ -60.53223, 17.08133 ], [ -60.37161, 16.25917 ], [ -62.4181, 16.25917 ], [ -62.26136, 15.43832 ], [ -61.24068, 15.43832 ], [ -60.60104, 11.35123 ], [ -61.61105, 11.35123 ], [ -61.50657, 10.53676 ], [ -62.51487, 10.53676 ], [ -62.62107, 11.35123 ], [ -64.64111, 11.35123 ], [ -64.53148, 10.53676 ], [ -67.55639, 10.53676 ], [ -67.67116, 11.35123 ], [ -68.68117, 11.35123 ], [ -68.80694, 12.1666 ], [ -70.83068, 12.1666 ], [ -70.96986, 12.98292 ], [ -71.98372, 12.98292 ], [ -71.84254, 12.1666 ], [ -73.86628, 12.1666 ], [ -73.73126, 11.35123 ], [ -75.7513, 11.35123 ], [ -75.50446, 9.72311 ], [ -76.51119, 9.72311 ], [ -76.40133, 8.91022 ], [ -77.40661, 8.91022 ], [ -77.51791, 9.72311 ], [ -79.53136, 9.72311 ], [ -79.79137, 11.35123 ], [ -78.78135, 11.35123 ], [ -78.92561, 12.1666 ], [ -79.93748, 12.1666 ], [ -80.09456, 12.98292 ], [ -82.12227, 12.98292 ], [ -82.67492, 15.43832 ], [ -83.6956, 15.43832 ], [ -83.9063, 16.25917 ], [ -87.99929, 16.25917 ], [ -88.23341, 17.08133 ], [ -87.20744, 17.08133 ], [ -87.71041, 18.72988 ], [ -86.67852, 18.72988 ], [ -87.23068, 20.38459 ], [ -86.19222, 20.38459 ], [ -86.7952, 22.04609 ], [ -89.93238, 22.04609 ], [ -89.61235, 21.21445 ], [ -90.65435, 21.21445 ], [ -90.34606, 20.38459 ], [ -91.38452, 20.38459 ], [ -91.08789, 19.55643 ], [ -92.12298, 19.55643 ], [ -91.83795, 18.72988 ], [ -95.9655, 18.72988 ], [ -96.57683, 20.38459 ], [ -95.53836, 20.38459 ], [ -96.56591, 22.8796 ], [ -95.51628, 22.8796 ], [ -95.88871, 23.71506 ], [ -93.78127, 23.71506 ], [ -94.16282, 24.55255 ], [ -93.10481, 24.55255 ], [ -92.72755, 23.71506 ], [ -87.45894, 23.71506 ], [ -87.81476, 24.55255 ], [ -86.75675, 24.55255 ], [ -86.06962, 22.8796 ], [ -85.01999, 22.8796 ], [ -84.40233, 21.21445 ], [ -82.31832, 21.21445 ], [ -82.6123, 22.04609 ], [ -80.52085, 22.04609 ] ], [ [ -93.78037, 21.21445 ], [ -94.82237, 21.21445 ], [ -94.4999, 20.38459 ], [ -93.46144, 20.38459 ], [ -93.78037, 21.21445 ] ], [ [ -80.4872, 18.72988 ], [ -79.45531, 18.72988 ], [ -79.70191, 19.55643 ], [ -80.737, 19.55643 ], [ -80.4872, 18.72988 ] ], [ [ -79.22134, 17.90487 ], [ -78.19249, 17.90487 ], [ -77.97371, 17.08133 ], [ -76.94774, 17.08133 ], [ -76.55086, 15.43832 ], [ -75.53018, 15.43832 ], [ -76.35965, 18.72988 ], [ -79.45531, 18.72988 ], [ -79.22134, 17.90487 ] ], [ [ -82.55097, 18.72988 ], [ -84.61474, 18.72988 ], [ -84.36558, 17.90487 ], [ -83.33673, 17.90487 ], [ -83.10356, 17.08133 ], [ -82.07759, 17.08133 ], [ -82.55097, 18.72988 ] ], [ [ -80.02565, 17.08133 ], [ -81.05162, 17.08133 ], [ -80.83656, 16.25917 ], [ -79.81331, 16.25917 ], [ -80.02565, 17.08133 ] ], [ [ -70.79193, 17.08133 ], [ -71.8179, 17.08133 ], [ -71.27807, 14.61871 ], [ -70.25981, 14.61871 ], [ -70.79193, 17.08133 ] ], [ [ -79.61289, 15.43832 ], [ -80.63357, 15.43832 ], [ -80.44239, 14.61871 ], [ -79.42413, 14.61871 ], [ -79.61289, 15.43832 ] ], [ [ -75.3511, 14.61871 ], [ -76.36936, 14.61871 ], [ -76.19886, 13.80027 ], [ -75.18287, 13.80027 ], [ -75.3511, 14.61871 ] ], [ [ -78.23083, 13.80027 ], [ -79.24681, 13.80027 ], [ -79.0807, 12.98292 ], [ -78.06685, 12.98292 ], [ -78.23083, 13.80027 ] ], [ [ -69.08696, 13.80027 ], [ -70.10295, 13.80027 ], [ -69.95601, 12.98292 ], [ -68.94215, 12.98292 ], [ -69.08696, 13.80027 ] ], [ [ -66.03901, 13.80027 ], [ -68.07098, 13.80027 ], [ -67.9283, 12.98292 ], [ -65.90059, 12.98292 ], [ -66.03901, 13.80027 ] ] ], [ [ [ -61.07029, 19.55643 ], [ -61.26917, 20.38459 ], [ -59.19225, 20.38459 ], [ -58.81757, 18.72988 ], [ -57.78568, 18.72988 ], [ -57.61552, 17.90487 ], [ -58.64437, 17.90487 ], [ -58.48029, 17.08133 ], [ -60.53223, 17.08133 ], [ -60.88134, 18.72988 ], [ -61.91323, 18.72988 ], [ -62.10538, 19.55643 ], [ -61.07029, 19.55643 ] ] ] ] } },
{ "type": "Feature", "properties": { "patch_id": 6, "area_km2": 2490000 }, "geometry": { "type": "MultiPolygon", "coordinates": [ [ [ [ -60.50811, 48.35374 ], [ -61.99756, 50.25357 ], [ -59.35937, 50.25357 ], [ -58.62719, 49.30027 ], [ -59.93001, 49.30027 ], [ -59.2207, 48.35374 ], [ -60.50811, 48.35374 ] ] ], [ [ [ -64.63576, 50.25357 ], [ -63.83849, 49.30027 ], [ -65.14132, 49.30027 ], [ -65.95486, 50.25357 ], [ -64.63576, 50.25357 ] ] ], [ [ [ -79.91402, 52.18177 ], [ -82.25763, 54.14123 ], [ -80.86343, 54.14123 ], [ -78.55954, 52.18177 ], [ -79.91402, 52.18177 ] ] ], [ [ [ -54.78779, 51.21395 ], [ -55.53347, 52.18177 ], [ -54.17899, 52.18177 ], [ -55.76788, 54.14123 ], [ -57.16208, 54.14123 ], [ -58.05356, 55.13371 ], [ -59.46951, 55.13371 ], [ -63.78326, 59.20001 ], [ -62.26461, 59.20001 ], [ -63.51574, 60.2436 ], [ -66.61407, 60.2436 ], [ -65.30191, 59.20001 ], [ -68.33921, 59.20001 ], [ -69.7124, 60.2436 ], [ -68.16323, 60.2436 ], [ -69.61173, 61.29937 ], [ -71.19382, 61.29937 ], [ -72.79739, 62.36814 ], [ -76.03283, 62.36814 ], [ -77.85256, 63.45081 ], [ -74.53969, 63.45081 ], [ -76.44059, 64.5484 ], [ -74.74191, 64.5484 ], [ -71.17967, 62.36814 ], [ -67.94423, 62.36814 ], [ -66.44756, 61.29937 ], [ -63.28339, 61.29937 ], [ -64.70879, 62.36814 ], [ -63.09108, 62.36814 ], [ -64.60106, 63.45081 ], [ -62.94462, 63.45081 ], [ -64.54983, 64.5484 ], [ -61.15247, 64.5484 ], [ -62.81941, 65.66208 ], [ -59.32945, 65.66208 ], [ -62.98742, 67.94309 ], [ -64.83999, 67.94309 ], [ -67.04972, 69.11367 ], [ -65.13401, 69.11367 ], [ -70.29142, 71.52524 ], [ -72.35882, 71.52524 ], [ -79.36936, 74.0493 ], [ -74.83396, 74.0493 ], [ -79.03504, 75.36299 ], [ -74.24504, 75.36299 ], [ -79.00398, 76.7182 ], [ -71.35844, 76.7182 ], [ -67.06003, 75.36299 ], [ -59.87503, 75.36299 ], [ -56.6924, 74.0493 ], [ -58.96009, 74.0493 ], [ -56.15975, 72.77152 ], [ -58.31974, 72.77152 ], [ -53.64191, 70.30692 ], [ -55.62865, 70.30692 ], [ -53.63977, 69.11367 ], [ -55.55548, 69.11367 ], [ -53.72456, 67.94309 ], [ -55.57713, 67.94309 ], [ -53.88024, 66.79314 ], [ -55.67624, 66.79314 ], [ -51.34956, 63.45081 ], [ -53.006, 63.45081 ], [ -55.83948, 65.66208 ], [ -57.58446, 65.66208 ], [ -56.05643, 64.5484 ], [ -59.45379, 64.5484 ], [ -57.97531, 63.45081 ], [ -61.28819, 63.45081 ], [ -59.85564, 62.36814 ], [ -61.47336, 62.36814 ], [ -60.11922, 61.29937 ], [ -61.70131, 61.29937 ], [ -60.41741, 60.2436 ], [ -61.96657, 60.2436 ], [ -58.55303, 57.14649 ], [ -60.01685, 57.14649 ], [ -59.00318, 56.13529 ], [ -57.56408, 56.13529 ], [ -56.63762, 55.13371 ], [ -53.80574, 55.13371 ], [ -49.5074, 49.30027 ], [ -50.81023, 49.30027 ], [ -50.20886, 48.35374 ], [ -47.63404, 48.35374 ], [ -47.09272, 47.41367 ], [ -45.81994, 47.41367 ], [ -46.34664, 48.35374 ], [ -43.77182, 48.35374 ], [ -43.27439, 47.41367 ], [ -44.54716, 47.41367 ], [ -44.06079, 46.47978 ], [ -47.83743, 46.47978 ], [ -47.33535, 45.5518 ], [ -48.58102, 45.5518 ], [ -48.09065, 44.62948 ], [ -49.32374, 44.62948 ], [ -48.84471, 43.71258 ], [ -50.06583, 43.71258 ], [ -49.59782, 42.80087 ], [ -50.80752, 42.80087 ], [ -51.28695, 43.71258 ], [ -52.50807, 43.71258 ], [ -53.02302, 44.62948 ], [ -59.18849, 44.62948 ], [ -58.61366, 43.71258 ], [ -61.05589, 43.71258 ], [ -60.48515, 42.80087 ], [ -66.53366, 42.80087 ], [ -65.93482, 41.89415 ], [ -67.13364, 41.89415 ], [ -66.55168, 40.99221 ], [ -68.92853, 40.99221 ], [ -68.35292, 40.09487 ], [ -71.88841, 40.09487 ], [ -72.4938, 40.99221 ], [ -70.11695, 40.99221 ], [ -70.73008, 41.89415 ], [ -69.53127, 41.89415 ], [ -70.16277, 42.80087 ], [ -68.95307, 42.80087 ], [ -69.60372, 43.71258 ], [ -67.16148, 43.71258 ], [ -67.82014, 44.62948 ], [ -66.58705, 44.62948 ], [ -65.94036, 43.71258 ], [ -63.49813, 43.71258 ], [ -64.12086, 44.62948 ], [ -60.42158, 44.62948 ], [ -61.03769, 45.5518 ], [ -58.54635, 45.5518 ], [ -59.16734, 46.47978 ], [ -60.42622, 46.47978 ], [ -61.09325, 47.41367 ], [ -62.36603, 47.41367 ], [ -61.6851, 46.47978 ], [ -62.94398, 46.47978 ], [ -64.37033, 48.35374 ], [ -63.08292, 48.35374 ], [ -63.83849, 49.30027 ], [ -62.53567, 49.30027 ], [ -61.79552, 48.35374 ], [ -60.50811, 48.35374 ], [ -59.82048, 47.41367 ], [ -57.27493, 47.41367 ], [ -56.64958, 46.47978 ], [ -51.61406, 46.47978 ], [ -54.08298, 50.25357 ], [ -55.40208, 50.25357 ], [ -56.12408, 51.21395 ], [ -54.78779, 51.21395 ] ] ], [ [ [ -77.58276, 57.14649 ], [ -76.27241, 56.13529 ], [ -77.71151, 56.13529 ], [ -79.04659, 57.14649 ], [ -80.51041, 57.14649 ], [ -77.87673, 55.13371 ], [ -80.70861, 55.13371 ], [ -79.46924, 54.14123 ], [ -80.86343, 54.14123 ], [ -82.12456, 55.13371 ], [ -83.5405, 55.13371 ], [ -84.90702, 56.13529 ], [ -87.78522, 56.13529 ], [ -89.29336, 57.14649 ], [ -90.75719, 57.14649 ], [ -94.15625, 59.20001 ], [ -92.6376, 59.20001 ], [ -94.49903, 60.2436 ], [ -92.94986, 60.2436 ], [ -94.92509, 61.29937 ], [ -91.76092, 61.29937 ], [ -93.82775, 62.36814 ], [ -88.97459, 62.36814 ], [ -91.10406, 63.45081 ], [ -86.13475, 63.45081 ], [ -84.12143, 62.36814 ], [ -80.88599, 62.36814 ], [ -77.45822, 60.2436 ], [ -79.00738, 60.2436 ], [ -77.45111, 59.20001 ], [ -80.4884, 59.20001 ], [ -78.9847, 58.16786 ], [ -77.49442, 58.16786 ], [ -76.11893, 57.14649 ], [ -77.58276, 57.14649 ] ] ], [ [ [ -80.88599, 62.36814 ], [ -82.82187, 63.45081 ], [ -79.509, 63.45081 ], [ -77.65055, 62.36814 ], [ -80.88599, 62.36814 ] ] ], [ [ [ -83.75922, 65.66208 ], [ -80.26925, 65.66208 ], [ -78.13927, 64.5484 ], [ -79.83795, 64.5484 ], [ -77.85256, 63.45081 ], [ -79.509, 63.45081 ], [ -83.75922, 65.66208 ] ] ], [ [ [ -73.28932, 65.66208 ], [ -80.26925, 65.66208 ], [ -82.61636, 66.79314 ], [ -79.02435, 66.79314 ], [ -81.51313, 67.94309 ], [ -79.66056, 67.94309 ], [ -77.22834, 66.79314 ], [ -75.43233, 66.79314 ], [ -73.28932, 65.66208 ] ] ] ] } },
{ "type": "Feature", "properties": { "patch_id": 7, "area_km2": 1450000 }, "geometry": { "type": "MultiPolygon", "coordinates": [ [ [ [ 157.64199, 49.30027 ], [ 158.94482, 49.30027 ], [ 157.0636, 48.35374 ], [ 155.7762, 48.35374 ], [ 157.64199, 49.30027 ] ] ], [ [ [ 145.65535, 51.21395 ], [ 142.98277, 51.21395 ], [ 144.92881, 52.18177 ], [ 143.57433, 52.18177 ], [ 145.61702, 53.1574 ], [ 142.86953, 53.1574 ], [ 144.9965, 54.14123 ], [ 136.63132, 54.14123 ], [ 138.76218, 55.13371 ], [ 135.9303, 55.13371 ], [ 140.52726, 57.14649 ], [ 139.06344, 57.14649 ], [ 144.27167, 59.20001 ], [ 151.86491, 59.20001 ], [ 149.02774, 58.16786 ], [ 150.51801, 58.16786 ], [ 153.38356, 59.20001 ], [ 154.90221, 59.20001 ], [ 158.01476, 60.2436 ], [ 159.56393, 60.2436 ], [ 162.95474, 61.29937 ], [ 164.53683, 61.29937 ], [ 157.93951, 59.20001 ], [ 159.45816, 59.20001 ], [ 156.47912, 58.16786 ], [ 157.9694, 58.16786 ], [ 155.16552, 57.14649 ], [ 156.62934, 57.14649 ], [ 153.98392, 56.13529 ], [ 155.42302, 56.13529 ], [ 152.92159, 55.13371 ], [ 155.75347, 55.13371 ], [ 153.36168, 54.14123 ], [ 156.15008, 54.14123 ], [ 153.85949, 53.1574 ], [ 156.60698, 53.1574 ], [ 154.41013, 52.18177 ], [ 157.11908, 52.18177 ], [ 155.00936, 51.21395 ], [ 156.34565, 51.21395 ], [ 154.33436, 50.25357 ], [ 155.65346, 50.25357 ], [ 157.68194, 51.21395 ], [ 159.01822, 51.21395 ], [ 156.97256, 50.25357 ], [ 159.61075, 50.25357 ], [ 157.64199, 49.30027 ], [ 156.33917, 49.30027 ], [ 154.48879, 48.35374 ], [ 155.7762, 48.35374 ], [ 154.00591, 47.41367 ], [ 156.55146, 47.41367 ], [ 158.35101, 48.35374 ], [ 159.63842, 48.35374 ], [ 154.46272, 45.5518 ], [ 153.21706, 45.5518 ], [ 154.84219, 46.47978 ], [ 152.32443, 46.47978 ], [ 147.75526, 43.71258 ], [ 145.31302, 43.71258 ], [ 146.73813, 44.62948 ], [ 143.03885, 44.62948 ], [ 144.49739, 45.5518 ], [ 142.00605, 45.5518 ], [ 145.09648, 47.41367 ], [ 142.55093, 47.41367 ], [ 144.18954, 48.35374 ], [ 142.90213, 48.35374 ], [ 146.41978, 50.25357 ], [ 143.78159, 50.25357 ], [ 145.65535, 51.21395 ] ], [ [ 147.97122, 44.62948 ], [ 151.06555, 46.47978 ], [ 149.80667, 46.47978 ], [ 146.73813, 44.62948 ], [ 147.97122, 44.62948 ] ] ] ] } },
{ "type": "Feature", "properties": { "patch_id": 8, "area_km2": 1420000 }, "geometry": { "type": "MultiPolygon", "coordinates": [ [ [ [ -66.19869, -56.13529 ], [ -67.6378, -56.13529 ], [ -66.54921, -55.13371 ], [ -65.13327, -55.13371 ], [ -66.19869, -56.13529 ] ] ], [ [ [ -50.40837, -33.9276 ], [ -51.52856, -33.9276 ], [ -52.21247, -35.67086 ], [ -53.34752, -35.67086 ], [ -55.85588, -40.99221 ], [ -57.0443, -40.99221 ], [ -58.06574, -42.80087 ], [ -59.27544, -42.80087 ], [ -60.42158, -44.62948 ], [ -59.18849, -44.62948 ], [ -60.42622, -46.47978 ], [ -59.16734, -46.47978 ], [ -60.50811, -48.35374 ], [ -57.9333, -48.35374 ], [ -58.62719, -49.30027 ], [ -56.02153, -49.30027 ], [ -56.72118, -50.25357 ], [ -55.40208, -50.25357 ], [ -56.12408, -51.21395 ], [ -54.78779, -51.21395 ], [ -55.53347, -52.18177 ], [ -56.88794, -52.18177 ], [ -58.55628, -54.14123 ], [ -55.76788, -54.14123 ], [ -56.63762, -55.13371 ], [ -60.88545, -55.13371 ], [ -59.95048, -54.14123 ], [ -61.34467, -54.14123 ], [ -62.30139, -55.13371 ], [ -65.13327, -55.13371 ], [ -64.13307, -54.14123 ], [ -66.92146, -54.14123 ], [ -65.93978, -53.1574 ], [ -68.68727, -53.1574 ], [ -67.72374, -52.18177 ], [ -69.07822, -52.18177 ], [ -68.15067, -51.21395 ], [ -69.48696, -51.21395 ], [ -68.59305, -50.25357 ], [ -67.27395, -50.25357 ], [ -66.44415, -49.30027 ], [ -67.74697, -49.30027 ], [ -66.94514, -48.35374 ], [ -65.65774, -48.35374 ], [ -64.91158, -47.41367 ], [ -66.18436, -47.41367 ], [ -65.46174, -46.47978 ], [ -67.9795, -46.47978 ], [ -67.26602, -45.5518 ], [ -66.02036, -45.5518 ], [ -64.11426, -42.80087 ], [ -62.90455, -42.80087 ], [ -62.33838, -41.89415 ], [ -63.53719, -41.89415 ], [ -62.98641, -40.99221 ], [ -61.79799, -40.99221 ], [ -61.28192, -40.09487 ], [ -62.46042, -40.09487 ], [ -61.95784, -39.20192 ], [ -58.45079, -39.20192 ], [ -57.99756, -38.31322 ], [ -56.83761, -38.31322 ], [ -56.00649, -36.54784 ], [ -57.14947, -36.54784 ], [ -56.37289, -34.7975 ], [ -52.99052, -34.7975 ], [ -51.70807, -31.33741 ], [ -50.6079, -31.33741 ], [ -50.0574, -29.62563 ], [ -48.96919, -29.62563 ], [ -47.61041, -24.55255 ], [ -45.4944, -24.55255 ], [ -45.31005, -23.71506 ], [ -44.25633, -23.71506 ], [ -44.08444, -22.8796 ], [ -40.93555, -22.8796 ], [ -41.09516, -23.71506 ], [ -43.20261, -23.71506 ], [ -43.37838, -24.55255 ], [ -44.43639, -24.55255 ], [ -44.82209, -26.23403 ], [ -45.88928, -26.23403 ], [ -46.10043, -27.0782 ], [ -47.17253, -27.0782 ], [ -48.40755, -31.33741 ], [ -49.50772, -31.33741 ], [ -49.79502, -32.19768 ], [ -50.90158, -32.19768 ], [ -51.20827, -33.06104 ], [ -50.09505, -33.06104 ], [ -50.40837, -33.9276 ] ], [ [ -58.24242, -52.18177 ], [ -57.46037, -51.21395 ], [ -61.46923, -51.21395 ], [ -62.30584, -52.18177 ], [ -58.24242, -52.18177 ] ] ], [ [ [ -43.95622, -27.0782 ], [ -45.02832, -27.0782 ], [ -44.82209, -26.23403 ], [ -43.75489, -26.23403 ], [ -43.95622, -27.0782 ] ] ], [ [ [ -42.49988, -25.39218 ], [ -43.56238, -25.39218 ], [ -43.37838, -24.55255 ], [ -42.32037, -24.55255 ], [ -42.49988, -25.39218 ] ] ] ] } },
{ "type": "Feature", "properties": { "patch_id": 9, "area_km2": 1340000 }, "geometry": { "type": "MultiPolygon", "coordinates": [ [ [ [ 14.22275, -30.4801 ], [ 13.75412, -24.55255 ], [ 14.81213, -24.55255 ], [ 15.1564, -28.7739 ], [ 16.239, -28.7739 ], [ 16.41087, -30.4801 ], [ 17.50493, -30.4801 ], [ 17.92298, -33.9276 ], [ 16.80279, -33.9276 ], [ 16.50257, -31.33741 ], [ 15.4024, -31.33741 ], [ 15.31681, -30.4801 ], [ 14.22275, -30.4801 ] ] ], [ [ [ 7.20194, -17.90487 ], [ 7.18179, -17.08133 ], [ 8.20776, -17.08133 ], [ 8.23079, -17.90487 ], [ 7.20194, -17.90487 ] ] ], [ [ [ 6.13949, -16.25917 ], [ 6.10955, -14.61871 ], [ 7.12781, -14.61871 ], [ 7.16273, -16.25917 ], [ 6.13949, -16.25917 ] ] ], [ [ [ 6.08313, -12.98292 ], [ 6.0712, -12.1666 ], [ 7.08307, -12.1666 ], [ 7.09699, -12.98292 ], [ 6.08313, -12.98292 ] ] ], [ [ [ 12.16626, -12.98292 ], [ 12.24814, -15.43832 ], [ 11.22746, -15.43832 ], [ 11.35076, -18.72988 ], [ 12.38265, -18.72988 ], [ 12.50405, -21.21445 ], [ 13.54605, -21.21445 ], [ 13.75412, -24.55255 ], [ 12.69611, -24.55255 ], [ 12.59555, -22.8796 ], [ 10.4963, -22.8796 ], [ 10.53722, -23.71506 ], [ 9.4835, -23.71506 ], [ 9.34614, -20.38459 ], [ 8.30768, -20.38459 ], [ 8.23079, -17.90487 ], [ 9.25964, -17.90487 ], [ 9.23373, -17.08133 ], [ 8.20776, -17.08133 ], [ 8.14606, -14.61871 ], [ 7.12781, -14.61871 ], [ 7.11189, -13.80027 ], [ 8.12788, -13.80027 ], [ 8.09493, -12.1666 ], [ 7.08307, -12.1666 ], [ 7.07012, -11.35123 ], [ 8.08014, -11.35123 ], [ 8.05381, -9.72311 ], [ 9.06054, -9.72311 ], [ 9.07474, -10.53676 ], [ 10.08304, -10.53676 ], [ 10.06726, -9.72311 ], [ 12.08071, -9.72311 ], [ 12.0476, -8.09802 ], [ 11.04363, -8.09802 ], [ 11.0306, -7.28644 ], [ 8.02225, -7.28644 ], [ 7.99008, -3.23573 ], [ 6.99132, -3.23573 ], [ 6.9952, -4.04513 ], [ 5.99588, -4.04513 ], [ 5.99256, -3.23573 ], [ 1.99752, -3.23573 ], [ 1.99666, -2.42658 ], [ 7.98664, -2.42658 ], [ 7.98271, -0.80878 ], [ 6.98487, -0.80878 ], [ 6.98487, 0.80878 ], [ 8.98055, 0.80878 ], [ 8.98497, -2.42658 ], [ 9.9833, -2.42658 ], [ 9.99314, -4.04513 ], [ 10.99245, -4.04513 ], [ 10.99991, -4.85483 ], [ 11.99991, -4.85483 ], [ 12.03338, -7.28644 ], [ 13.03616, -7.28644 ], [ 13.18012, -12.98292 ], [ 12.16626, -12.98292 ] ], [ [ 11.11019, -11.35123 ], [ 9.09016, -11.35123 ], [ 9.1247, -12.98292 ], [ 11.15241, -12.98292 ], [ 11.11019, -11.35123 ] ] ], [ [ [ 5.05009, -11.35123 ], [ 5.04152, -10.53676 ], [ 7.05813, -10.53676 ], [ 7.07012, -11.35123 ], [ 5.05009, -11.35123 ] ] ], [ [ [ 4.01587, -8.09802 ], [ 4.02112, -8.91022 ], [ 5.0264, -8.91022 ], [ 5.04152, -10.53676 ], [ 2.01661, -10.53676 ], [ 2.01345, -9.72311 ], [ 3.02018, -9.72311 ], [ 3.01584, -8.91022 ], [ 1.00528, -8.91022 ], [ 1.00397, -8.09802 ], [ 4.01587, -8.09802 ] ] ], [ [ [ 8.02225, -7.28644 ], [ 8.03173, -8.09802 ], [ 4.01587, -8.09802 ], [ 4.01113, -7.28644 ], [ 3.00834, -7.28644 ], [ 3.00518, -6.47543 ], [ 7.01208, -6.47543 ], [ 7.01947, -7.28644 ], [ 8.02225, -7.28644 ] ] ] ] } },
{ "type": "Feature", "properties": { "patch_id": 10, "area_km2": 1290000 }, "geometry": { "type": "MultiPolygon", "coordinates": [ [ [ [ -86.86149, 11.35123 ], [ -87.8715, 11.35123 ], [ -88.03241, 12.1666 ], [ -87.02055, 12.1666 ], [ -86.86149, 11.35123 ] ] ], [ [ [ -89.21925, 12.98292 ], [ -88.2054, 12.98292 ], [ -88.03241, 12.1666 ], [ -89.04428, 12.1666 ], [ -89.21925, 12.98292 ] ] ], [ [ [ -113.29527, 15.43832 ], [ -114.31594, 15.43832 ], [ -114.60373, 16.25917 ], [ -113.58048, 16.25917 ], [ -113.29527, 15.43832 ] ] ], [ [ [ -103.9137, 17.90487 ], [ -101.85601, 17.90487 ], [ -101.57102, 17.08133 ], [ -100.54505, 17.08133 ], [ -100.27826, 16.25917 ], [ -98.23177, 16.25917 ], [ -97.98509, 15.43832 ], [ -94.92306, 15.43832 ], [ -95.16203, 16.25917 ], [ -94.13878, 16.25917 ], [ -93.90238, 15.43832 ], [ -92.8817, 15.43832 ], [ -92.45461, 13.80027 ], [ -90.42264, 13.80027 ], [ -90.05615, 12.1666 ], [ -89.04428, 12.1666 ], [ -88.88152, 11.35123 ], [ -87.8715, 11.35123 ], [ -87.72248, 10.53676 ], [ -86.71418, 10.53676 ], [ -86.86149, 11.35123 ], [ -85.85147, 11.35123 ], [ -85.57172, 9.72311 ], [ -84.56499, 9.72311 ], [ -84.44357, 8.91022 ], [ -88.4647, 8.91022 ], [ -88.5919, 9.72311 ], [ -89.59863, 9.72311 ], [ -89.46998, 8.91022 ], [ -90.47526, 8.91022 ], [ -90.60535, 9.72311 ], [ -92.6188, 9.72311 ], [ -93.27468, 12.98292 ], [ -96.31624, 12.98292 ], [ -96.51855, 13.80027 ], [ -98.55052, 13.80027 ], [ -99.00577, 15.43832 ], [ -100.02645, 15.43832 ], [ -99.7893, 14.61871 ], [ -100.80755, 14.61871 ], [ -101.04713, 15.43832 ], [ -103.08848, 15.43832 ], [ -103.34801, 16.25917 ], [ -104.37125, 16.25917 ], [ -104.64893, 17.08133 ], [ -105.6749, 17.08133 ], [ -105.9714, 17.90487 ], [ -108.0291, 17.90487 ], [ -107.72684, 17.08133 ], [ -108.75281, 17.08133 ], [ -108.19188, 15.43832 ], [ -111.25391, 15.43832 ], [ -110.51021, 12.98292 ], [ -111.52407, 12.98292 ], [ -111.30535, 12.1666 ], [ -112.31722, 12.1666 ], [ -112.77431, 13.80027 ], [ -111.75832, 13.80027 ], [ -112.55724, 16.25917 ], [ -113.58048, 16.25917 ], [ -113.88266, 17.08133 ], [ -110.80475, 17.08133 ], [ -110.51074, 16.25917 ], [ -109.48749, 16.25917 ], [ -110.41192, 18.72988 ], [ -109.38004, 18.72988 ], [ -109.71951, 19.55643 ], [ -110.7546, 19.55643 ], [ -111.11527, 20.38459 ], [ -110.07681, 20.38459 ], [ -110.45243, 21.21445 ], [ -112.53644, 21.21445 ], [ -112.93834, 22.04609 ], [ -113.98406, 22.04609 ], [ -113.57844, 21.21445 ], [ -114.62045, 21.21445 ], [ -114.23065, 20.38459 ], [ -113.19219, 20.38459 ], [ -112.82478, 19.55643 ], [ -114.89496, 19.55643 ], [ -114.53947, 18.72988 ], [ -115.57136, 18.72988 ], [ -116.70446, 21.21445 ], [ -115.66245, 21.21445 ], [ -116.07551, 22.04609 ], [ -115.02979, 22.04609 ], [ -115.90943, 23.71506 ], [ -114.85571, 23.71506 ], [ -114.40962, 22.8796 ], [ -112.31036, 22.8796 ], [ -112.74827, 23.71506 ], [ -110.64082, 23.71506 ], [ -110.2111, 22.8796 ], [ -109.16147, 22.8796 ], [ -112.03255, 27.92479 ], [ -110.95531, 27.92479 ], [ -109.4372, 25.39218 ], [ -108.3747, 25.39218 ], [ -107.06221, 22.8796 ], [ -106.01258, 22.8796 ], [ -105.24241, 21.21445 ], [ -106.28442, 21.21445 ], [ -105.25249, 18.72988 ], [ -104.2206, 18.72988 ], [ -103.9137, 17.90487 ] ], [ [ -89.89154, 11.35123 ], [ -89.73909, 10.53676 ], [ -88.73079, 10.53676 ], [ -88.88152, 11.35123 ], [ -89.89154, 11.35123 ] ], [ [ -109.41043, 21.21445 ], [ -109.80116, 22.04609 ], [ -110.84689, 22.04609 ], [ -110.45243, 21.21445 ], [ -109.41043, 21.21445 ] ], [ [ -108.75544, 22.04609 ], [ -107.70971, 22.04609 ], [ -108.11184, 22.8796 ], [ -109.16147, 22.8796 ], [ -108.75544, 22.04609 ] ] ], [ [ [ -113.19219, 20.38459 ], [ -113.57844, 21.21445 ], [ -112.53644, 21.21445 ], [ -112.15373, 20.38459 ], [ -113.19219, 20.38459 ] ] ] ] } },
{ "type": "Feature", "properties": { "patch_id": 11, "area_km2": 920000 }, "geometry": { "type": "Polygon", "coordinates": [ [ [ 128.00479, 30.4801 ], [ 125.43604, 27.0782 ], [ 124.36394, 27.0782 ], [ 123.79433, 26.23403 ], [ 122.72714, 26.23403 ], [ 122.18716, 25.39218 ], [ 121.12466, 25.39218 ], [ 119.65776, 22.8796 ], [ 118.60813, 22.8796 ], [ 118.16696, 22.04609 ], [ 117.12124, 22.04609 ], [ 116.70446, 21.21445 ], [ 114.62045, 21.21445 ], [ 114.23065, 20.38459 ], [ 112.15373, 20.38459 ], [ 111.44381, 18.72988 ], [ 110.41192, 18.72988 ], [ 111.49444, 21.21445 ], [ 112.53644, 21.21445 ], [ 112.93834, 22.04609 ], [ 115.02979, 22.04609 ], [ 115.45925, 22.8796 ], [ 116.50887, 22.8796 ], [ 116.96316, 23.71506 ], [ 118.01688, 23.71506 ], [ 118.49703, 24.55255 ], [ 119.55504, 24.55255 ], [ 122.96709, 29.62563 ], [ 121.87888, 29.62563 ], [ 122.5345, 30.4801 ], [ 121.44044, 30.4801 ], [ 122.82773, 32.19768 ], [ 121.72117, 32.19768 ], [ 122.45456, 33.06104 ], [ 121.34134, 33.06104 ], [ 122.10027, 33.9276 ], [ 120.98009, 33.9276 ], [ 121.76545, 34.7975 ], [ 119.51053, 34.7975 ], [ 121.15689, 36.54784 ], [ 122.29988, 36.54784 ], [ 123.18722, 37.42857 ], [ 120.88466, 37.42857 ], [ 122.74667, 39.20192 ], [ 125.0847, 39.20192 ], [ 124.11478, 38.31322 ], [ 125.27473, 38.31322 ], [ 124.3385, 37.42857 ], [ 126.64107, 37.42857 ], [ 125.72884, 36.54784 ], [ 126.87183, 36.54784 ], [ 125.14782, 34.7975 ], [ 126.27528, 34.7975 ], [ 125.46083, 33.9276 ], [ 126.58102, 33.9276 ], [ 127.40274, 34.7975 ], [ 130.78511, 34.7975 ], [ 128.36051, 32.19768 ], [ 130.57362, 32.19768 ], [ 129.82025, 31.33741 ], [ 130.92042, 31.33741 ], [ 130.19291, 30.4801 ], [ 128.00479, 30.4801 ] ], [ [ 125.79423, 33.06104 ], [ 126.90746, 33.06104 ], [ 127.7012, 33.9276 ], [ 126.58102, 33.9276 ], [ 125.79423, 33.06104 ] ] ] } },
{ "type": "Feature", "properties": { "patch_id": 12, "area_km2": 896328 }, "geometry": { "type": "MultiPolygon", "coordinates": [ [ [ [ 177.84683, -67.94309 ], [ 179.99262, -68.37034 ], [ 179.99274, -68.38808 ], [ 179.9927, -68.47812 ], [ 179.99267, -68.56817 ], [ 179.99263, -68.65821 ], [ 179.99259, -68.74825 ], [ 179.99255, -68.8383 ], [ 179.99251, -68.92834 ], [ 179.99248, -69.01838 ], [ 179.99235, -69.09786 ], [ 174.14168, -67.94309 ], [ 177.84683, -67.94309 ] ] ], [ [ [ 175.72856, -71.52524 ], [ 179.9905, -72.21866 ], [ 179.99077, -72.25992 ], [ 179.99071, -72.34997 ], [ 179.99065, -72.44001 ], [ 179.99059, -72.53005 ], [ 179.99053, -72.62009 ], [ 179.99047, -72.71014 ], [ 179.99016, -72.77152 ], [ 177.11922, -72.77152 ], [ 169.52638, -71.52524 ], [ 171.59377, -71.52524 ], [ 159.00362, -69.11367 ], [ 157.08791, -69.11367 ], [ 151.91083, -67.94309 ], [ 150.05826, -67.94309 ], [ 141.34368, -65.66208 ], [ 144.83365, -65.66208 ], [ 140.99043, -64.5484 ], [ 144.38779, -64.5484 ], [ 148.32362, -65.66208 ], [ 162.28349, -65.66208 ], [ 157.97722, -64.5484 ], [ 154.57987, -64.5484 ], [ 150.73581, -63.45081 ], [ 155.70512, -63.45081 ], [ 152.06567, -62.36814 ], [ 153.68339, -62.36814 ], [ 161.37458, -64.5484 ], [ 163.07326, -64.5484 ], [ 155.30111, -62.36814 ], [ 156.91883, -62.36814 ], [ 150.26894, -60.2436 ], [ 151.81811, -60.2436 ], [ 158.53655, -62.36814 ], [ 161.77199, -62.36814 ], [ 158.20849, -61.29937 ], [ 162.95474, -61.29937 ], [ 166.62515, -62.36814 ], [ 165.00743, -62.36814 ], [ 168.95662, -63.45081 ], [ 167.30018, -63.45081 ], [ 171.56666, -64.5484 ], [ 169.86798, -64.5484 ], [ 179.60078, -66.79314 ], [ 177.80478, -66.79314 ], [ 179.99299, -67.25476 ], [ 179.99315, -67.30756 ], [ 179.99312, -67.39761 ], [ 179.99309, -67.48765 ], [ 179.99305, -67.57769 ], [ 179.99302, -67.66774 ], [ 179.99299, -67.75778 ], [ 179.99295, -67.84782 ], [ 179.99292, -67.93786 ], [ 179.99287, -67.94309 ], [ 177.84683, -67.94309 ], [ 172.41675, -66.79314 ], [ 168.82474, -66.79314 ], [ 174.14168, -67.94309 ], [ 172.28911, -67.94309 ], [ 178.16068, -69.11367 ], [ 176.24497, -69.11367 ], [ 179.99198, -69.81272 ], [ 179.99211, -69.82877 ], [ 179.99207, -69.91881 ], [ 179.99202, -70.00885 ], [ 179.99198, -70.0989 ], [ 179.99193, -70.18894 ], [ 179.99189, -70.27898 ], [ 179.99167, -70.30692 ], [ 176.81963, -70.30692 ], [ 179.99133, -70.86185 ], [ 179.99156, -70.90928 ], [ 179.99151, -70.99933 ], [ 179.99146, -71.08937 ], [ 179.99141, -71.17941 ], [ 179.99136, -71.26945 ], [ 179.99131, -71.3595 ], [ 179.99126, -71.44954 ], [ 179.99107, -71.52524 ], [ 175.72856, -71.52524 ] ], [ [ 176.00877, -66.79314 ], [ 171.0084, -65.66208 ], [ 167.51844, -65.66208 ], [ 172.41675, -66.79314 ], [ 176.00877, -66.79314 ] ], [ [ 164.77194, -64.5484 ], [ 168.1693, -64.5484 ], [ 163.98731, -63.45081 ], [ 160.67443, -63.45081 ], [ 164.77194, -64.5484 ] ] ] ] } },
{ "type": "Feature", "properties": { "patch_id": 13, "area_km2": 750000 }, "geometry": { "type": "MultiPolygon", "coordinates": [ [ [ [ 95.93413, 4.04513 ], [ 95.83965, 2.42658 ], [ 94.84132, 2.42658 ], [ 94.93482, 4.04513 ], [ 95.93413, 4.04513 ] ] ], [ [ [ 100.87475, 3.23573 ], [ 99.87599, 3.23573 ], [ 99.93139, 4.04513 ], [ 100.9307, 4.04513 ], [ 100.87475, 3.23573 ] ] ], [ [ [ 99.17078, 6.47543 ], [ 100.17251, 6.47543 ], [ 99.93139, 4.04513 ], [ 98.93208, 4.04513 ], [ 98.99923, 4.85483 ], [ 97.99924, 4.85483 ], [ 98.07797, 5.66491 ], [ 95.07558, 5.66491 ], [ 94.93482, 4.04513 ], [ 93.93551, 4.04513 ], [ 94.16215, 6.47543 ], [ 91.15698, 6.47543 ], [ 91.48054, 8.91022 ], [ 92.48582, 8.91022 ], [ 92.6188, 9.72311 ], [ 91.61208, 9.72311 ], [ 91.91157, 11.35123 ], [ 92.92159, 11.35123 ], [ 93.90238, 15.43832 ], [ 95.94374, 15.43832 ], [ 96.18527, 16.25917 ], [ 97.20852, 16.25917 ], [ 96.96442, 15.43832 ], [ 97.98509, 15.43832 ], [ 97.53454, 13.80027 ], [ 98.55052, 13.80027 ], [ 97.38473, 8.09802 ], [ 98.3887, 8.09802 ], [ 98.27259, 7.28644 ], [ 99.27537, 7.28644 ], [ 99.17078, 6.47543 ] ], [ [ 95.50166, 8.91022 ], [ 95.63898, 9.72311 ], [ 94.63226, 9.72311 ], [ 94.49638, 8.91022 ], [ 95.50166, 8.91022 ] ] ] ] } },
{ "type": "Feature", "properties": { "patch_id": 14, "area_km2": 700000 }, "geometry": { "type": "MultiPolygon", "coordinates": [ [ [ [ -83.89584, 3.23573 ], [ -81.89832, 3.23573 ], [ -81.94374, 4.04513 ], [ -79.94511, 4.04513 ], [ -79.99938, 4.85483 ], [ -78.99938, 4.85483 ], [ -78.90204, 3.23573 ], [ -79.9008, 3.23573 ], [ -79.86638, 2.42658 ], [ -78.86805, 2.42658 ], [ -78.8438, 1.61762 ], [ -79.84182, 1.61762 ], [ -79.8271, 0.80878 ], [ -80.82494, 0.80878 ], [ -80.83984, -1.61762 ], [ -81.83787, -1.61762 ], [ -81.86304, -2.42658 ], [ -80.86471, -2.42658 ], [ -80.94443, -4.04513 ], [ -81.94374, -4.04513 ], [ -81.99936, -4.85483 ], [ -82.99935, -4.85483 ], [ -82.94305, -4.04513 ], [ -85.941, -4.04513 ], [ -85.85636, -2.42658 ], [ -87.85302, -2.42658 ], [ -87.80981, -0.80878 ], [ -85.81413, -0.80878 ], [ -85.82996, -1.61762 ], [ -84.83194, -1.61762 ], [ -84.85803, -2.42658 ], [ -83.8597, -2.42658 ], [ -83.83391, -1.61762 ], [ -82.83589, -1.61762 ], [ -82.82062, -0.80878 ], [ -83.81845, -0.80878 ], [ -83.81845, 0.80878 ], [ -81.82278, 0.80878 ], [ -81.86304, 2.42658 ], [ -83.8597, 2.42658 ], [ -83.83391, 1.61762 ], [ -85.82996, 1.61762 ], [ -85.85636, 2.42658 ], [ -87.85302, 2.42658 ], [ -87.826, 1.61762 ], [ -88.82403, 1.61762 ], [ -88.85135, 2.42658 ], [ -89.84968, 2.42658 ], [ -89.8884, 3.23573 ], [ -90.88716, 3.23573 ], [ -90.84801, 2.42658 ], [ -92.84466, 2.42658 ], [ -92.88467, 3.23573 ], [ -91.88591, 3.23573 ], [ -91.93688, 4.04513 ], [ -89.93825, 4.04513 ], [ -89.9993, 4.85483 ], [ -88.99931, 4.85483 ], [ -88.88964, 3.23573 ], [ -87.89088, 3.23573 ], [ -87.93962, 4.04513 ], [ -86.94031, 4.04513 ], [ -86.89212, 3.23573 ], [ -85.89336, 3.23573 ], [ -85.941, 4.04513 ], [ -83.94237, 4.04513 ], [ -83.89584, 3.23573 ] ] ], [ [ [ -95.83965, 2.42658 ], [ -96.83798, 2.42658 ], [ -96.87971, 3.23573 ], [ -95.88095, 3.23573 ], [ -95.83965, 2.42658 ] ] ], [ [ [ -91.93688, 4.04513 ], [ -92.93619, 4.04513 ], [ -92.88467, 3.23573 ], [ -95.88095, 3.23573 ], [ -95.93413, 4.04513 ], [ -94.93482, 4.04513 ], [ -94.99926, 4.85483 ], [ -91.99928, 4.85483 ], [ -91.93688, 4.04513 ] ] ], [ [ [ -79.13628, 6.47543 ], [ -80.138, 6.47543 ], [ -80.3173, 8.09802 ], [ -78.30937, 8.09802 ], [ -77.99939, 4.85483 ], [ -78.99938, 4.85483 ], [ -79.13628, 6.47543 ] ] ] ] } },
{ "type": "Feature", "properties": { "patch_id": 15, "area_km2": 679452 }, "geometry": { "type": "MultiPolygon", "coordinates": [ [ [ [ -167.08099, 55.13371 ], [ -164.51526, 54.14123 ], [ -165.90946, 54.14123 ], [ -168.49693, 55.13371 ], [ -167.08099, 55.13371 ] ] ], [ [ [ -158.93847, 54.14123 ], [ -160.33267, 54.14123 ], [ -162.83317, 55.13371 ], [ -161.41723, 55.13371 ], [ -158.93847, 54.14123 ] ] ], [ [ [ -165.53276, 59.20001 ], [ -164.01411, 59.20001 ], [ -158.09317, 57.14649 ], [ -162.48465, 57.14649 ], [ -159.74033, 56.13529 ], [ -165.49673, 56.13529 ], [ -162.83317, 55.13371 ], [ -167.08099, 55.13371 ], [ -169.81404, 56.13529 ], [ -171.25314, 56.13529 ], [ -174.19525, 57.14649 ], [ -172.73143, 57.14649 ], [ -179.2006, 59.20001 ], [ -177.68195, 59.20001 ], [ -179.99496, 59.88356 ], [ -179.99507, 59.924 ], [ -179.99505, 60.01404 ], [ -179.99503, 60.10409 ], [ -179.99502, 60.19413 ], [ -179.99489, 60.2436 ], [ -178.1539, 60.2436 ], [ -179.9948, 60.76562 ], [ -179.99489, 60.82444 ], [ -179.99488, 60.91448 ], [ -179.99486, 61.00452 ], [ -179.99484, 61.09457 ], [ -179.99482, 61.18461 ], [ -179.9948, 61.27465 ], [ -179.9947, 61.29937 ], [ -178.77559, 61.29937 ], [ -179.99471, 61.63072 ], [ -179.99473, 61.63483 ], [ -179.99471, 61.72487 ], [ -179.99469, 61.81492 ], [ -179.99467, 61.90496 ], [ -179.99465, 61.995 ], [ -179.99463, 62.08505 ], [ -179.99461, 62.17509 ], [ -179.99459, 62.26513 ], [ -179.99457, 62.35518 ], [ -179.9945, 62.36814 ], [ -177.94919, 62.36814 ], [ -179.99443, 62.89775 ], [ -179.99442, 62.98548 ], [ -179.9944, 63.07552 ], [ -179.99438, 63.16557 ], [ -179.99436, 63.25561 ], [ -179.99433, 63.34566 ], [ -179.99431, 63.4357 ], [ -179.99423, 63.45081 ], [ -177.23881, 63.45081 ], [ -179.99401, 64.12965 ], [ -179.99413, 64.15605 ], [ -179.9941, 64.24609 ], [ -179.99408, 64.33613 ], [ -179.99405, 64.42618 ], [ -179.99403, 64.51622 ], [ -179.99388, 64.5484 ], [ -178.36138, 64.5484 ], [ -179.99376, 64.93223 ], [ -179.9939, 64.96644 ], [ -179.99388, 65.05648 ], [ -179.99385, 65.14652 ], [ -179.99382, 65.23657 ], [ -179.9938, 65.32661 ], [ -179.99379, 65.32811 ], [ -176.6627, 64.5484 ], [ -174.96402, 64.5484 ], [ -166.62515, 62.36814 ], [ -169.86059, 62.36814 ], [ -166.11891, 61.29937 ], [ -167.701, 61.29937 ], [ -164.21142, 60.2436 ], [ -168.85891, 60.2436 ], [ -165.53276, 59.20001 ] ] ] ] } },
{ "type": "Feature", "properties": { "patch_id": 16, "area_km2": 530000 }, "geometry": { "type": "MultiPolygon", "coordinates": [ [ [ [ -22.35166, -13.80027 ], [ -23.36765, -13.80027 ], [ -23.31867, -12.98292 ], [ -22.30481, -12.98292 ], [ -22.35166, -13.80027 ] ] ], [ [ [ -15.20783, -12.98292 ], [ -15.23977, -13.80027 ], [ -14.22379, -13.80027 ], [ -14.25561, -14.61871 ], [ -15.27387, -14.61871 ], [ -15.31017, -15.43832 ], [ -17.35153, -15.43832 ], [ -17.39521, -16.25917 ], [ -18.41846, -16.25917 ], [ -18.51927, -17.90487 ], [ -16.46158, -17.90487 ], [ -16.37196, -16.25917 ], [ -14.32547, -16.25917 ], [ -14.36358, -17.08133 ], [ -15.38955, -17.08133 ], [ -15.43273, -17.90487 ], [ -14.40388, -17.90487 ], [ -14.44642, -18.72988 ], [ -19.60586, -18.72988 ], [ -19.30371, -13.80027 ], [ -21.33568, -13.80027 ], [ -21.29096, -12.98292 ], [ -22.30481, -12.98292 ], [ -22.26107, -12.1666 ], [ -23.27294, -12.1666 ], [ -23.2304, -11.35123 ], [ -21.21036, -11.35123 ], [ -21.11089, -8.91022 ], [ -20.10561, -8.91022 ], [ -20.07933, -8.09802 ], [ -17.06743, -8.09802 ], [ -17.08977, -8.91022 ], [ -16.08449, -8.91022 ], [ -16.13287, -10.53676 ], [ -18.14948, -10.53676 ], [ -18.2136, -12.1666 ], [ -16.18987, -12.1666 ], [ -16.22168, -12.98292 ], [ -15.20783, -12.98292 ] ], [ [ -18.28773, -13.80027 ], [ -18.24939, -12.98292 ], [ -19.26325, -12.98292 ], [ -19.30371, -13.80027 ], [ -18.28773, -13.80027 ] ], [ [ -20.2771, -12.98292 ], [ -20.23734, -12.1666 ], [ -21.2492, -12.1666 ], [ -21.29096, -12.98292 ], [ -20.2771, -12.98292 ] ], [ [ -20.16609, -10.53676 ], [ -19.15778, -10.53676 ], [ -19.10033, -8.91022 ], [ -20.10561, -8.91022 ], [ -20.16609, -10.53676 ] ] ], [ [ [ -24.33252, -12.98292 ], [ -24.2848, -12.1666 ], [ -23.27294, -12.1666 ], [ -23.31867, -12.98292 ], [ -24.33252, -12.98292 ] ] ], [ [ [ -21.11089, -8.91022 ], [ -22.11617, -8.91022 ], [ -22.08726, -8.09802 ], [ -21.08329, -8.09802 ], [ -21.11089, -8.91022 ] ] ] ] } },
{ "type": "Feature", "properties": { "patch_id": 17, "area_km2": 520000 }, "geometry": { "type": "MultiPolygon", "coordinates": [ [ [ [ 41.82901, -22.04609 ], [ 41.68016, -21.21445 ], [ 42.72217, -21.21445 ], [ 42.87474, -22.04609 ], [ 41.82901, -22.04609 ] ] ], [ [ [ 37.51215, -21.21445 ], [ 37.38458, -20.38459 ], [ 38.42304, -20.38459 ], [ 38.55415, -21.21445 ], [ 37.51215, -21.21445 ] ] ], [ [ [ 36.34612, -20.38459 ], [ 36.47014, -21.21445 ], [ 35.42814, -21.21445 ], [ 35.19305, -19.55643 ], [ 36.22814, -19.55643 ], [ 36.11605, -18.72988 ], [ 37.14794, -18.72988 ], [ 37.38458, -20.38459 ], [ 36.34612, -20.38459 ] ] ], [ [ [ 42.72217, -21.21445 ], [ 42.57688, -20.38459 ], [ 41.53842, -20.38459 ], [ 41.40359, -19.55643 ], [ 40.3685, -19.55643 ], [ 40.12509, -17.90487 ], [ 39.09624, -17.90487 ], [ 39.21171, -18.72988 ], [ 37.14794, -18.72988 ], [ 37.03855, -17.90487 ], [ 38.0674, -17.90487 ], [ 37.96089, -17.08133 ], [ 40.01283, -17.08133 ], [ 39.90666, -16.25917 ], [ 40.9299, -16.25917 ], [ 40.73032, -14.61871 ], [ 41.74858, -14.61871 ], [ 41.65537, -13.80027 ], [ 42.67136, -13.80027 ], [ 42.58192, -12.98292 ], [ 44.60963, -12.98292 ], [ 44.80336, -14.61871 ], [ 43.7851, -14.61871 ], [ 43.88916, -15.43832 ], [ 44.90983, -15.43832 ], [ 45.02289, -16.25917 ], [ 43.99965, -16.25917 ], [ 44.11671, -17.08133 ], [ 43.09074, -17.08133 ], [ 43.76417, -21.21445 ], [ 42.72217, -21.21445 ] ], [ [ 42.18279, -17.90487 ], [ 41.15394, -17.90487 ], [ 41.27549, -18.72988 ], [ 42.30737, -18.72988 ], [ 42.18279, -17.90487 ] ] ], [ [ [ 44.60963, -12.98292 ], [ 44.52214, -12.1666 ], [ 45.53401, -12.1666 ], [ 45.62348, -12.98292 ], [ 44.60963, -12.98292 ] ] ], [ [ [ 41.21651, -8.91022 ], [ 41.16262, -8.09802 ], [ 42.16658, -8.09802 ], [ 42.58192, -12.98292 ], [ 41.56806, -12.98292 ], [ 41.65537, -13.80027 ], [ 40.63939, -13.80027 ], [ 40.40069, -11.35123 ], [ 41.41071, -11.35123 ], [ 41.34048, -10.53676 ], [ 40.33218, -10.53676 ], [ 40.21123, -8.91022 ], [ 41.21651, -8.91022 ] ] ], [ [ [ 40.15865, -8.09802 ], [ 40.11126, -7.28644 ], [ 41.11404, -7.28644 ], [ 41.16262, -8.09802 ], [ 40.15865, -8.09802 ] ] ], [ [ [ 41.11404, -7.28644 ], [ 41.07073, -6.47543 ], [ 43.07418, -6.47543 ], [ 43.11961, -7.28644 ], [ 41.11404, -7.28644 ] ] ] ] } },
{ "type": "Feature", "properties": { "patch_id": 18, "area_km2": 390000 }, "geometry": { "type": "MultiPolygon", "coordinates": [ [ [ [ -74.32653, -41.89415 ], [ -77.23136, -45.5518 ], [ -78.47703, -45.5518 ], [ -80.1849, -47.41367 ], [ -75.09379, -47.41367 ], [ -76.86676, -49.30027 ], [ -75.56393, -49.30027 ], [ -77.50468, -51.21395 ], [ -78.84097, -51.21395 ], [ -77.82673, -50.25357 ], [ -81.78402, -50.25357 ], [ -80.77524, -49.30027 ], [ -85.98654, -49.30027 ], [ -83.08605, -46.47978 ], [ -80.5683, -46.47978 ], [ -79.7227, -45.5518 ], [ -80.96836, -45.5518 ], [ -80.15108, -44.62948 ], [ -81.38417, -44.62948 ], [ -78.43591, -40.99221 ], [ -77.24749, -40.99221 ], [ -77.92297, -41.89415 ], [ -76.72416, -41.89415 ], [ -74.81702, -39.20192 ], [ -73.648, -39.20192 ], [ -75.52534, -41.89415 ], [ -74.32653, -41.89415 ] ], [ [ -81.45767, -47.41367 ], [ -82.39402, -48.35374 ], [ -81.10662, -48.35374 ], [ -80.1849, -47.41367 ], [ -81.45767, -47.41367 ] ], [ [ -78.91798, -44.62948 ], [ -78.15154, -43.71258 ], [ -76.93042, -43.71258 ], [ -76.21129, -42.80087 ], [ -78.63069, -42.80087 ], [ -80.15108, -44.62948 ], [ -78.91798, -44.62948 ] ] ], [ [ [ -74.23687, -38.31322 ], [ -74.81702, -39.20192 ], [ -75.98603, -39.20192 ], [ -75.39683, -38.31322 ], [ -74.23687, -38.31322 ] ] ] ] } },
{ "type": "Feature", "properties": { "patch_id": 19, "area_km2": 380000 }, "geometry": { "type": "MultiPolygon", "coordinates": [ [ [ [ 173.84365, -37.42857 ], [ 175.15263, -38.31322 ], [ 172.83272, -38.31322 ], [ 174.18337, -39.20192 ], [ 173.01435, -39.20192 ], [ 174.41778, -40.09487 ], [ 173.23929, -40.09487 ], [ 174.69817, -40.99221 ], [ 173.50974, -40.99221 ], [ 172.06079, -40.09487 ], [ 170.88229, -40.09487 ], [ 172.32132, -40.99221 ], [ 171.1329, -40.99221 ], [ 169.70379, -40.09487 ], [ 168.52529, -40.09487 ], [ 167.16927, -39.20192 ], [ 168.33829, -39.20192 ], [ 165.78467, -37.42857 ], [ 166.93595, -37.42857 ], [ 165.73348, -36.54784 ], [ 166.87647, -36.54784 ], [ 168.08724, -37.42857 ], [ 171.54108, -37.42857 ], [ 169.123, -35.67086 ], [ 167.98795, -35.67086 ], [ 166.86376, -34.7975 ], [ 170.24614, -34.7975 ], [ 168.09672, -33.06104 ], [ 170.32317, -33.06104 ], [ 171.38846, -33.9276 ], [ 172.50864, -33.9276 ], [ 173.62851, -34.7975 ], [ 172.50105, -34.7975 ], [ 173.66322, -35.67086 ], [ 172.52817, -35.67086 ], [ 174.99493, -37.42857 ], [ 173.84365, -37.42857 ] ] ], [ [ [ 174.75597, -34.7975 ], [ 177.16337, -36.54784 ], [ 176.02038, -36.54784 ], [ 173.62851, -34.7975 ], [ 174.75597, -34.7975 ] ] ] ] } },
{ "type": "Feature", "properties": { "patch_id": 20, "area_km2": 370000 }, "geometry": { "type": "MultiPolygon", "coordinates": [ [ [ [ -73.47407, 22.8796 ], [ -73.20077, 22.04609 ], [ -72.15505, 22.04609 ], [ -71.65377, 20.38459 ], [ -72.69223, 20.38459 ], [ -72.94029, 21.21445 ], [ -73.98229, 21.21445 ], [ -74.52369, 22.8796 ], [ -73.47407, 22.8796 ] ] ], [ [ [ -78.63823, 27.92479 ], [ -77.56228, 25.39218 ], [ -78.62478, 25.39218 ], [ -77.97544, 23.71506 ], [ -76.92172, 23.71506 ], [ -77.23467, 24.55255 ], [ -76.17666, 24.55255 ], [ -75.86799, 23.71506 ], [ -74.81427, 23.71506 ], [ -74.52369, 22.8796 ], [ -75.57332, 22.8796 ], [ -75.02429, 21.21445 ], [ -76.0663, 21.21445 ], [ -76.33795, 22.04609 ], [ -77.38368, 22.04609 ], [ -77.67258, 22.8796 ], [ -79.77184, 22.8796 ], [ -80.4087, 24.55255 ], [ -83.58273, 24.55255 ], [ -85.10165, 27.92479 ], [ -86.17888, 27.92479 ], [ -87.52464, 30.4801 ], [ -86.43059, 30.4801 ], [ -85.96814, 29.62563 ], [ -83.79173, 29.62563 ], [ -81.81227, 25.39218 ], [ -79.68728, 25.39218 ], [ -80.03944, 26.23403 ], [ -78.97225, 26.23403 ], [ -79.71547, 27.92479 ], [ -78.63823, 27.92479 ] ] ] ] } },
{ "type": "Feature", "properties": { "patch_id": 21, "area_km2": 320000 }, "geometry": { "type": "MultiPolygon", "coordinates": [ [ [ [ 73.28954, 8.09802 ], [ 72.28557, 8.09802 ], [ 72.38021, 8.91022 ], [ 73.38549, 8.91022 ], [ 73.28954, 8.09802 ] ] ], [ [ [ 73.86628, 12.1666 ], [ 72.85441, 12.1666 ], [ 72.99757, 12.98292 ], [ 71.98372, 12.98292 ], [ 72.65058, 16.25917 ], [ 73.67383, 16.25917 ], [ 73.31458, 14.61871 ], [ 74.33284, 14.61871 ], [ 74.01143, 12.98292 ], [ 75.02528, 12.98292 ], [ 74.74128, 11.35123 ], [ 75.7513, 11.35123 ], [ 75.50446, 9.72311 ], [ 76.51119, 9.72311 ], [ 76.40133, 8.91022 ], [ 73.38549, 8.91022 ], [ 73.49101, 9.72311 ], [ 71.47756, 9.72311 ], [ 71.28161, 8.09802 ], [ 70.27764, 8.09802 ], [ 70.47083, 9.72311 ], [ 69.4641, 9.72311 ], [ 69.573, 10.53676 ], [ 72.59792, 10.53676 ], [ 72.72124, 11.35123 ], [ 73.73126, 11.35123 ], [ 73.86628, 12.1666 ] ], [ [ 74.49773, 9.72311 ], [ 74.61452, 10.53676 ], [ 73.60622, 10.53676 ], [ 73.49101, 9.72311 ], [ 74.49773, 9.72311 ] ] ], [ [ [ 72.65058, 16.25917 ], [ 71.62733, 16.25917 ], [ 72.0194, 17.90487 ], [ 73.04825, 17.90487 ], [ 72.65058, 16.25917 ] ] ], [ [ [ 71.89828, 21.21445 ], [ 72.94029, 21.21445 ], [ 72.0194, 17.90487 ], [ 70.99055, 17.90487 ], [ 71.20021, 18.72988 ], [ 70.16832, 18.72988 ], [ 70.3861, 19.55643 ], [ 69.35101, 19.55643 ], [ 69.57685, 20.38459 ], [ 71.65377, 20.38459 ], [ 71.89828, 21.21445 ] ] ] ] } },
{ "type": "Feature", "properties": { "patch_id": 22, "area_km2": 290000 }, "geometry": { "type": "MultiPolygon", "coordinates": [ [ [ [ -144.95797, 39.20192 ], [ -143.83395, 38.31322 ], [ -144.9939, 38.31322 ], [ -146.12699, 39.20192 ], [ -144.95797, 39.20192 ] ] ], [ [ [ -149.85187, 41.89415 ], [ -148.65305, 41.89415 ], [ -147.36444, 40.99221 ], [ -148.55286, 40.99221 ], [ -149.85187, 41.89415 ] ] ], [ [ [ -149.48006, 45.5518 ], [ -148.23439, 45.5518 ], [ -143.95465, 42.80087 ], [ -145.16435, 42.80087 ], [ -143.85779, 41.89415 ], [ -141.46016, 41.89415 ], [ -140.2339, 40.99221 ], [ -141.42233, 40.99221 ], [ -140.24133, 40.09487 ], [ -141.41982, 40.09487 ], [ -140.28191, 39.20192 ], [ -141.45092, 39.20192 ], [ -140.35409, 38.31322 ], [ -141.51404, 38.31322 ], [ -142.61994, 39.20192 ], [ -144.95797, 39.20192 ], [ -147.36444, 40.99221 ], [ -144.9876, 40.99221 ], [ -146.25542, 41.89415 ], [ -147.45424, 41.89415 ], [ -148.79346, 42.80087 ], [ -150.00317, 42.80087 ], [ -151.41861, 43.71258 ], [ -150.1975, 43.71258 ], [ -151.6705, 44.62948 ], [ -147.97122, 44.62948 ], [ -149.48006, 45.5518 ] ] ] ] } },
{ "type": "Feature", "properties": { "patch_id": 23, "area_km2": 280000 }, "geometry": { "type": "Polygon", "coordinates": [ [ [ 175.88156, -49.30027 ], [ 173.27591, -49.30027 ], [ 175.43992, -50.25357 ], [ 172.80172, -50.25357 ], [ 175.05368, -51.21395 ], [ 172.3811, -51.21395 ], [ 174.72725, -52.18177 ], [ 170.66383, -52.18177 ], [ 173.09192, -53.1574 ], [ 170.34443, -53.1574 ], [ 165.69966, -51.21395 ], [ 168.37224, -51.21395 ], [ 166.20624, -50.25357 ], [ 167.52534, -50.25357 ], [ 165.45895, -49.30027 ], [ 166.76178, -49.30027 ], [ 162.91534, -47.41367 ], [ 164.18812, -47.41367 ], [ 166.07545, -48.35374 ], [ 167.36286, -48.35374 ], [ 165.4609, -47.41367 ], [ 168.00645, -47.41367 ], [ 169.93767, -48.35374 ], [ 173.79989, -48.35374 ], [ 175.88156, -49.30027 ] ] ] } },
{ "type": "Feature", "properties": { "patch_id": 24, "area_km2": 260000 }, "geometry": { "type": "MultiPolygon", "coordinates": [ [ [ [ -156.22437, 31.33741 ], [ -157.13097, 32.19768 ], [ -154.91785, 32.19768 ], [ -156.82604, 33.9276 ], [ -155.70585, 33.9276 ], [ -157.77247, 35.67086 ], [ -155.50236, 35.67086 ], [ -151.59819, 32.19768 ], [ -152.70474, 32.19768 ], [ -151.82369, 31.33741 ], [ -154.02403, 31.33741 ], [ -153.16813, 30.4801 ], [ -156.4503, 30.4801 ], [ -157.32454, 31.33741 ], [ -156.22437, 31.33741 ] ] ], [ [ [ -152.20681, 34.7975 ], [ -153.23225, 35.67086 ], [ -155.50236, 35.67086 ], [ -156.58956, 36.54784 ], [ -155.44657, 36.54784 ], [ -156.57441, 37.42857 ], [ -155.42313, 37.42857 ], [ -154.30358, 36.54784 ], [ -150.87461, 36.54784 ], [ -149.82709, 35.67086 ], [ -150.96214, 35.67086 ], [ -148.98474, 33.9276 ], [ -150.10492, 33.9276 ], [ -151.07935, 34.7975 ], [ -152.20681, 34.7975 ] ] ] ] } },
{ "type": "Feature", "properties": { "patch_id": 25, "area_km2": 260000 }, "geometry": { "type": "MultiPolygon", "coordinates": [ [ [ [ 59.19933, -15.43832 ], [ 60.22001, -15.43832 ], [ 59.9431, -13.80027 ], [ 60.95908, -13.80027 ], [ 61.39486, -16.25917 ], [ 60.37161, -16.25917 ], [ 60.53223, -17.08133 ], [ 59.50626, -17.08133 ], [ 59.67322, -17.90487 ], [ 58.64437, -17.90487 ], [ 58.04071, -14.61871 ], [ 59.05897, -14.61871 ], [ 59.19933, -15.43832 ] ] ], [ [ [ 59.9431, -13.80027 ], [ 58.92712, -13.80027 ], [ 58.8036, -12.98292 ], [ 59.81745, -12.98292 ], [ 59.9431, -13.80027 ] ] ], [ [ [ 58.8036, -12.98292 ], [ 57.78974, -12.98292 ], [ 57.57098, -11.35123 ], [ 58.581, -11.35123 ], [ 58.8036, -12.98292 ] ] ], [ [ [ 62.62107, -11.35123 ], [ 61.61105, -11.35123 ], [ 61.72388, -12.1666 ], [ 60.71201, -12.1666 ], [ 60.60104, -11.35123 ], [ 58.581, -11.35123 ], [ 58.39012, -9.72311 ], [ 57.38339, -9.72311 ], [ 57.22608, -8.09802 ], [ 58.23004, -8.09802 ], [ 58.30628, -8.91022 ], [ 59.31156, -8.91022 ], [ 59.23401, -8.09802 ], [ 60.23798, -8.09802 ], [ 60.31684, -8.91022 ], [ 61.32212, -8.91022 ], [ 61.50657, -10.53676 ], [ 62.51487, -10.53676 ], [ 62.62107, -11.35123 ] ] ] ] } },
{ "type": "Feature", "properties": { "patch_id": 26, "area_km2": 260000 }, "geometry": { "type": "Polygon", "coordinates": [ [ [ -92.0468, -24.55255 ], [ -89.93078, -24.55255 ], [ -90.31225, -25.39218 ], [ -89.24975, -25.39218 ], [ -89.64417, -26.23403 ], [ -92.84575, -26.23403 ], [ -92.43724, -25.39218 ], [ -93.49974, -25.39218 ], [ -93.91294, -26.23403 ], [ -97.11452, -26.23403 ], [ -95.88871, -23.71506 ], [ -96.94244, -23.71506 ], [ -97.33685, -24.55255 ], [ -98.39485, -24.55255 ], [ -97.61554, -22.8796 ], [ -98.66517, -22.8796 ], [ -97.94838, -21.21445 ], [ -98.99039, -21.21445 ], [ -98.65375, -20.38459 ], [ -96.57683, -20.38459 ], [ -97.25246, -22.04609 ], [ -96.20673, -22.04609 ], [ -96.56591, -22.8796 ], [ -93.41703, -22.8796 ], [ -93.78127, -23.71506 ], [ -91.67383, -23.71506 ], [ -92.0468, -24.55255 ] ] ] } }
]
}
