{"type":"FeatureCollection","name":"argo_coldspots_centroids","features":[{"type":"Feature","geometry":{"type":"Point","coordinates":[113.5,88.5]},"properties":{"patch_id":1,"area_km2":9615713,"cells":4711}},{"type":"Feature","geometry":{"type":"Point","coordinates":[-76.5,-79.5]},"properties":{"patch_id":2,"area_km2":8476761,"cells":1891}},{"type":"Feature","geometry":{"type":"Point","coordinates":[118.5,-3.5]},"properties":{"patch_id":3,"area_km2":6070000,"cells":483}},{"type":"Feature","geometry":{"type":"Point","coordinates":[41.5,-64.5]},"properties":{"patch_id":4,"area_km2":4710000,"cells":833}},{"type":"Feature","geometry":{"type":"Point","coordinates":[-68.5,13.5]},"properties":{"patch_id":5,"area_km2":3440000,"cells":288}},{"type":"Feature","geometry":{"type":"Point","coordinates":[-67.5,61.5]},"properties":{"patch_id":6,"area_km2":2490000,"cells":408}},{"type":"Feature","geometry":{"type":"Point","coordinates":[148.5,52.5]},"properties":{"patch_id":7,"area_km2":1450000,"cells":189}},{"type":"Feature","geometry":{"type":"Point","coordinates":[-60.5,-44.5]},"properties":{"patch_id":8,"area_km2":1420000,"cells":155}},{"type":"Feature","geometry":{"type":"Point","coordinates":[9.5,-13.5]},"properties":{"patch_id":9,"area_km2":1340000,"cells":114}},{"type":"Feature","geometry":{"type":"Point","coordinates":[-103.5,17.5]},"properties":{"patch_id":10,"area_km2":1290000,"cells":108}},{"type":"Feature","geometry":{"type":"Point","coordinates":[122.5,30.5]},"properties":{"patch_id":11,"area_km2":920000,"cells":92}},{"type":"Feature","geometry":{"type":"Point","coordinates":[163.5,-67.5]},"properties":{"patch_id":12,"area_km2":896328,"cells":183}},{"type":"Feature","geometry":{"type":"Point","coordinates":[95.5,8.5]},"properties":{"patch_id":13,"area_km2":750000,"cells":59}},{"type":"Feature","geometry":{"type":"Point","coordinates":[-85.5,2.5]},"properties":{"patch_id":14,"area_km2":700000,"cells":58}},{"type":"Feature","geometry":{"type":"Point","coordinates":[-170.5,59.5]},"properties":{"patch_id":15,"area_km2":679452,"cells":110}},{"type":"Feature","geometry":{"type":"Point","coordinates":[-17.5,-13.5]},"properties":{"patch_id":16,"area_km2":530000,"cells":48}},{"type":"Feature","geometry":{"type":"Point","coordinates":[41.5,-15.5]},"properties":{"patch_id":17,"area_km2":520000,"cells":44}},{"type":"Feature","geometry":{"type":"Point","coordinates":[-78.5,-45.5]},"properties":{"patch_id":18,"area_km2":390000,"cells":47}},{"type":"Feature","geometry":{"type":"Point","coordinates":[170.5,-37.5]},"properties":{"patch_id":19,"area_km2":380000,"cells":38}},{"type":"Feature","geometry":{"type":"Point","coordinates":[-79.5,25.5]},"properties":{"patch_id":20,"area_km2":370000,"cells":33}},{"type":"Feature","geometry":{"type":"Point","coordinates":[72.5,13.5]},"properties":{"patch_id":21,"area_km2":320000,"cells":26}},{"type":"Feature","geometry":{"type":"Point","coordinates":[-145.5,41.5]},"properties":{"patch_id":22,"area_km2":290000,"cells":32}},{"type":"Feature","geometry":{"type":"Point","coordinates":[169.5,-49.5]},"properties":{"patch_id":23,"area_km2":280000,"cells":35}},{"type":"Feature","geometry":{"type":"Point","coordinates":[-154.5,33.5]},"properties":{"patch_id":24,"area_km2":260000,"cells":27}},{"type":"Feature","geometry":{"type":"Point","coordinates":[58.5,-12.5]},"properties":{"patch_id":25,"area_km2":260000,"cells":21}},{"type":"Feature","geometry":{"type":"Point","coordinates":[-95.5,-23.5]},"properties":{"patch_id":26,"area_km2":260000,"cells":21}}]}