{"type": "FeatureCollection", "features": [{"type": "Feature", "geometry": {"type": "Point", "coordinates": [78.37063333333333, -68.47766666666666]}, "properties": {"deployment": "awru1", "country": "AUSTRALIA", "pi": "HINDELL", "start": "2007-03-02 18:14:00", "n_tags": 3, "n_prof_temp": 3507, "in_my_download": 1}}, {"type": "Feature", "geometry": {"type": "Point", "coordinates": [3.1734625, -54.4197375]}, "properties": {"deployment": "bv3", "country": "NORWAY", "pi": "NPOLAR", "start": "2015-01-30 13:19:59", "n_tags": 8, "n_prof_temp": 2908, "in_my_download": 0}}, {"type": "Feature", "geometry": {"type": "Point", "coordinates": [-36.54371666666666, -53.98576666666667]}, "properties": {"deployment": "ct1", "country": "UK", "pi": "FEDAK", "start": "2004-02-03 05:25:00", "n_tags": 6, "n_prof_temp": 1620, "in_my_download": 0}}, {"type": "Feature", "geometry": {"type": "Point", "coordinates": [-118.14584285714284, 35.95558571428571]}, "properties": {"deployment": "ct10", "country": "USA", "pi": "COSTA", "start": "2005-02-10 00:00:00", "n_tags": 7, "n_prof_temp": 609, "in_my_download": 1}}, {"type": "Feature", "geometry": {"type": "Point", "coordinates": [169.142, -52.54692]}, "properties": {"deployment": "ct100", "country": "AUSTRALIA", "pi": "IMOS", "start": "2013-03-13 11:09:59", "n_tags": 5, "n_prof_temp": 1432, "in_my_download": 1}}, {"type": "Feature", "geometry": {"type": "Point", "coordinates": [150.23206923076924, -36.24363846153846]}, "properties": {"deployment": "ct101", "country": "AUSTRALIA", "pi": "IMOS", "start": "2013-05-26 01:41:59", "n_tags": 13, "n_prof_temp": 3814, "in_my_download": 1}}, {"type": "Feature", "geometry": {"type": "Point", "coordinates": [-58.6190125, -62.305675]}, "properties": {"deployment": "ct102", "country": "GERMANY", "pi": "BESTER-AWI", "start": "2013-11-19 05:09:59", "n_tags": 8, "n_prof_temp": 1781, "in_my_download": 0}}, {"type": "Feature", "geometry": {"type": "Point", "coordinates": [-106.38591428571428, -73.48786428571428]}, "properties": {"deployment": "ct104", "country": "UK", "pi": "SMRU", "start": "2014-02-08 23:08:00", "n_tags": 14, "n_prof_temp": 8111, "in_my_download": 0}}, {"type": "Feature", "geometry": {"type": "Point", "coordinates": [70.47606666666667, -49.38153333333333]}, "properties": {"deployment": "ct105", "country": "CHINA", "pi": "GAO", "start": "2014-01-18 17:49:59", "n_tags": 3, "n_prof_temp": 802, "in_my_download": 0}}, {"type": "Feature", "geometry": {"type": "Point", "coordinates": [128.67545, -34.1729125]}, "properties": {"deployment": "ct106", "country": "AUSTRALIA", "pi": "SARDI", "start": "2013-11-23 02:32:00", "n_tags": 8, "n_prof_temp": 2233, "in_my_download": 1}}, {"type": "Feature", "geometry": {"type": "Point", "coordinates": [-123.61505416666668, 37.34444583333333]}, "properties": {"deployment": "ct107", "country": "USA", "pi": "COSTA", "start": "2014-01-28 11:29:59", "n_tags": 24, "n_prof_temp": 9505, "in_my_download": 1}}, {"type": "Feature", "geometry": {"type": "Point", "coordinates": [169.1572111111111, -52.57767777777778]}, "properties": {"deployment": "ct108", "country": "AUSTRALIA", "pi": "IMOS", "start": "2014-07-18 05:40:00", "n_tags": 9, "n_prof_temp": 2197, "in_my_download": 1}}, {"type": "Feature", "geometry": {"type": "Point", "coordinates": [70.4402652173913, -49.521956521739135]}, "properties": {"deployment": "ct109", "country": "AUSTRALIA", "pi": "IMOS", "start": "2014-12-16 10:49:59", "n_tags": 23, "n_prof_temp": 10820, "in_my_download": 1}}, {"type": "Feature", "geometry": {"type": "Point", "coordinates": [71.55983333333334, -49.484433333333335]}, "properties": {"deployment": "ct11", "country": "FRANCE", "pi": "GUINET", "start": "2005-09-25 00:10:00", "n_tags": 3, "n_prof_temp": 379, "in_my_download": 0}}, {"type": "Feature", "geometry": {"type": "Point", "coordinates": [150.25565999999998, -36.24252]}, "properties": {"deployment": "ct110", "country": "AUSTRALIA", "pi": "IMOS", "start": "2014-08-04 08:37:59", "n_tags": 10, "n_prof_temp": 1279, "in_my_download": 1}}, {"type": "Feature", "geometry": {"type": "Point", "coordinates": [140.06024, -66.64748]}, "properties": {"deployment": "ct111", "country": "AUSTRALIA", "pi": "IMOS", "start": "2014-11-03 17:20:00", "n_tags": 5, "n_prof_temp": 435, "in_my_download": 1}}, {"type": "Feature", "geometry": {"type": "Point", "coordinates": [70.574625, -49.4389875]}, "properties": {"deployment": "ct112", "country": "FRANCE", "pi": "GUINET", "start": "2014-10-20 15:30:00", "n_tags": 8, "n_prof_temp": 5198, "in_my_download": 0}}, {"type": "Feature", "geometry": {"type": "Point", "coordinates": [-19.16156666666667, -72.83833333333332]}, "properties": {"deployment": "ct113", "country": "GERMANY", "pi": "AWI", "start": "2016-01-21 16:10:00", "n_tags": 3, "n_prof_temp": 471, "in_my_download": 0}}, {"type": "Feature", "geometry": {"type": "Point", "coordinates": [-120.89793529411766, 35.0799]}, "properties": {"deployment": "ct114", "country": "USA", "pi": "COSTA", "start": "2015-02-20 05:04:33", "n_tags": 17, "n_prof_temp": 15057, "in_my_download": 1}}, {"type": "Feature", "geometry": {"type": "Point", "coordinates": [133.2162, -32.5528]}, "properties": {"deployment": "ct115", "country": "AUSTRALIA", "pi": "SARDI", "start": "2014-12-08 15:30:00", "n_tags": 1, "n_prof_temp": 423, "in_my_download": 1}}, {"type": "Feature", "geometry": {"type": "Point", "coordinates": [77.68854999999999, -68.5716]}, "properties": {"deployment": "ct116", "country": "AUSTRALIA", "pi": "IMOS", "start": "2016-02-11 05:00:00", "n_tags": 2, "n_prof_temp": 521, "in_my_download": 1}}, {"type": "Feature", "geometry": {"type": "Point", "coordinates": [-125.066, 37.845]}, "properties": {"deployment": "ct117", "country": "FRANCE", "pi": "GUINET", "start": "2015-03-01 19:40:00", "n_tags": 2, "n_prof_temp": 280, "in_my_download": 0}}, {"type": "Feature", "geometry": {"type": "Point", "coordinates": [-60.85184999999999, -62.43163333333333]}, "properties": {"deployment": "ct118", "country": "USA", "pi": "GOEBEL", "start": "2015-02-20 04:30:00", "n_tags": 6, "n_prof_temp": 2740, "in_my_download": 1}}, {"type": "Feature", "geometry": {"type": "Point", "coordinates": [166.82925, -77.85125]}, "properties": {"deployment": "ct119", "country": "AUSTRALIA", "pi": "IMOS", "start": "2016-01-18 05:00:00", "n_tags": 4, "n_prof_temp": 731, "in_my_download": 1}}, {"type": "Feature", "geometry": {"type": "Point", "coordinates": [-124.27842, 40.35272]}, "properties": {"deployment": "ct12", "country": "USA", "pi": "COSTA", "start": "2005-07-01 17:20:00", "n_tags": 5, "n_prof_temp": 929, "in_my_download": 1}}, {"type": "Feature", "geometry": {"type": "Point", "coordinates": [70.98590769230769, -49.46625384615384]}, "properties": {"deployment": "ct120", "country": "FRANCE", "pi": "GUINET", "start": "2015-11-01 04:30:00", "n_tags": 13, "n_prof_temp": 6022, "in_my_download": 0}}, {"type": "Feature", "geometry": {"type": "Point", "coordinates": [77.72925000000001, -68.5438]}, "properties": {"deployment": "ct121", "country": "CHINA", "pi": "GAO", "start": "2016-02-15 07:19:59", "n_tags": 2, "n_prof_temp": 1261, "in_my_download": 0}}, {"type": "Feature", "geometry": {"type": "Point", "coordinates": [68.37814999999999, -49.788916666666665]}, "properties": {"deployment": "ct122", "country": "AUSTRALIA", "pi": "IMOS", "start": "2016-01-16 21:59:59", "n_tags": 12, "n_prof_temp": 5758, "in_my_download": 1}}, {"type": "Feature", "geometry": {"type": "Point", "coordinates": [135.142975, -34.4502625]}, "properties": {"deployment": "ct123", "country": "AUSTRALIA", "pi": "SARDI", "start": "2015-12-08 03:39:59", "n_tags": 8, "n_prof_temp": 3944, "in_my_download": 1}}, {"type": "Feature", "geometry": {"type": "Point", "coordinates": [-122.73807142857144, 37.063457142857146]}, "properties": {"deployment": "ct125", "country": "USA", "pi": "COSTA", "start": "2016-02-08 03:32:10", "n_tags": 7, "n_prof_temp": 677, "in_my_download": 1}}, {"type": "Feature", "geometry": {"type": "Point", "coordinates": [-124.6116, 39.0897]}, "properties": {"deployment": "ct126", "country": "USA", "pi": "COSTA", "start": "2016-02-18 04:36:27", "n_tags": 3, "n_prof_temp": 0, "in_my_download": 1}}, {"type": "Feature", "geometry": {"type": "Point", "coordinates": [-63.48093333333333, -42.54523333333333]}, "properties": {"deployment": "ct127", "country": "USA", "pi": "COSTA", "start": "2016-01-16 10:10:00", "n_tags": 3, "n_prof_temp": 894, "in_my_download": 1}}, {"type": "Feature", "geometry": {"type": "Point", "coordinates": [140.1069, -66.6228]}, "properties": {"deployment": "ct128", "country": "AUSTRALIA", "pi": "IMOS", "start": "2017-11-18 03:59:59", "n_tags": 2, "n_prof_temp": 132, "in_my_download": 1}}, {"type": "Feature", "geometry": {"type": "Point", "coordinates": [-34.1228, -74.566]}, "properties": {"deployment": "ct128a", "country": "AUSTRALIA", "pi": "IMOS", "start": "2017-03-04 08:40:00", "n_tags": 1, "n_prof_temp": 228, "in_my_download": 1}}, {"type": "Feature", "geometry": {"type": "Point", "coordinates": [-122.74044999999998, 37.15161]}, "properties": {"deployment": "ct129", "country": "USA", "pi": "COSTA", "start": "2016-05-28 10:30:00", "n_tags": 10, "n_prof_temp": 8622, "in_my_download": 1}}, {"type": "Feature", "geometry": {"type": "Point", "coordinates": [-116.02115, 29.088525]}, "properties": {"deployment": "ct13", "country": "USA", "pi": "COSTA", "start": "2005-08-19 03:19:59", "n_tags": 4, "n_prof_temp": 97, "in_my_download": 1}}, {"type": "Feature", "geometry": {"type": "Point", "coordinates": [71.53738571428572, -49.67805714285714]}, "properties": {"deployment": "ct131", "country": "FRANCE", "pi": "GUINET", "start": "2016-10-25 01:49:59", "n_tags": 7, "n_prof_temp": 3301, "in_my_download": 0}}, {"type": "Feature", "geometry": {"type": "Point", "coordinates": [70.8709, -49.3791]}, "properties": {"deployment": "ct132", "country": "FRANCE", "pi": "GUINET", "start": "2016-10-25 01:19:59", "n_tags": 5, "n_prof_temp": 859, "in_my_download": 0}}, {"type": "Feature", "geometry": {"type": "Point", "coordinates": [77.73075, -68.50805]}, "properties": {"deployment": "ct133", "country": "CHINA", "pi": "GAO", "start": "2017-02-07 18:00:00", "n_tags": 2, "n_prof_temp": 627, "in_my_download": 0}}, {"type": "Feature", "geometry": {"type": "Point", "coordinates": [103.29954782608696, -39.62998260869565]}, "properties": {"deployment": "ct134", "country": "AUSTRALIA", "pi": "IMOS", "start": "2017-02-21 10:19:59", "n_tags": 23, "n_prof_temp": 2109, "in_my_download": 1}}, {"type": "Feature", "geometry": {"type": "Point", "coordinates": [70.26712727272728, -49.494654545454544]}, "properties": {"deployment": "ct135", "country": "AUSTRALIA", "pi": "IMOS", "start": "2017-01-25 23:53:17", "n_tags": 11, "n_prof_temp": 11469, "in_my_download": 1}}, {"type": "Feature", "geometry": {"type": "Point", "coordinates": [135.41172, -34.92704]}, "properties": {"deployment": "ct136", "country": "AUSTRALIA", "pi": "SARDI", "start": "2017-02-23 06:24:00", "n_tags": 5, "n_prof_temp": 1342, "in_my_download": 1}}, {"type": "Feature", "geometry": {"type": "Point", "coordinates": [-122.66586666666666, 37.10462222222222]}, "properties": {"deployment": "ct137", "country": "USA", "pi": "COSTA", "start": "2017-06-10 23:00:00", "n_tags": 9, "n_prof_temp": 8044, "in_my_download": 1}}, {"type": "Feature", "geometry": {"type": "Point", "coordinates": [12.94048, 78.55599]}, "properties": {"deployment": "ct138", "country": "NORWAY", "pi": "NPOLAR", "start": "2017-08-10 18:08:59", "n_tags": 10, "n_prof_temp": 2345, "in_my_download": 0}}, {"type": "Feature", "geometry": {"type": "Point", "coordinates": [69.11062857142858, -48.516650000000006]}, "properties": {"deployment": "ct139", "country": "FRANCE", "pi": "GUINET", "start": "2017-10-04 21:10:00", "n_tags": 14, "n_prof_temp": 1986, "in_my_download": 0}}, {"type": "Feature", "geometry": {"type": "Point", "coordinates": [-61.52340833333333, -62.422975]}, "properties": {"deployment": "ct14", "country": "USA", "pi": "COSTA", "start": "2006-02-07 10:49:59", "n_tags": 12, "n_prof_temp": 1936, "in_my_download": 1}}, {"type": "Feature", "geometry": {"type": "Point", "coordinates": [70.6399, -49.52181481481481]}, "properties": {"deployment": "ct140", "country": "AUSTRALIA", "pi": "IMOS", "start": "2018-01-02 17:40:00", "n_tags": 27, "n_prof_temp": 10334, "in_my_download": 1}}, {"type": "Feature", "geometry": {"type": "Point", "coordinates": [90.68176666666666, -5.237166666666667]}, "properties": {"deployment": "ct142", "country": "AUSTRALIA", "pi": "SARDI", "start": "2017-12-05 17:20:00", "n_tags": 3, "n_prof_temp": 180, "in_my_download": 1}}, {"type": "Feature", "geometry": {"type": "Point", "coordinates": [-60.72075, -62.45285]}, "properties": {"deployment": "ct143", "country": "USA", "pi": "GOEBEL", "start": "2018-05-05 03:19:59", "n_tags": 2, "n_prof_temp": 835, "in_my_download": 1}}, {"type": "Feature", "geometry": {"type": "Point", "coordinates": [70.68546666666666, -49.47580666666667]}, "properties": {"deployment": "ct144", "country": "AUSTRALIA", "pi": "IMOS", "start": "2018-10-14 14:40:00", "n_tags": 15, "n_prof_temp": 9972, "in_my_download": 1}}, {"type": "Feature", "geometry": {"type": "Point", "coordinates": [-122.5902, 37.11252857142857]}, "properties": {"deployment": "ct145", "country": "USA", "pi": "COSTA", "start": "2018-06-03 11:11:10", "n_tags": 14, "n_prof_temp": 4015, "in_my_download": 1}}, {"type": "Feature", "geometry": {"type": "Point", "coordinates": [14.04102, 40.10214]}, "properties": {"deployment": "ct146", "country": "ITALY", "pi": "HOCHSCHEID", "start": "2018-07-09 17:29:59", "n_tags": 5, "n_prof_temp": 736, "in_my_download": 0}}, {"type": "Feature", "geometry": {"type": "Point", "coordinates": [70.5702, -49.522704]}, "properties": {"deployment": "ct148", "country": "AUSTRALIA", "pi": "IMOS", "start": "2018-12-22 17:29:59", "n_tags": 25, "n_prof_temp": 18036, "in_my_download": 1}}, {"type": "Feature", "geometry": {"type": "Point", "coordinates": [70.62937, -49.4986]}, "properties": {"deployment": "ct149", "country": "AUSTRALIA", "pi": "HINDELL", "start": "2018-12-26 17:29:59", "n_tags": 10, "n_prof_temp": 6116, "in_my_download": 1}}, {"type": "Feature", "geometry": {"type": "Point", "coordinates": [-121.90805, 36.7114]}, "properties": {"deployment": "ct15", "country": "USA", "pi": "COSTA", "start": "2005-12-02 03:59:59", "n_tags": 2, "n_prof_temp": 0, "in_my_download": 1}}, {"type": "Feature", "geometry": {"type": "Point", "coordinates": [166.75765882352945, -77.83622352941177]}, "properties": {"deployment": "ct150", "country": "AUSTRALIA", "pi": "IMOS", "start": "2019-02-20 05:29:59", "n_tags": 17, "n_prof_temp": 6660, "in_my_download": 1}}, {"type": "Feature", "geometry": {"type": "Point", "coordinates": [-122.82512, 37.1143]}, "properties": {"deployment": "ct151", "country": "USA", "pi": "COSTA", "start": "2019-06-08 09:00:00", "n_tags": 5, "n_prof_temp": 2656, "in_my_download": 1}}, {"type": "Feature", "geometry": {"type": "Point", "coordinates": [72.0481, -49.01063571428572]}, "properties": {"deployment": "ct152", "country": "FRANCE", "pi": "GUINET", "start": "2019-10-12 21:10:00", "n_tags": 14, "n_prof_temp": 1185, "in_my_download": 0}}, {"type": "Feature", "geometry": {"type": "Point", "coordinates": [-57.884800000000006, -42.62155555555555]}, "properties": {"deployment": "ct154", "country": "FRANCE", "pi": "GUINET", "start": "2019-10-18 23:00:00", "n_tags": 9, "n_prof_temp": 510, "in_my_download": 0}}, {"type": "Feature", "geometry": {"type": "Point", "coordinates": [70.76214444444444, -49.4499]}, "properties": {"deployment": "ct155", "country": "FRANCE", "pi": "GUINET", "start": "2020-01-10 16:30:00", "n_tags": 9, "n_prof_temp": 3593, "in_my_download": 0}}, {"type": "Feature", "geometry": {"type": "Point", "coordinates": [166.76384444444443, -77.84909999999999]}, "properties": {"deployment": "ct156", "country": "AUSTRALIA", "pi": "IMOS", "start": "2020-02-16 04:30:00", "n_tags": 18, "n_prof_temp": 7217, "in_my_download": 1}}, {"type": "Feature", "geometry": {"type": "Point", "coordinates": [70.52653636363637, -49.48472727272727]}, "properties": {"deployment": "ct157", "country": "AUSTRALIA", "pi": "IMOS", "start": "2019-12-27 05:40:00", "n_tags": 44, "n_prof_temp": 11470, "in_my_download": 1}}, {"type": "Feature", "geometry": {"type": "Point", "coordinates": [70.3405375, -48.83991875]}, "properties": {"deployment": "ct159", "country": "FRANCE", "pi": "GUINET", "start": "2020-10-18 17:00:00", "n_tags": 16, "n_prof_temp": 1725, "in_my_download": 0}}, {"type": "Feature", "geometry": {"type": "Point", "coordinates": [70.61554, -49.76354]}, "properties": {"deployment": "ct16", "country": "FRANCE", "pi": "GUINET", "start": "2006-02-07 03:19:59", "n_tags": 5, "n_prof_temp": 641, "in_my_download": 0}}, {"type": "Feature", "geometry": {"type": "Point", "coordinates": [71.84738085106383, -49.578089361702126]}, "properties": {"deployment": "ct160", "country": "AUSTRALIA", "pi": "IMOS", "start": "2020-12-21 21:59:59", "n_tags": 47, "n_prof_temp": 24311, "in_my_download": 1}}, {"type": "Feature", "geometry": {"type": "Point", "coordinates": [70.6066, -49.24154444444444]}, "properties": {"deployment": "ct161", "country": "FRANCE", "pi": "GUINET", "start": "2021-12-31 23:04:59", "n_tags": 9, "n_prof_temp": 2472, "in_my_download": 0}}, {"type": "Feature", "geometry": {"type": "Point", "coordinates": [-66.1662, 77.5747]}, "properties": {"deployment": "ct162", "country": "JAPAN", "pi": "OHSHIMA", "start": "2021-08-13 19:30:59", "n_tags": 4, "n_prof_temp": 1573, "in_my_download": 0}}, {"type": "Feature", "geometry": {"type": "Point", "coordinates": [140.73690714285715, 42.41800714285715]}, "properties": {"deployment": "ct163", "country": "JAPAN", "pi": "OHSHIMA", "start": "2021-06-07 11:15:00", "n_tags": 14, "n_prof_temp": 897, "in_my_download": 0}}, {"type": "Feature", "geometry": {"type": "Point", "coordinates": [70.58396888888889, -49.28993555555556]}, "properties": {"deployment": "ct164", "country": "AUSTRALIA", "pi": "IMOS", "start": "2021-12-15 17:20:00", "n_tags": 45, "n_prof_temp": 14565, "in_my_download": 1}}, {"type": "Feature", "geometry": {"type": "Point", "coordinates": [-62.43543, -41.90717]}, "properties": {"deployment": "ct165", "country": "FRANCE", "pi": "GUINET", "start": "2021-10-19 23:04:59", "n_tags": 10, "n_prof_temp": 1269, "in_my_download": 0}}, {"type": "Feature", "geometry": {"type": "Point", "coordinates": [48.06516666666667, -17.2706]}, "properties": {"deployment": "ct166", "country": "FRANCE", "pi": "CNRSPEPS", "start": "2022-10-19 14:09:59", "n_tags": 3, "n_prof_temp": 449, "in_my_download": 0}}, {"type": "Feature", "geometry": {"type": "Point", "coordinates": [70.03378666666667, -49.53202666666667]}, "properties": {"deployment": "ct168", "country": "FRANCE", "pi": "GUINET", "start": "2021-10-10 17:20:00", "n_tags": 15, "n_prof_temp": 1279, "in_my_download": 0}}, {"type": "Feature", "geometry": {"type": "Point", "coordinates": [-122.39132, 37.05666]}, "properties": {"deployment": "ct169", "country": "USA", "pi": "COSTA", "start": "2022-02-16 03:10:00", "n_tags": 5, "n_prof_temp": 970, "in_my_download": 1}}, {"type": "Feature", "geometry": {"type": "Point", "coordinates": [-121.4134142857143, 36.87528571428572]}, "properties": {"deployment": "ct17", "country": "USA", "pi": "COSTA", "start": "2006-02-12 17:00:00", "n_tags": 7, "n_prof_temp": 415, "in_my_download": 1}}, {"type": "Feature", "geometry": {"type": "Point", "coordinates": [70.553592, -49.703968]}, "properties": {"deployment": "ct170", "country": "AUSTRALIA", "pi": "IMOS", "start": "2023-01-13 15:59:59", "n_tags": 25, "n_prof_temp": 8671, "in_my_download": 1}}, {"type": "Feature", "geometry": {"type": "Point", "coordinates": [65.09760588235294, -42.671841176470586]}, "properties": {"deployment": "ct171", "country": "FRANCE", "pi": "XTOPHE", "start": "2022-10-18 20:20:00", "n_tags": 17, "n_prof_temp": 1450, "in_my_download": 0}}, {"type": "Feature", "geometry": {"type": "Point", "coordinates": [-122.7888, 36.8645]}, "properties": {"deployment": "ct174", "country": "USA", "pi": "COSTA", "start": "2023-02-03 18:00:00", "n_tags": 2, "n_prof_temp": 286, "in_my_download": 1}}, {"type": "Feature", "geometry": {"type": "Point", "coordinates": [66.08561, -49.98819]}, "properties": {"deployment": "ct175", "country": "FRANCE", "pi": "XTOPHE", "start": "2023-10-10 17:09:59", "n_tags": 10, "n_prof_temp": 1792, "in_my_download": 0}}, {"type": "Feature", "geometry": {"type": "Point", "coordinates": [70.29454285714286, -49.41695714285714]}, "properties": {"deployment": "ct176", "country": "AUSTRALIA", "pi": "IMOS", "start": "2023-12-24 17:09:59", "n_tags": 7, "n_prof_temp": 1151, "in_my_download": 1}}, {"type": "Feature", "geometry": {"type": "Point", "coordinates": [70.63945, -49.4896]}, "properties": {"deployment": "ct177", "country": "FRANCE", "pi": "XTOPHE", "start": "2024-02-11 11:00:00", "n_tags": 2, "n_prof_temp": 54, "in_my_download": 0}}, {"type": "Feature", "geometry": {"type": "Point", "coordinates": [-38.0096, 65.3821]}, "properties": {"deployment": "ct18", "country": "CANADA", "pi": "STENSON", "start": "2007-07-24 21:50:00", "n_tags": 1, "n_prof_temp": 784, "in_my_download": 0}}, {"type": "Feature", "geometry": {"type": "Point", "coordinates": [70.38692631578947, -49.44212105263158]}, "properties": {"deployment": "ct180", "country": "AUSTRALIA", "pi": "IMOS", "start": "2023-12-24 09:10:00", "n_tags": 19, "n_prof_temp": 1423, "in_my_download": 1}}, {"type": "Feature", "geometry": {"type": "Point", "coordinates": [-122.8643, 37.44576666666666]}, "properties": {"deployment": "ct19", "country": "USA", "pi": "COSTA", "start": "2006-08-15 01:30:00", "n_tags": 3, "n_prof_temp": 159, "in_my_download": 1}}, {"type": "Feature", "geometry": {"type": "Point", "coordinates": [158.94065, -54.51845]}, "properties": {"deployment": "ct2", "country": "AUSTRALIA", "pi": "HINDELL", "start": "2004-01-27 11:49:00", "n_tags": 4, "n_prof_temp": 1774, "in_my_download": 1}}, {"type": "Feature", "geometry": {"type": "Point", "coordinates": [-163.66448, 66.78758]}, "properties": {"deployment": "ct20", "country": "CANADA", "pi": "NMML", "start": "2006-10-08 20:20:00", "n_tags": 5, "n_prof_temp": 159, "in_my_download": 0}}, {"type": "Feature", "geometry": {"type": "Point", "coordinates": [37.93846666666666, -46.95771666666667]}, "properties": {"deployment": "ct21", "country": "GERMANY", "pi": "AWI", "start": "2007-03-28 17:20:00", "n_tags": 6, "n_prof_temp": 1763, "in_my_download": 0}}, {"type": "Feature", "geometry": {"type": "Point", "coordinates": [-56.386300000000006, -61.2773]}, "properties": {"deployment": "ct22", "country": "BRAZIL", "pi": "MUELBERT", "start": "2008-11-22 05:40:00", "n_tags": 2, "n_prof_temp": 291, "in_my_download": 1}}, {"type": "Feature", "geometry": {"type": "Point", "coordinates": [70.54163333333334, -49.5165]}, "properties": {"deployment": "ct23", "country": "FRANCE", "pi": "GUINET", "start": "2006-12-29 05:40:00", "n_tags": 12, "n_prof_temp": 3255, "in_my_download": 0}}, {"type": "Feature", "geometry": {"type": "Point", "coordinates": [70.8696, -49.682566666666666]}, "properties": {"deployment": "ct23x", "country": "FRANCE", "pi": "GUINET", "start": "2009-01-07 23:49:59", "n_tags": 6, "n_prof_temp": 1451, "in_my_download": 0}}, {"type": "Feature", "geometry": {"type": "Point", "coordinates": [-60.77774615384615, -62.53018461538461]}, "properties": {"deployment": "ct25", "country": "USA", "pi": "COSTA", "start": "2007-01-25 17:29:59", "n_tags": 13, "n_prof_temp": 7655, "in_my_download": 1}}, {"type": "Feature", "geometry": {"type": "Point", "coordinates": [70.59455, -49.48235]}, "properties": {"deployment": "ct26", "country": "FRANCE", "pi": "GUINET", "start": "2007-05-09 18:00:00", "n_tags": 4, "n_prof_temp": 1423, "in_my_download": 0}}, {"type": "Feature", "geometry": {"type": "Point", "coordinates": [-30.529525, -74.78767500000001]}, "properties": {"deployment": "ct27", "country": "UK", "pi": "NICHOLLS", "start": "2007-02-12 19:41:59", "n_tags": 4, "n_prof_temp": 2974, "in_my_download": 0}}, {"type": "Feature", "geometry": {"type": "Point", "coordinates": [-45.6288, -60.7167]}, "properties": {"deployment": "ct27x", "country": "UK", "pi": "NICHOLLS", "start": "2007-03-06 22:55:00", "n_tags": 1, "n_prof_temp": 634, "in_my_download": 0}}, {"type": "Feature", "geometry": {"type": "Point", "coordinates": [-122.700875, 37.211]}, "properties": {"deployment": "ct28", "country": "USA", "pi": "COSTA", "start": "2007-02-25 09:30:00", "n_tags": 8, "n_prof_temp": 1710, "in_my_download": 1}}, {"type": "Feature", "geometry": {"type": "Point", "coordinates": [-66.59956363636364, -66.80633636363636]}, "properties": {"deployment": "ct29", "country": "USA", "pi": "COSTA", "start": "2007-04-22 02:20:00", "n_tags": 11, "n_prof_temp": 5454, "in_my_download": 1}}, {"type": "Feature", "geometry": {"type": "Point", "coordinates": [70.6457, -49.92538]}, "properties": {"deployment": "ct3", "country": "FRANCE", "pi": "GUINET", "start": "2004-02-24 10:12:00", "n_tags": 10, "n_prof_temp": 2529, "in_my_download": 0}}, {"type": "Feature", "geometry": {"type": "Point", "coordinates": [-122.6823, 37.214225]}, "properties": {"deployment": "ct30", "country": "USA", "pi": "COSTA", "start": "2007-06-07 23:20:00", "n_tags": 4, "n_prof_temp": 1317, "in_my_download": 1}}, {"type": "Feature", "geometry": {"type": "Point", "coordinates": [137.23224, -35.86594]}, "properties": {"deployment": "ct31", "country": "AUSTRALIA", "pi": "SARDI", "start": "2007-03-26 13:05:59", "n_tags": 5, "n_prof_temp": 2434, "in_my_download": 1}}, {"type": "Feature", "geometry": {"type": "Point", "coordinates": [-5.9052333333333324, 76.63636666666666]}, "properties": {"deployment": "ct32", "country": "NORWAY", "pi": "NPOLAR", "start": "2007-07-14 21:05:00", "n_tags": 3, "n_prof_temp": 2137, "in_my_download": 0}}, {"type": "Feature", "geometry": {"type": "Point", "coordinates": [-15.74065, 72.7468375]}, "properties": {"deployment": "ct32x", "country": "NORWAY", "pi": "NPOLAR", "start": "2008-03-22 11:25:00", "n_tags": 16, "n_prof_temp": 4825, "in_my_download": 0}}, {"type": "Feature", "geometry": {"type": "Point", "coordinates": [37.81696, -46.7614]}, "properties": {"deployment": "ct33", "country": "SOUTH-AFRICA", "pi": "BESTER", "start": "2008-01-28 00:10:00", "n_tags": 5, "n_prof_temp": 2782, "in_my_download": 0}}, {"type": "Feature", "geometry": {"type": "Point", "coordinates": [3.234055, -54.43419]}, "properties": {"deployment": "ct34", "country": "NORWAY", "pi": "NPOLAR", "start": "2008-01-16 23:00:00", "n_tags": 20, "n_prof_temp": 12062, "in_my_download": 0}}, {"type": "Feature", "geometry": {"type": "Point", "coordinates": [37.690666666666665, -46.86936666666667]}, "properties": {"deployment": "ct35", "country": "GERMANY", "pi": "AWI", "start": "2007-10-30 21:30:00", "n_tags": 6, "n_prof_temp": 946, "in_my_download": 0}}, {"type": "Feature", "geometry": {"type": "Point", "coordinates": [37.755775, -46.8574]}, "properties": {"deployment": "ct35b", "country": "GERMANY", "pi": "AWI", "start": "2008-02-13 17:49:59", "n_tags": 4, "n_prof_temp": 1862, "in_my_download": 0}}, {"type": "Feature", "geometry": {"type": "Point", "coordinates": [37.599325, -46.96225]}, "properties": {"deployment": "ct35x", "country": "SOUTH-AFRICA", "pi": "BESTER-AWI", "start": "2008-11-08 23:00:00", "n_tags": 4, "n_prof_temp": 474, "in_my_download": 0}}, {"type": "Feature", "geometry": {"type": "Point", "coordinates": [70.57930999999999, -49.52213]}, "properties": {"deployment": "ct36", "country": "AUSTRALIA", "pi": "HINDELL", "start": "2008-12-26 11:09:59", "n_tags": 10, "n_prof_temp": 2640, "in_my_download": 1}}, {"type": "Feature", "geometry": {"type": "Point", "coordinates": [-60.8003, -62.423233333333336]}, "properties": {"deployment": "ct37", "country": "USA", "pi": "COSTA", "start": "2008-01-31 04:19:59", "n_tags": 12, "n_prof_temp": 8884, "in_my_download": 1}}, {"type": "Feature", "geometry": {"type": "Point", "coordinates": [70.5078, -49.54618]}, "properties": {"deployment": "ct38e", "country": "FRANCE", "pi": "GUINET", "start": "2007-12-25 23:49:59", "n_tags": 5, "n_prof_temp": 2012, "in_my_download": 0}}, {"type": "Feature", "geometry": {"type": "Point", "coordinates": [140.17344, -66.6492]}, "properties": {"deployment": "ct38w", "country": "AUSTRALIA", "pi": "HINDELL", "start": "2008-02-21 10:10:00", "n_tags": 5, "n_prof_temp": 1244, "in_my_download": 1}}, {"type": "Feature", "geometry": {"type": "Point", "coordinates": [-55.576260000000005, -61.318470000000005]}, "properties": {"deployment": "ct39", "country": "BRAZIL", "pi": "MUELBERT", "start": "2008-02-02 09:59:59", "n_tags": 10, "n_prof_temp": 6640, "in_my_download": 1}}, {"type": "Feature", "geometry": {"type": "Point", "coordinates": [-124.417375, 37.9547]}, "properties": {"deployment": "ct4", "country": "USA", "pi": "COSTA", "start": "2004-06-11 08:42:00", "n_tags": 4, "n_prof_temp": 1026, "in_my_download": 1}}, {"type": "Feature", "geometry": {"type": "Point", "coordinates": [-36.56275, -54.10335]}, "properties": {"deployment": "ct40", "country": "UK", "pi": "FEDAK", "start": "2008-01-31 17:09:59", "n_tags": 10, "n_prof_temp": 5466, "in_my_download": 0}}, {"type": "Feature", "geometry": {"type": "Point", "coordinates": [-122.52631999999998, 37.06936]}, "properties": {"deployment": "ct41", "country": "USA", "pi": "COSTA", "start": "2008-02-13 05:29:59", "n_tags": 5, "n_prof_temp": 1978, "in_my_download": 1}}, {"type": "Feature", "geometry": {"type": "Point", "coordinates": [37.6268, -46.8879]}, "properties": {"deployment": "ct42", "country": "SOUTH-AFRICA", "pi": "BESTER", "start": "2008-04-04 21:00:00", "n_tags": 1, "n_prof_temp": 239, "in_my_download": 0}}, {"type": "Feature", "geometry": {"type": "Point", "coordinates": [-32.02813333333333, -74.42365555555556]}, "properties": {"deployment": "ct43", "country": "UK", "pi": "NICHOLLS", "start": "2009-02-05 00:45:59", "n_tags": 9, "n_prof_temp": 1875, "in_my_download": 0}}, {"type": "Feature", "geometry": {"type": "Point", "coordinates": [-8.16245, -70.56396666666667]}, "properties": {"deployment": "ct44", "country": "GERMANY", "pi": "AWI", "start": "2008-11-16 17:20:00", "n_tags": 6, "n_prof_temp": 293, "in_my_download": 0}}, {"type": "Feature", "geometry": {"type": "Point", "coordinates": [-36.60141, -54.10363]}, "properties": {"deployment": "ct45", "country": "UK", "pi": "FEDAK", "start": "2008-10-17 05:09:59", "n_tags": 10, "n_prof_temp": 1974, "in_my_download": 0}}, {"type": "Feature", "geometry": {"type": "Point", "coordinates": [-55.30893999999999, -61.3386]}, "properties": {"deployment": "ct46", "country": "BRAZIL", "pi": "MUELBERT", "start": "2009-01-22 05:40:00", "n_tags": 10, "n_prof_temp": 5468, "in_my_download": 1}}, {"type": "Feature", "geometry": {"type": "Point", "coordinates": [140.0246625, -66.64125]}, "properties": {"deployment": "ct47", "country": "AUSTRALIA", "pi": "HINDELL", "start": "2009-02-13 11:40:00", "n_tags": 8, "n_prof_temp": 1875, "in_my_download": 1}}, {"type": "Feature", "geometry": {"type": "Point", "coordinates": [-67.46398666666667, -62.42617333333333]}, "properties": {"deployment": "ct48", "country": "USA", "pi": "COSTA", "start": "2009-01-18 10:40:00", "n_tags": 15, "n_prof_temp": 8418, "in_my_download": 1}}, {"type": "Feature", "geometry": {"type": "Point", "coordinates": [-36.59610833333333, -54.102358333333335]}, "properties": {"deployment": "ct49", "country": "UK", "pi": "FEDAK", "start": "2009-01-28 21:10:00", "n_tags": 12, "n_prof_temp": 5994, "in_my_download": 0}}, {"type": "Feature", "geometry": {"type": "Point", "coordinates": [37.91845, -46.9546]}, "properties": {"deployment": "ct50", "country": "SOUTH-AFRICA", "pi": "BESTER", "start": "2009-02-09 23:09:59", "n_tags": 4, "n_prof_temp": 2286, "in_my_download": 0}}, {"type": "Feature", "geometry": {"type": "Point", "coordinates": [-123.1049, 36.827]}, "properties": {"deployment": "ct51", "country": "USA", "pi": "COSTA", "start": "2009-02-18 08:09:59", "n_tags": 2, "n_prof_temp": 286, "in_my_download": 1}}, {"type": "Feature", "geometry": {"type": "Point", "coordinates": [11.560586666666667, 78.33979333333333]}, "properties": {"deployment": "ct52", "country": "NORWAY", "pi": "NPOLAR", "start": "2009-09-01 17:49:59", "n_tags": 15, "n_prof_temp": 4835, "in_my_download": 0}}, {"type": "Feature", "geometry": {"type": "Point", "coordinates": [-122.1872, 37.0327]}, "properties": {"deployment": "ct53", "country": "USA", "pi": "COSTA", "start": "2009-06-08 23:25:00", "n_tags": 1, "n_prof_temp": 529, "in_my_download": 1}}, {"type": "Feature", "geometry": {"type": "Point", "coordinates": [-58.227130769230776, -62.34593846153847]}, "properties": {"deployment": "ct54", "country": "GERMANY", "pi": "BESTER-AWI", "start": "2010-03-22 06:10:00", "n_tags": 13, "n_prof_temp": 5337, "in_my_download": 0}}, {"type": "Feature", "geometry": {"type": "Point", "coordinates": [-55.74866, 51.6767]}, "properties": {"deployment": "ct55", "country": "CANADA", "pi": "HAMMILL", "start": "2010-03-28 12:00:00", "n_tags": 5, "n_prof_temp": 1599, "in_my_download": 0}}, {"type": "Feature", "geometry": {"type": "Point", "coordinates": [-55.916775, -61.4552625]}, "properties": {"deployment": "ct56", "country": "BRAZIL", "pi": "MUELBERT", "start": "2009-11-19 12:59:59", "n_tags": 8, "n_prof_temp": 3104, "in_my_download": 1}}, {"type": "Feature", "geometry": {"type": "Point", "coordinates": [-60.74785555555555, -62.454]}, "properties": {"deployment": "ct57", "country": "USA", "pi": "GOEBEL", "start": "2010-02-24 17:49:59", "n_tags": 9, "n_prof_temp": 3145, "in_my_download": 1}}, {"type": "Feature", "geometry": {"type": "Point", "coordinates": [-36.62745384615385, -54.148500000000006]}, "properties": {"deployment": "ct58", "country": "UK", "pi": "FEDAK", "start": "2009-10-22 15:19:59", "n_tags": 13, "n_prof_temp": 12852, "in_my_download": 0}}, {"type": "Feature", "geometry": {"type": "Point", "coordinates": [158.7561, -54.598172727272726]}, "properties": {"deployment": "ct6", "country": "AUSTRALIA", "pi": "HINDELL", "start": "2005-02-01 04:30:00", "n_tags": 11, "n_prof_temp": 2686, "in_my_download": 1}}, {"type": "Feature", "geometry": {"type": "Point", "coordinates": [135.50708, -34.59985]}, "properties": {"deployment": "ct61", "country": "AUSTRALIA", "pi": "SARDI", "start": "2009-11-05 10:40:00", "n_tags": 10, "n_prof_temp": 8007, "in_my_download": 1}}, {"type": "Feature", "geometry": {"type": "Point", "coordinates": [70.58295, -49.35125]}, "properties": {"deployment": "ct62", "country": "FRANCE", "pi": "GUINET", "start": "2010-02-14 17:00:00", "n_tags": 2, "n_prof_temp": 1022, "in_my_download": 0}}, {"type": "Feature", "geometry": {"type": "Point", "coordinates": [164.99892962962963, -77.05848518518518]}, "properties": {"deployment": "ct63", "country": "USA", "pi": "COSTA", "start": "2010-01-25 09:19:59", "n_tags": 27, "n_prof_temp": 7668, "in_my_download": 1}}, {"type": "Feature", "geometry": {"type": "Point", "coordinates": [159.06281333333334, -54.51327333333334]}, "properties": {"deployment": "ct64", "country": "AUSTRALIA", "pi": "IMOS", "start": "2010-01-17 11:40:00", "n_tags": 15, "n_prof_temp": 11098, "in_my_download": 1}}, {"type": "Feature", "geometry": {"type": "Point", "coordinates": [-60.690675, -51.1492]}, "properties": {"deployment": "ct65", "country": "UK", "pi": "FEDAK", "start": "2010-02-26 23:29:59", "n_tags": 4, "n_prof_temp": 1741, "in_my_download": 0}}, {"type": "Feature", "geometry": {"type": "Point", "coordinates": [-126.24785, 39.604275]}, "properties": {"deployment": "ct67", "country": "USA", "pi": "COSTA", "start": "2010-03-23 00:19:59", "n_tags": 4, "n_prof_temp": 151, "in_my_download": 1}}, {"type": "Feature", "geometry": {"type": "Point", "coordinates": [37.66875, -46.88895]}, "properties": {"deployment": "ct68", "country": "GERMANY", "pi": "AWI", "start": "2010-02-01 23:40:00", "n_tags": 2, "n_prof_temp": 344, "in_my_download": 0}}, {"type": "Feature", "geometry": {"type": "Point", "coordinates": [11.552626666666669, 78.31860666666667]}, "properties": {"deployment": "ct69", "country": "NORWAY", "pi": "NPOLAR", "start": "2010-08-24 14:35:59", "n_tags": 15, "n_prof_temp": 11525, "in_my_download": 0}}, {"type": "Feature", "geometry": {"type": "Point", "coordinates": [70.6297, -49.89001428571429]}, "properties": {"deployment": "ct7", "country": "FRANCE", "pi": "GUINET", "start": "2005-01-28 23:09:59", "n_tags": 7, "n_prof_temp": 1688, "in_my_download": 0}}, {"type": "Feature", "geometry": {"type": "Point", "coordinates": [-35.91333684210526, -75.1612894736842]}, "properties": {"deployment": "ct70", "country": "UK", "pi": "NICHOLLS", "start": "2011-02-08 02:40:00", "n_tags": 19, "n_prof_temp": 9001, "in_my_download": 0}}, {"type": "Feature", "geometry": {"type": "Point", "coordinates": [37.84046666666666, -47.00514999999999]}, "properties": {"deployment": "ct73", "country": "SOUTH-AFRICA", "pi": "BESTER-AWI", "start": "2011-01-15 07:19:59", "n_tags": 6, "n_prof_temp": 3064, "in_my_download": 0}}, {"type": "Feature", "geometry": {"type": "Point", "coordinates": [164.8271, -77.30507727272727]}, "properties": {"deployment": "ct74", "country": "USA", "pi": "COSTA", "start": "2011-01-22 05:49:59", "n_tags": 22, "n_prof_temp": 6049, "in_my_download": 1}}, {"type": "Feature", "geometry": {"type": "Point", "coordinates": [140.05644285714286, -66.64411428571428]}, "properties": {"deployment": "ct75", "country": "AUSTRALIA", "pi": "HINDELL", "start": "2011-11-08 15:39:59", "n_tags": 7, "n_prof_temp": 269, "in_my_download": 1}}, {"type": "Feature", "geometry": {"type": "Point", "coordinates": [134.72466, -33.70464]}, "properties": {"deployment": "ct76", "country": "AUSTRALIA", "pi": "SARDI", "start": "2011-02-10 04:58:00", "n_tags": 5, "n_prof_temp": 2443, "in_my_download": 1}}, {"type": "Feature", "geometry": {"type": "Point", "coordinates": [110.441424, -66.434308]}, "properties": {"deployment": "ct77", "country": "AUSTRALIA", "pi": "IMOS", "start": "2012-02-24 11:00:00", "n_tags": 25, "n_prof_temp": 11973, "in_my_download": 1}}, {"type": "Feature", "geometry": {"type": "Point", "coordinates": [77.71051666666666, -68.56979166666666]}, "properties": {"deployment": "ct78", "country": "AUSTRALIA", "pi": "IMOS", "start": "2012-02-05 17:49:59", "n_tags": 24, "n_prof_temp": 13235, "in_my_download": 1}}, {"type": "Feature", "geometry": {"type": "Point", "coordinates": [77.76192380952382, -68.56597619047619]}, "properties": {"deployment": "ct78d", "country": "AUSTRALIA", "pi": "IMOS", "start": "2011-02-26 11:29:59", "n_tags": 21, "n_prof_temp": 14117, "in_my_download": 1}}, {"type": "Feature", "geometry": {"type": "Point", "coordinates": [169.10215, -52.519425]}, "properties": {"deployment": "ct79", "country": "AUSTRALIA", "pi": "IMOS", "start": "2012-01-28 05:00:00", "n_tags": 4, "n_prof_temp": 1528, "in_my_download": 1}}, {"type": "Feature", "geometry": {"type": "Point", "coordinates": [-36.85270769230769, -53.81827692307692]}, "properties": {"deployment": "ct8", "country": "UK", "pi": "FEDAK", "start": "2005-01-24 13:10:00", "n_tags": 13, "n_prof_temp": 3621, "in_my_download": 0}}, {"type": "Feature", "geometry": {"type": "Point", "coordinates": [12.27994, 78.97988000000001]}, "properties": {"deployment": "ct81", "country": "FRANCE", "pi": "GUINET", "start": "2011-07-19 17:06:00", "n_tags": 5, "n_prof_temp": 1971, "in_my_download": 0}}, {"type": "Feature", "geometry": {"type": "Point", "coordinates": [70.58314999999999, -49.4195]}, "properties": {"deployment": "ct82", "country": "FRANCE", "pi": "GUINET", "start": "2011-10-25 17:10:42", "n_tags": 2, "n_prof_temp": 431, "in_my_download": 0}}, {"type": "Feature", "geometry": {"type": "Point", "coordinates": [-60.7658, -62.4767]}, "properties": {"deployment": "ct83", "country": "USA", "pi": "GOEBEL", "start": "2014-03-03 23:40:00", "n_tags": 1, "n_prof_temp": 341, "in_my_download": 1}}, {"type": "Feature", "geometry": {"type": "Point", "coordinates": [70.6387, -49.54966666666667]}, "properties": {"deployment": "ct84", "country": "FRANCE", "pi": "GUINET", "start": "2012-01-23 11:49:59", "n_tags": 3, "n_prof_temp": 1119, "in_my_download": 0}}, {"type": "Feature", "geometry": {"type": "Point", "coordinates": [166.745975, -77.8400875]}, "properties": {"deployment": "ct85", "country": "AUSTRALIA", "pi": "IMOS", "start": "2014-02-02 10:10:00", "n_tags": 8, "n_prof_temp": 2004, "in_my_download": 1}}, {"type": "Feature", "geometry": {"type": "Point", "coordinates": [134.65182857142858, -33.80374285714286]}, "properties": {"deployment": "ct86", "country": "AUSTRALIA", "pi": "SARDI", "start": "2011-11-24 03:02:00", "n_tags": 7, "n_prof_temp": 2873, "in_my_download": 1}}, {"type": "Feature", "geometry": {"type": "Point", "coordinates": [37.8633, -46.80706666666666]}, "properties": {"deployment": "ct87", "country": "GERMANY", "pi": "AWI", "start": "2012-05-24 05:29:59", "n_tags": 3, "n_prof_temp": 894, "in_my_download": 0}}, {"type": "Feature", "geometry": {"type": "Point", "coordinates": [165.30110000000002, -77.3825052631579]}, "properties": {"deployment": "ct88", "country": "USA", "pi": "COSTA", "start": "2012-01-24 05:29:59", "n_tags": 19, "n_prof_temp": 5323, "in_my_download": 1}}, {"type": "Feature", "geometry": {"type": "Point", "coordinates": [-122.45975, 37.07185]}, "properties": {"deployment": "ct89", "country": "USA", "pi": "BLOCK", "start": "2012-02-16 10:30:00", "n_tags": 4, "n_prof_temp": 1493, "in_my_download": 1}}, {"type": "Feature", "geometry": {"type": "Point", "coordinates": [-61.33958333333334, -62.53246666666666]}, "properties": {"deployment": "ct9", "country": "USA", "pi": "COSTA", "start": "2005-02-21 05:00:00", "n_tags": 6, "n_prof_temp": 3195, "in_my_download": 1}}, {"type": "Feature", "geometry": {"type": "Point", "coordinates": [150.2260111111111, -36.24185555555555]}, "properties": {"deployment": "ct91", "country": "AUSTRALIA", "pi": "IMOS", "start": "2012-06-12 09:53:59", "n_tags": 9, "n_prof_temp": 3202, "in_my_download": 1}}, {"type": "Feature", "geometry": {"type": "Point", "coordinates": [12.48495, 78.9399]}, "properties": {"deployment": "ct92", "country": "NORWAY", "pi": "NPOLAR", "start": "2012-08-14 19:30:00", "n_tags": 2, "n_prof_temp": 405, "in_my_download": 0}}, {"type": "Feature", "geometry": {"type": "Point", "coordinates": [21.5231125, 79.7682625]}, "properties": {"deployment": "ct93", "country": "NORWAY", "pi": "NPOLAR", "start": "2012-07-30 17:08:00", "n_tags": 8, "n_prof_temp": 3216, "in_my_download": 0}}, {"type": "Feature", "geometry": {"type": "Point", "coordinates": [12.8267, 78.74956363636363]}, "properties": {"deployment": "ct94", "country": "NORWAY", "pi": "NPOLAR", "start": "2012-08-15 17:37:59", "n_tags": 11, "n_prof_temp": 4896, "in_my_download": 0}}, {"type": "Feature", "geometry": {"type": "Point", "coordinates": [70.6446, -49.264]}, "properties": {"deployment": "ct95", "country": "FRANCE", "pi": "GUINET", "start": "2012-11-02 16:19:59", "n_tags": 2, "n_prof_temp": 474, "in_my_download": 0}}, {"type": "Feature", "geometry": {"type": "Point", "coordinates": [70.68019310344826, -49.69503103448276]}, "properties": {"deployment": "ct96", "country": "AUSTRALIA", "pi": "IMOS", "start": "2013-02-10 17:37:05", "n_tags": 29, "n_prof_temp": 22600, "in_my_download": 1}}, {"type": "Feature", "geometry": {"type": "Point", "coordinates": [-2.7818, 56.3354]}, "properties": {"deployment": "ct97", "country": "FRANCE", "pi": "GUINET", "start": "2013-05-15 14:40:00", "n_tags": 1, "n_prof_temp": 0, "in_my_download": 0}}, {"type": "Feature", "geometry": {"type": "Point", "coordinates": [70.5639588235294, -49.49314705882353]}, "properties": {"deployment": "ct98", "country": "AUSTRALIA", "pi": "IMOS", "start": "2013-12-29 17:20:00", "n_tags": 17, "n_prof_temp": 14920, "in_my_download": 1}}, {"type": "Feature", "geometry": {"type": "Point", "coordinates": [37.75003333333333, -46.8639]}, "properties": {"deployment": "ct99", "country": "GERMANY", "pi": "AWI", "start": "2013-01-30 22:49:59", "n_tags": 3, "n_prof_temp": 980, "in_my_download": 0}}, {"type": "Feature", "geometry": {"type": "Point", "coordinates": [70.56960000000001, -50.0888]}, "properties": {"deployment": "ft01", "country": "FRANCE", "pi": "GUINET", "start": "2007-12-24 23:40:00", "n_tags": 2, "n_prof_temp": 277, "in_my_download": 0}}, {"type": "Feature", "geometry": {"type": "Point", "coordinates": [71.0885, -49.6607875]}, "properties": {"deployment": "ft02", "country": "FRANCE", "pi": "GUINET", "start": "2008-12-27 06:39:59", "n_tags": 8, "n_prof_temp": 1643, "in_my_download": 0}}, {"type": "Feature", "geometry": {"type": "Point", "coordinates": [71.11956666666667, -49.45248333333333]}, "properties": {"deployment": "ft03", "country": "FRANCE", "pi": "GUINET", "start": "2009-10-16 10:19:59", "n_tags": 6, "n_prof_temp": 907, "in_my_download": 0}}, {"type": "Feature", "geometry": {"type": "Point", "coordinates": [70.99332, -49.42854]}, "properties": {"deployment": "ft04", "country": "FRANCE", "pi": "GUINET", "start": "2010-02-18 22:19:59", "n_tags": 5, "n_prof_temp": 1138, "in_my_download": 0}}, {"type": "Feature", "geometry": {"type": "Point", "coordinates": [21.8555, 79.91843333333333]}, "properties": {"deployment": "ft05", "country": "NORWAY", "pi": "NPOLAR", "start": "2010-07-25 20:40:00", "n_tags": 9, "n_prof_temp": 2759, "in_my_download": 0}}, {"type": "Feature", "geometry": {"type": "Point", "coordinates": [71.16235555555555, -49.10653333333333]}, "properties": {"deployment": "ft06", "country": "FRANCE", "pi": "GUINET", "start": "2010-09-09 07:19:59", "n_tags": 9, "n_prof_temp": 1353, "in_my_download": 0}}, {"type": "Feature", "geometry": {"type": "Point", "coordinates": [70.68343, -49.53839]}, "properties": {"deployment": "ft07", "country": "FRANCE", "pi": "GUINET", "start": "2011-01-27 21:59:59", "n_tags": 10, "n_prof_temp": 2010, "in_my_download": 0}}, {"type": "Feature", "geometry": {"type": "Point", "coordinates": [12.445027272727271, 78.94260909090909]}, "properties": {"deployment": "ft08", "country": "NORWAY", "pi": "NPOLAR", "start": "2011-07-20 17:40:00", "n_tags": 11, "n_prof_temp": 3228, "in_my_download": 0}}, {"type": "Feature", "geometry": {"type": "Point", "coordinates": [-122.5354, 37.0389]}, "properties": {"deployment": "ft09", "country": "USA", "pi": "COSTA", "start": "2011-06-13 07:19:59", "n_tags": 1, "n_prof_temp": 453, "in_my_download": 1}}, {"type": "Feature", "geometry": {"type": "Point", "coordinates": [70.59642222222222, -49.31284444444445]}, "properties": {"deployment": "ft10", "country": "FRANCE", "pi": "GUINET", "start": "2011-10-24 06:19:59", "n_tags": 9, "n_prof_temp": 1490, "in_my_download": 0}}, {"type": "Feature", "geometry": {"type": "Point", "coordinates": [70.28295, -50.19175]}, "properties": {"deployment": "ft11", "country": "FRANCE", "pi": "GUINET", "start": "2012-02-10 20:20:00", "n_tags": 4, "n_prof_temp": 475, "in_my_download": 0}}, {"type": "Feature", "geometry": {"type": "Point", "coordinates": [66.34784285714285, -48.49621428571429]}, "properties": {"deployment": "ft12", "country": "FRANCE", "pi": "GUINET", "start": "2012-10-31 10:40:00", "n_tags": 7, "n_prof_temp": 737, "in_my_download": 0}}, {"type": "Feature", "geometry": {"type": "Point", "coordinates": [134.90802, -34.31401]}, "properties": {"deployment": "ft13", "country": "AUSTRALIA", "pi": "SARDI", "start": "2013-02-27 00:00:00", "n_tags": 10, "n_prof_temp": 4827, "in_my_download": 1}}, {"type": "Feature", "geometry": {"type": "Point", "coordinates": [70.893, -49.13635]}, "properties": {"deployment": "ft14", "country": "FRANCE", "pi": "GUINET", "start": "2013-10-30 11:49:59", "n_tags": 2, "n_prof_temp": 250, "in_my_download": 0}}, {"type": "Feature", "geometry": {"type": "Point", "coordinates": [-52.26185, 5.02525]}, "properties": {"deployment": "ft15", "country": "FRANCE", "pi": "IPHC", "start": "2013-08-02 15:24:00", "n_tags": 2, "n_prof_temp": 458, "in_my_download": 0}}, {"type": "Feature", "geometry": {"type": "Point", "coordinates": [-53.17407894736842, 5.461563157894737]}, "properties": {"deployment": "ft17", "country": "FRANCE", "pi": "IPHC", "start": "2014-04-02 05:42:00", "n_tags": 19, "n_prof_temp": 862, "in_my_download": 0}}, {"type": "Feature", "geometry": {"type": "Point", "coordinates": [58.58331666666667, -31.785516666666663]}, "properties": {"deployment": "ft18", "country": "FRANCE", "pi": "GUINET", "start": "2014-06-12 18:00:00", "n_tags": 6, "n_prof_temp": 1274, "in_my_download": 0}}, {"type": "Feature", "geometry": {"type": "Point", "coordinates": [136.82203333333334, -35.67756666666667]}, "properties": {"deployment": "ft19", "country": "AUSTRALIA", "pi": "SARDI", "start": "2014-12-11 12:14:00", "n_tags": 3, "n_prof_temp": 589, "in_my_download": 1}}, {"type": "Feature", "geometry": {"type": "Point", "coordinates": [14.12347, 38.58954]}, "properties": {"deployment": "ft20", "country": "ITALY", "pi": "HOCHSCHEID", "start": "2016-10-14 18:08:59", "n_tags": 10, "n_prof_temp": 357, "in_my_download": 0}}, {"type": "Feature", "geometry": {"type": "Point", "coordinates": [-122.82083333333333, 37.0984]}, "properties": {"deployment": "ft21", "country": "USA", "pi": "COSTA", "start": "2018-02-08 21:59:59", "n_tags": 3, "n_prof_temp": 140, "in_my_download": 1}}, {"type": "Feature", "geometry": {"type": "Point", "coordinates": [69.32401, -49.82199]}, "properties": {"deployment": "ft22", "country": "FRANCE", "pi": "GUINET", "start": "2018-10-20 11:40:00", "n_tags": 10, "n_prof_temp": 1846, "in_my_download": 0}}, {"type": "Feature", "geometry": {"type": "Point", "coordinates": [-59.0402875, -43.0857875]}, "properties": {"deployment": "ft23", "country": "FRANCE", "pi": "XTOPHE", "start": "2018-10-26 05:00:00", "n_tags": 8, "n_prof_temp": 1061, "in_my_download": 0}}, {"type": "Feature", "geometry": {"type": "Point", "coordinates": [70.67143999999999, -49.6229]}, "properties": {"deployment": "ft24", "country": "AUSTRALIA", "pi": "HINDELL", "start": "2018-12-26 11:20:00", "n_tags": 5, "n_prof_temp": 2180, "in_my_download": 1}}, {"type": "Feature", "geometry": {"type": "Point", "coordinates": [-122.79996, 37.1869]}, "properties": {"deployment": "ft26", "country": "USA", "pi": "COSTA", "start": "2019-02-21 05:17:17", "n_tags": 5, "n_prof_temp": 722, "in_my_download": 1}}, {"type": "Feature", "geometry": {"type": "Point", "coordinates": [-123.17325, 36.991075]}, "properties": {"deployment": "ft27", "country": "USA", "pi": "COSTA", "start": "2021-02-13 03:00:00", "n_tags": 4, "n_prof_temp": 815, "in_my_download": 1}}, {"type": "Feature", "geometry": {"type": "Point", "coordinates": [-124.35055, 37.918283333333335]}, "properties": {"deployment": "ft32", "country": "USA", "pi": "COSTA", "start": "2023-02-06 10:40:00", "n_tags": 6, "n_prof_temp": 584, "in_my_download": 1}}, {"type": "Feature", "geometry": {"type": "Point", "coordinates": [158.87314444444442, -54.4868]}, "properties": {"deployment": "ft33", "country": "AUSTRALIA", "pi": "HINDELL", "start": "2023-05-26 09:00:00", "n_tags": 9, "n_prof_temp": 2928, "in_my_download": 1}}, {"type": "Feature", "geometry": {"type": "Point", "coordinates": [158.9170125, -54.5085]}, "properties": {"deployment": "ft34", "country": "AUSTRALIA", "pi": "HINDELL", "start": "2023-05-20 10:30:00", "n_tags": 8, "n_prof_temp": 2784, "in_my_download": 1}}, {"type": "Feature", "geometry": {"type": "Point", "coordinates": [-54.9481, 51.86]}, "properties": {"deployment": "hd2bb", "country": "CANADA", "pi": "HAMMILL", "start": "2004-03-19 18:00:00", "n_tags": 1, "n_prof_temp": 242, "in_my_download": 0}}, {"type": "Feature", "geometry": {"type": "Point", "coordinates": [-55.31812, 51.97952]}, "properties": {"deployment": "hd2f", "country": "CANADA", "pi": "HAMMILL", "start": "2004-03-19 18:00:00", "n_tags": 5, "n_prof_temp": 2308, "in_my_download": 0}}, {"type": "Feature", "geometry": {"type": "Point", "coordinates": [-34.27421666666667, 66.23996666666666]}, "properties": {"deployment": "hd2g", "country": "CANADA", "pi": "HAMMILL", "start": "2004-07-23 15:53:00", "n_tags": 6, "n_prof_temp": 6028, "in_my_download": 0}}, {"type": "Feature", "geometry": {"type": "Point", "coordinates": [-52.6746375, 49.5926]}, "properties": {"deployment": "hd3", "country": "CANADA", "pi": "HAMMILL", "start": "2008-03-23 12:00:00", "n_tags": 8, "n_prof_temp": 2639, "in_my_download": 0}}, {"type": "Feature", "geometry": {"type": "Point", "coordinates": [-56.820225, 51.262425]}, "properties": {"deployment": "hd5bb", "country": "CANADA", "pi": "HAMMILL", "start": "2006-03-17 06:00:00", "n_tags": 4, "n_prof_temp": 3194, "in_my_download": 0}}, {"type": "Feature", "geometry": {"type": "Point", "coordinates": [-37.34553333333333, 65.28750000000001]}, "properties": {"deployment": "hd6", "country": "CANADA", "pi": "HAMMILL", "start": "2007-07-19 20:04:00", "n_tags": 3, "n_prof_temp": 4568, "in_my_download": 0}}, {"type": "Feature", "geometry": {"type": "Point", "coordinates": [-62.35805, 46.385275]}, "properties": {"deployment": "hg19", "country": "CANADA", "pi": "HAMMILL", "start": "2008-06-17 18:00:00", "n_tags": 4, "n_prof_temp": 1821, "in_my_download": 0}}, {"type": "Feature", "geometry": {"type": "Point", "coordinates": [-61.789948888888894, 44.23987111111112]}, "properties": {"deployment": "hg4", "country": "CANADA", "pi": "HAMMILL", "start": "2004-04-03 18:00:00", "n_tags": 45, "n_prof_temp": 30644, "in_my_download": 0}}, {"type": "Feature", "geometry": {"type": "Point", "coordinates": [14.986966666666666, 56.7257]}, "properties": {"deployment": "hg47", "country": "SWEDEN", "pi": "ROQUET", "start": "2016-04-01 13:33:00", "n_tags": 3, "n_prof_temp": 3547, "in_my_download": 0}}, {"type": "Feature", "geometry": {"type": "Point", "coordinates": [-59.76566666666667, 43.27196666666666]}, "properties": {"deployment": "hg9", "country": "CANADA", "pi": "HAMMILL", "start": "2007-01-09 18:00:00", "n_tags": 3, "n_prof_temp": 651, "in_my_download": 0}}, {"type": "Feature", "geometry": {"type": "Point", "coordinates": [-52.65874210526315, 47.5537]}, "properties": {"deployment": "hp2", "country": "CANADA", "pi": "HAMMILL", "start": "2004-05-18 18:00:00", "n_tags": 19, "n_prof_temp": 4538, "in_my_download": 0}}, {"type": "Feature", "geometry": {"type": "Point", "coordinates": [-79.01044, 56.43668]}, "properties": {"deployment": "rs11", "country": "CANADA", "pi": "HAMMILL", "start": "2012-10-23 15:16:00", "n_tags": 15, "n_prof_temp": 3157, "in_my_download": 0}}, {"type": "Feature", "geometry": {"type": "Point", "coordinates": [-94.22826, 72.99897999999999]}, "properties": {"deployment": "rs18", "country": "CANADA", "pi": "HAMMILL", "start": "2013-08-28 23:14:00", "n_tags": 5, "n_prof_temp": 1187, "in_my_download": 0}}, {"type": "Feature", "geometry": {"type": "Point", "coordinates": [-79.72846666666666, 56.64351666666667]}, "properties": {"deployment": "rs6", "country": "CANADA", "pi": "HAMMILL", "start": "2010-07-09 23:09:59", "n_tags": 18, "n_prof_temp": 4389, "in_my_download": 0}}, {"type": "Feature", "geometry": {"type": "Point", "coordinates": [-84.36938, 61.15642]}, "properties": {"deployment": "rs9", "country": "CANADA", "pi": "HAMMILL", "start": "2011-06-21 03:02:00", "n_tags": 15, "n_prof_temp": 2593, "in_my_download": 0}}, {"type": "Feature", "geometry": {"type": "Point", "coordinates": [56.635, -17.0174]}, "properties": {"deployment": "tu114", "country": "FRANCE", "pi": "BOUSQUET", "start": "2022-01-10 06:19:59", "n_tags": 4, "n_prof_temp": 128, "in_my_download": 0}}, {"type": "Feature", "geometry": {"type": "Point", "coordinates": [32.98812857142857, -28.737285714285715]}, "properties": {"deployment": "tu115", "country": "FRANCE", "pi": "BOUSQUET", "start": "2021-12-06 23:09:59", "n_tags": 7, "n_prof_temp": 584, "in_my_download": 0}}, {"type": "Feature", "geometry": {"type": "Point", "coordinates": [131.165175, -11.367329166666666]}, "properties": {"deployment": "tu117", "country": "AUSTRALIA", "pi": "IMOS", "start": "2022-05-24 05:09:59", "n_tags": 24, "n_prof_temp": 4973, "in_my_download": 1}}, {"type": "Feature", "geometry": {"type": "Point", "coordinates": [135.18618, -11.67654]}, "properties": {"deployment": "tu120", "country": "AUSTRALIA", "pi": "IMOS", "start": "2022-10-07 17:04:59", "n_tags": 15, "n_prof_temp": 7039, "in_my_download": 1}}, {"type": "Feature", "geometry": {"type": "Point", "coordinates": [78.39860526315789, -68.41904736842105]}, "properties": {"deployment": "wd04", "country": "AUSTRALIA", "pi": "HINDELL", "start": "2011-03-11 08:29:59", "n_tags": 19, "n_prof_temp": 7492, "in_my_download": 1}}, {"type": "Feature", "geometry": {"type": "Point", "coordinates": [-26.8117125, -74.2279375]}, "properties": {"deployment": "wd06", "country": "GERMANY", "pi": "AWI", "start": "2014-01-21 23:20:00", "n_tags": 8, "n_prof_temp": 1958, "in_my_download": 0}}, {"type": "Feature", "geometry": {"type": "Point", "coordinates": [-19.1571, -72.8252]}, "properties": {"deployment": "wd07", "country": "GERMANY", "pi": "AWI", "start": "2016-01-23 23:20:00", "n_tags": 1, "n_prof_temp": 324, "in_my_download": 0}}, {"type": "Feature", "geometry": {"type": "Point", "coordinates": [-33.82626666666667, -75.84586666666667]}, "properties": {"deployment": "wd09", "country": "FRANCE", "pi": "CNRSPEPS", "start": "2017-02-18 05:49:59", "n_tags": 3, "n_prof_temp": 531, "in_my_download": 0}}, {"type": "Feature", "geometry": {"type": "Point", "coordinates": [140.10057999999998, -66.61706000000001]}, "properties": {"deployment": "wd10", "country": "FRANCE", "pi": "CNRSPEPS", "start": "2017-11-09 09:00:00", "n_tags": 5, "n_prof_temp": 262, "in_my_download": 0}}, {"type": "Feature", "geometry": {"type": "Point", "coordinates": [140.054625, -66.646675]}, "properties": {"deployment": "wd11", "country": "FRANCE", "pi": "CNRSPEPS", "start": "2019-02-03 03:30:00", "n_tags": 8, "n_prof_temp": 1182, "in_my_download": 0}}, {"type": "Feature", "geometry": {"type": "Point", "coordinates": [140.07405, -66.630525]}, "properties": {"deployment": "wd12", "country": "FRANCE", "pi": "CNRSPEPS", "start": "2020-02-09 15:39:59", "n_tags": 8, "n_prof_temp": 1239, "in_my_download": 0}}, {"type": "Feature", "geometry": {"type": "Point", "coordinates": [140.091275, -66.6261125]}, "properties": {"deployment": "wd13", "country": "FRANCE", "pi": "CNRSPEPS", "start": "2019-11-20 07:19:59", "n_tags": 8, "n_prof_temp": 416, "in_my_download": 0}}, {"type": "Feature", "geometry": {"type": "Point", "coordinates": [139.948425, -66.6669]}, "properties": {"deployment": "wd15", "country": "FRANCE", "pi": "CNRSPEPS", "start": "2021-11-19 22:19:59", "n_tags": 4, "n_prof_temp": 629, "in_my_download": 0}}, {"type": "Feature", "geometry": {"type": "Point", "coordinates": [-108.179625, -74.38025]}, "properties": {"deployment": "wd17", "country": "GERMANY", "pi": "AWI", "start": "2022-02-02 05:20:00", "n_tags": 8, "n_prof_temp": 5046, "in_my_download": 0}}, {"type": "Feature", "geometry": {"type": "Point", "coordinates": [139.92502, -66.69632]}, "properties": {"deployment": "wd19", "country": "FRANCE", "pi": "CNRSPEPS", "start": "2021-11-18 15:10:00", "n_tags": 5, "n_prof_temp": 97, "in_my_download": 0}}, {"type": "Feature", "geometry": {"type": "Point", "coordinates": [140.0218, -66.64954999999999]}, "properties": {"deployment": "wd20", "country": "FRANCE", "pi": "CNRSPEPS", "start": "2023-02-05 15:10:00", "n_tags": 6, "n_prof_temp": 826, "in_my_download": 0}}, {"type": "Feature", "geometry": {"type": "Point", "coordinates": [-59.114675000000005, -62.247525]}, "properties": {"deployment": "wd21", "country": "CHILE", "pi": "PINONES", "start": "2022-02-22 23:43:59", "n_tags": 4, "n_prof_temp": 1061, "in_my_download": 0}}, {"type": "Feature", "geometry": {"type": "Point", "coordinates": [-59.23042, -62.3136]}, "properties": {"deployment": "wd25", "country": "CHILE", "pi": "PINONES", "start": "2023-02-12 22:30:00", "n_tags": 5, "n_prof_temp": 884, "in_my_download": 0}}, {"type": "Feature", "geometry": {"type": "Point", "coordinates": [164.2789, -74.67335]}, "properties": {"deployment": "wd27", "country": "AUSTRALIA", "pi": "IMOS", "start": "2023-02-02 09:00:00", "n_tags": 2, "n_prof_temp": 981, "in_my_download": 1}}, {"type": "Feature", "geometry": {"type": "Point", "coordinates": [139.96766666666667, -66.61323333333333]}, "properties": {"deployment": "wd3", "country": "AUSTRALIA", "pi": "HINDELL", "start": "2007-02-20 15:19:59", "n_tags": 3, "n_prof_temp": 830, "in_my_download": 1}}, {"type": "Feature", "geometry": {"type": "Point", "coordinates": [140.0420625, -66.6591875]}, "properties": {"deployment": "wd30", "country": "AUSTRALIA", "pi": "IMOS", "start": "2024-02-06 03:10:00", "n_tags": 8, "n_prof_temp": 284, "in_my_download": 1}}]}